{
"type": "FeatureCollection",
"name": "atlas_verniquet_1791_voies",
"crs": { "type": "name", "properties": { "name": "urn:ogc:def:crs:OGC:1.3:CRS84" } },
"features": [
{ "type": "Feature", "properties": { "gid": 142, "streetname": null, "note": null }, "geometry": { "type": "MultiLineString", "coordinates": [ [ [ 2.292453227630012, 48.850782834910675 ], [ 2.292733346023347, 48.851108266808701 ] ] ] } },
{ "type": "Feature", "properties": { "gid": 171, "streetname": "boulevard de la Cunette", "note": null }, "geometry": { "type": "MultiLineString", "coordinates": [ [ [ 2.288736165086935, 48.854450864733103 ], [ 2.291922316395232, 48.851236456476848 ], [ 2.291942212595302, 48.850964165783616 ], [ 2.292453227630012, 48.850782834910675 ] ] ] } },
{ "type": "Feature", "properties": { "gid": 434, "streetname": null, "note": null }, "geometry": { "type": "MultiLineString", "coordinates": [ [ [ 2.360531657216203, 48.837495849450733 ], [ 2.359608240298802, 48.836264811100492 ], [ 2.357810132932593, 48.833854004316457 ], [ 2.356381482818282, 48.831917641833492 ], [ 2.356468826446227, 48.831722042232514 ], [ 2.356473623493426, 48.831568138548128 ], [ 2.356425011759613, 48.831449513271721 ], [ 2.356614313471314, 48.831180151234229 ], [ 2.356604576622927, 48.831119233000891 ], [ 2.356133438862988, 48.83098144071829 ], [ 2.356080785622581, 48.830969181590383 ], [ 2.356027161784621, 48.830956696450698 ] ] ] } },
{ "type": "Feature", "properties": { "gid": 435, "streetname": null, "note": null }, "geometry": { "type": "MultiLineString", "coordinates": [ [ [ 2.341097317681036, 48.831936399944723 ], [ 2.341101489612627, 48.831600458825044 ] ] ] } },
{ "type": "Feature", "properties": { "gid": 438, "streetname": null, "note": null }, "geometry": { "type": "MultiLineString", "coordinates": [ [ [ 2.344164409537178, 48.831081749277082 ], [ 2.344061577082394, 48.830776680523186 ] ] ] } },
{ "type": "Feature", "properties": { "gid": 442, "streetname": null, "note": null }, "geometry": { "type": "MultiLineString", "coordinates": [ [ [ 2.310283727594397, 48.845359685097513 ], [ 2.310453757918356, 48.845298991935117 ], [ 2.310681794908971, 48.844997102563042 ] ] ] } },
{ "type": "Feature", "properties": { "gid": 540, "streetname": "boulevard de Sèves", "note": null }, "geometry": { "type": "MultiLineString", "coordinates": [ [ [ 2.311365958105567, 48.845206511911606 ], [ 2.310938635904793, 48.845075717369923 ] ] ] } },
{ "type": "Feature", "properties": { "gid": 649, "streetname": "rue de Reuilly", "note": null }, "geometry": { "type": "MultiLineString", "coordinates": [ [ [ 2.395804487466265, 48.839749677022169 ], [ 2.396020626805594, 48.83957680651794 ] ] ] } },
{ "type": "Feature", "properties": { "gid": 703, "streetname": null, "note": null }, "geometry": { "type": "MultiLineString", "coordinates": [ [ [ 2.389480993548911, 48.838730083820622 ], [ 2.390276074466897, 48.839092153999907 ], [ 2.393970620839794, 48.839407909570681 ], [ 2.396020626805594, 48.83957680651794 ] ] ] } },
{ "type": "Feature", "properties": { "gid": 705, "streetname": null, "note": null }, "geometry": { "type": "MultiLineString", "coordinates": [ [ [ 2.402305431183281, 48.844980299699479 ], [ 2.400370194296623, 48.839769751856899 ], [ 2.400295274735041, 48.839699570749339 ], [ 2.400193779418681, 48.83967709980984 ] ] ] } },
{ "type": "Feature", "properties": { "gid": 706, "streetname": null, "note": null }, "geometry": { "type": "MultiLineString", "coordinates": [ [ [ 2.400193779418681, 48.83967709980984 ], [ 2.399862906783965, 48.839651714161207 ], [ 2.398745681238606, 48.83962987760399 ], [ 2.396020626805594, 48.83957680651794 ] ] ] } },
{ "type": "Feature", "properties": { "gid": 707, "streetname": null, "note": null }, "geometry": { "type": "MultiLineString", "coordinates": [ [ [ 2.378743885282073, 48.840553921338739 ], [ 2.378505623514003, 48.840418125652754 ], [ 2.37609039220495, 48.839043466208672 ], [ 2.375871935276398, 48.839142097013671 ], [ 2.375671259360715, 48.839034654994315 ] ] ] } },
{ "type": "Feature", "properties": { "gid": 718, "streetname": null, "note": null }, "geometry": { "type": "MultiLineString", "coordinates": [ [ [ 2.321038921355644, 48.842145102861913 ], [ 2.318194027936857, 48.841364044292128 ], [ 2.314853170131399, 48.840355738922561 ], [ 2.313914360100522, 48.841211723456396 ], [ 2.313709809087145, 48.841392824040433 ] ] ] } },
{ "type": "Feature", "properties": { "gid": 719, "streetname": null, "note": null }, "geometry": { "type": "MultiLineString", "coordinates": [ [ [ 2.313709809087145, 48.841392824040433 ], [ 2.313527450263746, 48.841595439107977 ], [ 2.31348365559036, 48.841755745547907 ], [ 2.313517568547418, 48.84194492493144 ], [ 2.313444652324873, 48.842053924334117 ], [ 2.313308569657073, 48.842198179894758 ], [ 2.312965951029305, 48.842517135536134 ], [ 2.312601426717942, 48.842920251090817 ] ] ] } },
{ "type": "Feature", "properties": { "gid": 724, "streetname": null, "note": null }, "geometry": { "type": "MultiLineString", "coordinates": [ [ [ 2.288736165086935, 48.854450864733103 ], [ 2.288545716055549, 48.854641592438789 ], [ 2.288744942139938, 48.85476428453196 ] ] ] } },
{ "type": "Feature", "properties": { "gid": 725, "streetname": null, "note": null }, "geometry": { "type": "MultiLineString", "coordinates": [ [ [ 2.288167064018823, 48.857905251776522 ], [ 2.287837826592224, 48.858076817384919 ], [ 2.288062148035539, 48.858273594553175 ], [ 2.288267404970117, 48.858181728063919 ], [ 2.290042882133679, 48.859592446998413 ], [ 2.289868548255179, 48.859730306844511 ], [ 2.28849345410258, 48.86057264617591 ], [ 2.287447484548715, 48.861305278157971 ], [ 2.287021352671559, 48.861591172840569 ], [ 2.287102598938145, 48.861642294457234 ], [ 2.286873999108538, 48.861816325241101 ] ] ] } },
{ "type": "Feature", "properties": { "gid": 727, "streetname": null, "note": null }, "geometry": { "type": "MultiLineString", "coordinates": [ [ [ 2.288618749356216, 48.865011542563487 ], [ 2.291722053468024, 48.869026342057666 ], [ 2.292594183706693, 48.869045864703445 ], [ 2.293131710487707, 48.869381698045963 ], [ 2.295628995841129, 48.872834773317102 ], [ 2.295000815662077, 48.873812561988103 ] ] ] } },
{ "type": "Feature", "properties": { "gid": 760, "streetname": null, "note": null }, "geometry": { "type": "MultiLineString", "coordinates": [ [ [ 2.288618749356216, 48.865011542563487 ], [ 2.286293016972167, 48.861851273614796 ], [ 2.286583920378871, 48.861630850140649 ], [ 2.286873999108538, 48.861816325241101 ] ] ] } },
{ "type": "Feature", "properties": { "gid": 768, "streetname": null, "note": null }, "geometry": { "type": "MultiLineString", "coordinates": [ [ [ 2.336002427734595, 48.833354251466332 ], [ 2.335816887535202, 48.833040548197452 ] ] ] } },
{ "type": "Feature", "properties": { "gid": 780, "streetname": null, "note": null }, "geometry": { "type": "MultiLineString", "coordinates": [ [ [ 2.341101489612627, 48.831600458825044 ], [ 2.340854824562122, 48.831669100029437 ], [ 2.335816887535202, 48.833040548197452 ] ] ] } },
{ "type": "Feature", "properties": { "gid": 781, "streetname": null, "note": null }, "geometry": { "type": "MultiLineString", "coordinates": [ [ [ 2.344061577082394, 48.830776680523186 ], [ 2.341101489612627, 48.831600458825044 ] ] ] } },
{ "type": "Feature", "properties": { "gid": 888, "streetname": null, "note": null }, "geometry": { "type": "MultiLineString", "coordinates": [ [ [ 2.310938635904793, 48.845075717369923 ], [ 2.310699217574497, 48.845412932185575 ], [ 2.310325095932822, 48.845523462387938 ], [ 2.306227791308083, 48.846687803598549 ] ] ] } },
{ "type": "Feature", "properties": { "gid": 937, "streetname": "quai de la Rapee", "note": null }, "geometry": { "type": "MultiLineString", "coordinates": [ [ [ 2.375671259360715, 48.839034654994315 ], [ 2.375985644953287, 48.838745002319584 ] ] ] } },
{ "type": "Feature", "properties": { "gid": 939, "streetname": null, "note": null }, "geometry": { "type": "MultiLineString", "coordinates": [ [ [ 2.331895954334873, 48.833701522277472 ], [ 2.330767338994088, 48.834131421344416 ], [ 2.331660883975976, 48.835154281286059 ] ] ] } },
{ "type": "Feature", "properties": { "gid": 1070, "streetname": null, "note": null }, "geometry": { "type": "MultiLineString", "coordinates": [ [ [ 2.375985644953287, 48.838745002319584 ], [ 2.378977963793067, 48.840384450899748 ] ] ] } },
{ "type": "Feature", "properties": { "gid": 1158, "streetname": "Avenue de l Ecole Royal Militaire aux Invalides", "note": null }, "geometry": { "type": "MultiLineString", "coordinates": [ [ [ 2.302421987579987, 48.84852860161714 ], [ 2.301538348724528, 48.847928628941681 ] ] ] } },
{ "type": "Feature", "properties": { "gid": 1161, "streetname": "boulevard des Ministres", "note": null }, "geometry": { "type": "MultiLineString", "coordinates": [ [ [ 2.292453227630012, 48.850782834910675 ], [ 2.301538348724528, 48.847928628941681 ] ] ] } },
{ "type": "Feature", "properties": { "gid": 1162, "streetname": "boulevard des Ministres", "note": null }, "geometry": { "type": "MultiLineString", "coordinates": [ [ [ 2.301538348724528, 48.847928628941681 ], [ 2.310283727594397, 48.845359685097513 ] ] ] } },
{ "type": "Feature", "properties": { "gid": 1340, "streetname": "rue du Mont Parnasse", "note": null }, "geometry": { "type": "MultiLineString", "coordinates": [ [ [ 2.324854100455742, 48.841271033064324 ], [ 2.32472960654471, 48.841122620929113 ] ] ] } },
{ "type": "Feature", "properties": { "gid": 1347, "streetname": "Boulevard du Mont Parnasse", "note": null }, "geometry": { "type": "MultiLineString", "coordinates": [ [ [ 2.32472960654471, 48.841122620929113 ], [ 2.330098072850288, 48.839329371621417 ], [ 2.331660883975976, 48.835154281286059 ] ] ] } },
{ "type": "Feature", "properties": { "gid": 1349, "streetname": "route du Maine", "note": null }, "geometry": { "type": "MultiLineString", "coordinates": [ [ [ 2.320923596915328, 48.842521823674893 ], [ 2.321038921355644, 48.842145102861913 ] ] ] } },
{ "type": "Feature", "properties": { "gid": 1350, "streetname": null, "note": null }, "geometry": { "type": "MultiLineString", "coordinates": [ [ [ 2.321038921355644, 48.842145102861913 ], [ 2.321607914634467, 48.842230923978235 ], [ 2.32472960654471, 48.841122620929113 ] ] ] } },
{ "type": "Feature", "properties": { "gid": 1351, "streetname": "rue des Fourneaux", "note": null }, "geometry": { "type": "MultiLineString", "coordinates": [ [ [ 2.313709809087145, 48.841392824040433 ], [ 2.314154946837329, 48.841610686546943 ] ] ] } },
{ "type": "Feature", "properties": { "gid": 1528, "streetname": "avenue de Vincennes", "note": null }, "geometry": { "type": "MultiLineString", "coordinates": [ [ [ 2.398337123544868, 48.84813805570743 ], [ 2.399194179622038, 48.848080824370804 ] ] ] } },
{ "type": "Feature", "properties": { "gid": 1548, "streetname": "quai des Bons Hommes", "note": null }, "geometry": { "type": "MultiLineString", "coordinates": [ [ [ 2.288167064018823, 48.857905251776522 ], [ 2.290582300575362, 48.859887305067268 ], [ 2.291859041003649, 48.861342672476646 ], [ 2.292736799945434, 48.86194935247525 ], [ 2.293362753131019, 48.862233981665192 ] ] ] } },
{ "type": "Feature", "properties": { "gid": 1549, "streetname": null, "note": null }, "geometry": { "type": "MultiLineString", "coordinates": [ [ [ 2.402305431183281, 48.844980299699479 ], [ 2.402334582538897, 48.845171039420066 ], [ 2.399042293514163, 48.847442711522575 ], [ 2.399194179622038, 48.848080824370804 ] ] ] } },
{ "type": "Feature", "properties": { "gid": 1561, "streetname": null, "note": null }, "geometry": { "type": "MultiLineString", "coordinates": [ [ [ 2.399194179622038, 48.848080824370804 ], [ 2.399376671234056, 48.848847496950007 ], [ 2.398820898462326, 48.850452059786406 ] ] ] } },
{ "type": "Feature", "properties": { "gid": 1864, "streetname": null, "note": null }, "geometry": { "type": "MultiLineString", "coordinates": [ [ [ 2.356027161784621, 48.830956696450698 ], [ 2.355832321744507, 48.83126316753107 ] ] ] } },
{ "type": "Feature", "properties": { "gid": 1869, "streetname": "Rue d' Enfer", "note": null }, "geometry": { "type": "MultiLineString", "coordinates": [ [ [ 2.331895954334873, 48.833701522277472 ], [ 2.332208137894172, 48.834060486963061 ] ] ] } },
{ "type": "Feature", "properties": { "gid": 1871, "streetname": null, "note": null }, "geometry": { "type": "MultiLineString", "coordinates": [ [ [ 2.335816887535202, 48.833040548197452 ], [ 2.333360923405992, 48.833749987658436 ], [ 2.33297241802016, 48.833291471530821 ], [ 2.331895954334873, 48.833701522277472 ] ] ] } },
{ "type": "Feature", "properties": { "gid": 1885, "streetname": "boulevard de Sèves", "note": null }, "geometry": { "type": "MultiLineString", "coordinates": [ [ [ 2.310938635904793, 48.845075717369923 ], [ 2.310681794908971, 48.844997102563042 ] ] ] } },
{ "type": "Feature", "properties": { "gid": 1904, "streetname": null, "note": null }, "geometry": { "type": "MultiLineString", "coordinates": [ [ [ 2.356027161784621, 48.830956696450698 ], [ 2.355555461387371, 48.830846870014142 ], [ 2.355030927017272, 48.830763589013998 ], [ 2.354778398407969, 48.830792484928146 ], [ 2.354589022187067, 48.830872671648045 ], [ 2.354535622720719, 48.830936805957712 ], [ 2.352063405808773, 48.830125957853397 ], [ 2.349775830309191, 48.829388781185642 ], [ 2.349615563342194, 48.829363148225518 ], [ 2.34942616614959, 48.829369581255513 ], [ 2.348989102635661, 48.829414515491706 ], [ 2.34857633417681, 48.829520365522747 ], [ 2.344749656786209, 48.830585176895191 ], [ 2.344061577082394, 48.830776680523186 ] ] ] } },
{ "type": "Feature", "properties": { "gid": 2161, "streetname": "avenue de Saint-Mandé", "note": null }, "geometry": { "type": "MultiLineString", "coordinates": [ [ [ 2.402043741542359, 48.845002867660881 ], [ 2.402305431183281, 48.844980299699479 ] ] ] } },
{ "type": "Feature", "properties": { "gid": 2804, "streetname": "rue de Picpus", "note": null }, "geometry": { "type": "MultiLineString", "coordinates": [ [ [ 2.399920405939128, 48.839886055408236 ], [ 2.400193779418681, 48.83967709980984 ] ] ] } },
{ "type": "Feature", "properties": { "gid": 2868, "streetname": "Rue de Charenton", "note": null }, "geometry": { "type": "MultiLineString", "coordinates": [ [ [ 2.389236732408998, 48.839011218829832 ], [ 2.389480993548911, 48.838730083820622 ] ] ] } },
{ "type": "Feature", "properties": { "gid": 3039, "streetname": "Rue de Bercy", "note": null }, "geometry": { "type": "MultiLineString", "coordinates": [ [ [ 2.378743885282073, 48.840553921338739 ], [ 2.378977963793067, 48.840384450899748 ] ] ] } },
{ "type": "Feature", "properties": { "gid": 3040, "streetname": null, "note": null }, "geometry": { "type": "MultiLineString", "coordinates": [ [ [ 2.378977963793067, 48.840384450899748 ], [ 2.379238158989673, 48.840508347007223 ], [ 2.388224136989885, 48.838930946416866 ], [ 2.388613738922662, 48.83842526751485 ], [ 2.389480993548911, 48.838730083820622 ] ] ] } },
{ "type": "Feature", "properties": { "gid": 3314, "streetname": "Rue de Longchamps", "note": null }, "geometry": { "type": "MultiLineString", "coordinates": [ [ [ 2.288618749356216, 48.865011542563487 ], [ 2.288902470207188, 48.865011662872675 ] ] ] } }
]
}
