{
"type": "FeatureCollection",
"name": "atlas_jacoubet_1836_voies",
"crs": { "type": "name", "properties": { "name": "urn:ogc:def:crs:OGC:1.3:CRS84" } },
"features": [
{ "type": "Feature", "properties": { "gid": 632, "nom_entier": "Rue de Bercy" }, "geometry": { "type": "MultiLineString", "coordinates": [ [ [ 2.378757096195856, 48.840582917827199 ], [ 2.378943993508738, 48.840443610678406 ] ] ] } },
{ "type": "Feature", "properties": { "gid": 639, "nom_entier": "Quai de la Rapée" }, "geometry": { "type": "MultiLineString", "coordinates": [ [ [ 2.375000793982502, 48.839631426916789 ], [ 2.375731665815123, 48.83888522145034 ] ] ] } },
{ "type": "Feature", "properties": { "gid": 640, "nom_entier": "Quai de la Rapée" }, "geometry": { "type": "MultiLineString", "coordinates": [ [ [ 2.375731665815123, 48.83888522145034 ], [ 2.375892497053912, 48.838769290045946 ] ] ] } },
{ "type": "Feature", "properties": { "gid": 662, "nom_entier": "Rue de Reuilly" }, "geometry": { "type": "MultiLineString", "coordinates": [ [ [ 2.395880108204559, 48.839702574720938 ], [ 2.395910988916349, 48.839523914817079 ] ] ] } },
{ "type": "Feature", "properties": { "gid": 701, "nom_entier": "Rue de Picpus" }, "geometry": { "type": "MultiLineString", "coordinates": [ [ [ 2.399985521347477, 48.839858203448181 ], [ 2.400165454701271, 48.83966649500519 ] ] ] } },
{ "type": "Feature", "properties": { "gid": 716, "nom_entier": "Chemin de Ronde" }, "geometry": { "type": "MultiLineString", "coordinates": [ [ [ 2.378757096195856, 48.840582917827199 ], [ 2.378757093723334, 48.840582916633295 ], [ 2.378463021026767, 48.840405460955992 ], [ 2.376574998381338, 48.839327018456629 ], [ 2.375731665815123, 48.83888522145034 ] ] ] } },
{ "type": "Feature", "properties": { "gid": 719, "nom_entier": "Avenue Saint-Mandé" }, "geometry": { "type": "MultiLineString", "coordinates": [ [ [ 2.402012209130601, 48.844996182721836 ], [ 2.402340232879116, 48.84496908533017 ] ] ] } },
{ "type": "Feature", "properties": { "gid": 911, "nom_entier": "Quai d'Orsay" }, "geometry": { "type": "MultiLineString", "coordinates": [ [ [ 2.288809744459235, 48.854793739656124 ], [ 2.288493746853027, 48.854597956895091 ] ] ] } },
{ "type": "Feature", "properties": { "gid": 945, "nom_entier": "Pont de la Gare" }, "geometry": { "type": "MultiLineString", "coordinates": [ [ [ 2.375892497053912, 48.838769290045946 ], [ 2.375594491488433, 48.838581836743167 ], [ 2.373646517272714, 48.837464846862787 ] ] ] } },
{ "type": "Feature", "properties": { "gid": 1417, "nom_entier": "Chemin de Ronde" }, "geometry": { "type": "MultiLineString", "coordinates": [ [ [ 2.373476369682515, 48.837604606819099 ], [ 2.372877415409381, 48.837256864841876 ], [ 2.371552269665803, 48.836513015941577 ], [ 2.37096852591149, 48.836217243824386 ], [ 2.370141289368853, 48.835794375486117 ], [ 2.369072068323883, 48.835442117229015 ], [ 2.367472137398315, 48.834915015989679 ], [ 2.366981238117824, 48.834744242836379 ] ] ] } },
{ "type": "Feature", "properties": { "gid": 1426, "nom_entier": null }, "geometry": { "type": "MultiLineString", "coordinates": [ [ [ 2.361805498402292, 48.833030865153489 ], [ 2.361904446142703, 48.832854484033817 ] ] ] } },
{ "type": "Feature", "properties": { "gid": 1851, "nom_entier": "Rue du Faubourg Saint-Jacques" }, "geometry": { "type": "MultiLineString", "coordinates": [ [ [ 2.336074519443128, 48.833315019303569 ], [ 2.336074519440777, 48.833315019299881 ], [ 2.33588671665522, 48.833020442819517 ] ] ] } },
{ "type": "Feature", "properties": { "gid": 2076, "nom_entier": "Rue du Mont-Parnasse" }, "geometry": { "type": "MultiLineString", "coordinates": [ [ [ 2.324860087678428, 48.841248945684512 ], [ 2.324719431363679, 48.841077056912304 ] ] ] } },
{ "type": "Feature", "properties": { "gid": 2107, "nom_entier": "Rue Dupleix" }, "geometry": { "type": "MultiLineString", "coordinates": [ [ [ 2.292299752760732, 48.850771260383006 ], [ 2.29268648357069, 48.851149190286492 ] ] ] } },
{ "type": "Feature", "properties": { "gid": 2116, "nom_entier": "Rue des Paillassons" }, "geometry": { "type": "MultiLineString", "coordinates": [ [ [ 2.306526773695237, 48.846843890368163 ], [ 2.306449646198674, 48.846789282404359 ], [ 2.306359599124559, 48.846756819329954 ], [ 2.306137337765702, 48.846698592540484 ] ] ] } },
{ "type": "Feature", "properties": { "gid": 2130, "nom_entier": "Rue Barthélémy" }, "geometry": { "type": "MultiLineString", "coordinates": [ [ [ 2.309535830661752, 48.845725304952033 ], [ 2.310626083782686, 48.846019061232298 ], [ 2.311476234546153, 48.84623748362786 ] ] ] } },
{ "type": "Feature", "properties": { "gid": 2153, "nom_entier": "Avnue Lowendal" }, "geometry": { "type": "MultiLineString", "coordinates": [ [ [ 2.302404741131805, 48.848540654254208 ], [ 2.302365534390721, 48.84851257165834 ], [ 2.301648735304237, 48.847986224264844 ] ] ] } },
{ "type": "Feature", "properties": { "gid": 2182, "nom_entier": "Chemin de Ronde" }, "geometry": { "type": "MultiLineString", "coordinates": [ [ [ 2.29268648357069, 48.851149190286492 ], [ 2.292441113906707, 48.851208506735212 ], [ 2.292154040093582, 48.851273468115991 ], [ 2.291645817054703, 48.851817275892785 ] ] ] } },
{ "type": "Feature", "properties": { "gid": 2187, "nom_entier": "Chemin de Ronde" }, "geometry": { "type": "MultiLineString", "coordinates": [ [ [ 2.310999486173962, 48.845068385183637 ], [ 2.310837370943156, 48.845316533967704 ], [ 2.310581691309465, 48.845398385326405 ], [ 2.309535830661752, 48.845725304952033 ] ] ] } },
{ "type": "Feature", "properties": { "gid": 2188, "nom_entier": "Chemin de Ronde" }, "geometry": { "type": "MultiLineString", "coordinates": [ [ [ 2.309535830661752, 48.845725304952033 ], [ 2.308296058852692, 48.846075396568722 ], [ 2.307083779478915, 48.846414177861917 ], [ 2.306137337765702, 48.846698592540484 ] ] ] } },
{ "type": "Feature", "properties": { "gid": 2189, "nom_entier": "Chemin de Ronde" }, "geometry": { "type": "MultiLineString", "coordinates": [ [ [ 2.306137337765702, 48.846698592540484 ], [ 2.305503851920443, 48.846866078694383 ], [ 2.305392740746055, 48.846993197761734 ], [ 2.305202342871882, 48.847069861637728 ], [ 2.305012759272266, 48.847085425368782 ], [ 2.303335413813041, 48.847581171253175 ], [ 2.302482000799361, 48.84782894942709 ], [ 2.302969406832519, 48.848201194758602 ], [ 2.302404741131805, 48.848540654254208 ] ] ] } },
{ "type": "Feature", "properties": { "gid": 2192, "nom_entier": "Chemin de Ronde" }, "geometry": { "type": "MultiLineString", "coordinates": [ [ [ 2.314043163709149, 48.841591739008692 ], [ 2.313134656367802, 48.842473101278173 ], [ 2.312929594763249, 48.842706621545709 ], [ 2.312917391334169, 48.842834315943058 ], [ 2.312863184053654, 48.842956214089028 ], [ 2.312817611965466, 48.843006697352926 ] ] ] } },
{ "type": "Feature", "properties": { "gid": 2193, "nom_entier": "Chemin de Ronde" }, "geometry": { "type": "MultiLineString", "coordinates": [ [ [ 2.320767382172556, 48.842536058174204 ], [ 2.32023418500537, 48.842421996859308 ], [ 2.320338428515201, 48.842172615263706 ], [ 2.319127027930141, 48.841812985451753 ], [ 2.314817778869729, 48.840557951895114 ], [ 2.314009213698718, 48.841247691114262 ], [ 2.314272609422445, 48.841376965909504 ], [ 2.314043163709149, 48.841591739008692 ] ] ] } },
{ "type": "Feature", "properties": { "gid": 2195, "nom_entier": "Chemin de Ronde" }, "geometry": { "type": "MultiLineString", "coordinates": [ [ [ 2.324860087678428, 48.841248945684512 ], [ 2.32265073472076, 48.84200797110524 ], [ 2.32155589729904, 48.842390615176122 ], [ 2.321451912289802, 48.842620556813387 ], [ 2.321384300129482, 48.842642393180689 ], [ 2.320767382172556, 48.842536058174204 ] ] ] } },
{ "type": "Feature", "properties": { "gid": 2198, "nom_entier": "Avenue du Maine" }, "geometry": { "type": "MultiLineString", "coordinates": [ [ [ 2.320927937595332, 48.842142633673078 ], [ 2.320767382172556, 48.842536058174204 ] ] ] } },
{ "type": "Feature", "properties": { "gid": 2201, "nom_entier": "Rue des Fourneaux" }, "geometry": { "type": "MultiLineString", "coordinates": [ [ [ 2.313561698773742, 48.841360390334309 ], [ 2.314043163709149, 48.841591739008692 ] ] ] } },
{ "type": "Feature", "properties": { "gid": 2212, "nom_entier": "Chemin de Ronde" }, "geometry": { "type": "MultiLineString", "coordinates": [ [ [ 2.29317405013281, 48.869192138998017 ], [ 2.293333251256823, 48.86937136618846 ], [ 2.293900021279283, 48.870110729312302 ], [ 2.295004252314073, 48.871580940852191 ], [ 2.295352520259665, 48.87198016288491 ], [ 2.295736731556826, 48.8725240210454 ], [ 2.296009373452213, 48.872600615174747 ], [ 2.296347307873082, 48.87273045533572 ] ] ] } },
{ "type": "Feature", "properties": { "gid": 2214, "nom_entier": "Chemin de Ronde" }, "geometry": { "type": "MultiLineString", "coordinates": [ [ [ 2.288923880133332, 48.865076756175178 ], [ 2.289057478282841, 48.865232664256759 ], [ 2.289015004346471, 48.865260186344216 ], [ 2.289411955825117, 48.865787479848045 ], [ 2.28960902083898, 48.866065103521294 ] ] ] } },
{ "type": "Feature", "properties": { "gid": 2215, "nom_entier": "Chemin de Ronde" }, "geometry": { "type": "MultiLineString", "coordinates": [ [ [ 2.28960902083898, 48.866065103521294 ], [ 2.290115917756348, 48.86672689364935 ] ] ] } },
{ "type": "Feature", "properties": { "gid": 2216, "nom_entier": "Chemin de Ronde" }, "geometry": { "type": "MultiLineString", "coordinates": [ [ [ 2.290115917756348, 48.86672689364935 ], [ 2.290598157142834, 48.86740542973255 ], [ 2.291103572986967, 48.86800834991881 ], [ 2.291554424678417, 48.86859983489687 ], [ 2.291758777334874, 48.868742693248429 ] ] ] } },
{ "type": "Feature", "properties": { "gid": 2217, "nom_entier": "Chemin de Ronde" }, "geometry": { "type": "MultiLineString", "coordinates": [ [ [ 2.291758777334874, 48.868742693248429 ], [ 2.292085818806423, 48.868841838053449 ], [ 2.292597790620798, 48.868964294511358 ], [ 2.292916340080738, 48.869068941678236 ], [ 2.293062967026827, 48.869122578950446 ], [ 2.29317405013281, 48.869192138998017 ] ] ] } },
{ "type": "Feature", "properties": { "gid": 2218, "nom_entier": "Chemin de Ronde" }, "geometry": { "type": "MultiLineString", "coordinates": [ [ [ 2.286855458314279, 48.861825071419084 ], [ 2.286609501806777, 48.862001816300541 ], [ 2.287279397990091, 48.862870553534556 ] ] ] } },
{ "type": "Feature", "properties": { "gid": 2219, "nom_entier": "Chemin de Ronde" }, "geometry": { "type": "MultiLineString", "coordinates": [ [ [ 2.287279397990091, 48.862870553534556 ], [ 2.28727939843363, 48.862870554109733 ], [ 2.288213389703674, 48.864155554650807 ], [ 2.288718784338091, 48.864755709461441 ], [ 2.288923880133332, 48.865076756175178 ] ] ] } },
{ "type": "Feature", "properties": { "gid": 2220, "nom_entier": "Chemin de Ronde" }, "geometry": { "type": "MultiLineString", "coordinates": [ [ [ 2.288141796579453, 48.857958901311584 ], [ 2.288071400674107, 48.857911000283913 ], [ 2.287697714402633, 48.858150415400473 ], [ 2.288320005361739, 48.85866239266921 ], [ 2.28864604800798, 48.858521292237583 ], [ 2.289291464271894, 48.859036179122079 ], [ 2.290021986292992, 48.859639056963374 ], [ 2.289306758738451, 48.860075037861293 ], [ 2.288656138414411, 48.860471940074078 ] ] ] } },
{ "type": "Feature", "properties": { "gid": 2228, "nom_entier": "Boulevard Extérieur" }, "geometry": { "type": "MultiLineString", "coordinates": [ [ [ 2.373646517272714, 48.837464846862787 ], [ 2.370457219000503, 48.83572050072862 ], [ 2.366518639486829, 48.834372064957357 ], [ 2.361904446142703, 48.832854484033817 ] ] ] } },
{ "type": "Feature", "properties": { "gid": 2229, "nom_entier": "Boulevard Extérieur" }, "geometry": { "type": "MultiLineString", "coordinates": [ [ [ 2.361904446142703, 48.832854484033817 ], [ 2.358749965666738, 48.831797588036501 ], [ 2.355905417997279, 48.83094274286438 ] ] ] } },
{ "type": "Feature", "properties": { "gid": 2230, "nom_entier": "Boulevard Extérieur" }, "geometry": { "type": "MultiLineString", "coordinates": [ [ [ 2.378943993508738, 48.840443610678406 ], [ 2.377888136740757, 48.839897828873205 ], [ 2.375892497053912, 48.838769290045946 ] ] ] } },
{ "type": "Feature", "properties": { "gid": 2231, "nom_entier": "Boulevard Extérieur" }, "geometry": { "type": "MultiLineString", "coordinates": [ [ [ 2.400165454701271, 48.83966649500519 ], [ 2.398837551352951, 48.839613321377904 ], [ 2.395910988916349, 48.839523914817079 ] ] ] } },
{ "type": "Feature", "properties": { "gid": 2232, "nom_entier": "Boulevard Extérieur" }, "geometry": { "type": "MultiLineString", "coordinates": [ [ [ 2.395910988916349, 48.839523914817079 ], [ 2.393677831929285, 48.839342861996613 ], [ 2.3903737692847, 48.839070541302647 ], [ 2.389462479256609, 48.838771274577091 ] ] ] } },
{ "type": "Feature", "properties": { "gid": 2233, "nom_entier": "Boulevard Extérieur" }, "geometry": { "type": "MultiLineString", "coordinates": [ [ [ 2.389462479256609, 48.838771274577091 ], [ 2.388739323914142, 48.838512260006162 ], [ 2.388240702095455, 48.838693024480342 ], [ 2.387934443371687, 48.838974760458406 ], [ 2.384603111364266, 48.839590933138282 ], [ 2.379180607753346, 48.840546140509915 ], [ 2.378943993508738, 48.840443610678406 ] ] ] } },
{ "type": "Feature", "properties": { "gid": 2240, "nom_entier": "Boulevard Extérieur" }, "geometry": { "type": "MultiLineString", "coordinates": [ [ [ 2.399231477337306, 48.84809468101286 ], [ 2.399160526713593, 48.8473668413802 ], [ 2.400853702376161, 48.846144920634003 ], [ 2.402334110451508, 48.845121889183567 ], [ 2.402340232879116, 48.84496908533017 ] ] ] } },
{ "type": "Feature", "properties": { "gid": 2241, "nom_entier": "Boulevard Extérieur" }, "geometry": { "type": "MultiLineString", "coordinates": [ [ [ 2.402340232879116, 48.84496908533017 ], [ 2.402195119103171, 48.844765680125967 ], [ 2.401463660779591, 48.842867794495454 ], [ 2.401031493609509, 48.841660211715222 ], [ 2.400459452958136, 48.840176955499729 ], [ 2.400300568612063, 48.839723431333688 ], [ 2.400165454701271, 48.83966649500519 ] ] ] } },
{ "type": "Feature", "properties": { "gid": 2285, "nom_entier": "Boulevard Extérieur" }, "geometry": { "type": "MultiLineString", "coordinates": [ [ [ 2.288630063416542, 48.865087086353661 ], [ 2.289089223943965, 48.865682798040176 ], [ 2.290453288376894, 48.867532332957239 ], [ 2.291638533215559, 48.869071107138218 ], [ 2.291984038931843, 48.869050931987481 ], [ 2.29245094952077, 48.869081467312007 ], [ 2.292978519857588, 48.869295669455511 ], [ 2.293211217482909, 48.869522015473478 ], [ 2.293934876674147, 48.870490053559209 ], [ 2.294914394587118, 48.871842877953924 ], [ 2.295485161084454, 48.872601697105758 ], [ 2.295086332384016, 48.873760309902259 ] ] ] } },
{ "type": "Feature", "properties": { "gid": 2286, "nom_entier": "Boulevard Extérieur" }, "geometry": { "type": "MultiLineString", "coordinates": [ [ [ 2.286549411218158, 48.861635216649553 ], [ 2.28631306252162, 48.861823680795013 ], [ 2.286671582821502, 48.862386862975626 ], [ 2.287089377362057, 48.862987971827422 ] ] ] } },
{ "type": "Feature", "properties": { "gid": 2287, "nom_entier": "Boulevard Extérieur" }, "geometry": { "type": "MultiLineString", "coordinates": [ [ [ 2.287089377362057, 48.862987971827422 ], [ 2.288403360020109, 48.864733003620451 ], [ 2.288630063416542, 48.865087086353661 ] ] ] } },
{ "type": "Feature", "properties": { "gid": 2288, "nom_entier": "Boulevard Extérieur" }, "geometry": { "type": "MultiLineString", "coordinates": [ [ [ 2.331825070197624, 48.833722220171516 ], [ 2.330590639755731, 48.834181938234124 ], [ 2.331623150604246, 48.835032073494141 ], [ 2.330104195111606, 48.839295367277053 ], [ 2.324719431363679, 48.841077056912304 ] ] ] } },
{ "type": "Feature", "properties": { "gid": 2289, "nom_entier": "Boulevard Extérieur" }, "geometry": { "type": "MultiLineString", "coordinates": [ [ [ 2.324719431363679, 48.841077056912304 ], [ 2.321541299155895, 48.842219022537343 ], [ 2.320927937595332, 48.842142633673078 ] ] ] } },
{ "type": "Feature", "properties": { "gid": 2290, "nom_entier": "Boulevard Extérieur" }, "geometry": { "type": "MultiLineString", "coordinates": [ [ [ 2.320927937595332, 48.842142633673078 ], [ 2.32011417762028, 48.841944281288761 ], [ 2.31479965313683, 48.840336342920075 ], [ 2.313561698773742, 48.841360390334309 ] ] ] } },
{ "type": "Feature", "properties": { "gid": 2291, "nom_entier": "Boulevard Extérieur" }, "geometry": { "type": "MultiLineString", "coordinates": [ [ [ 2.33588671665522, 48.833020442819517 ], [ 2.333170939125673, 48.833757505847707 ], [ 2.332780318744947, 48.833377586650457 ], [ 2.331825070197624, 48.833722220171516 ] ] ] } },
{ "type": "Feature", "properties": { "gid": 2293, "nom_entier": "Boulevard Extérieur" }, "geometry": { "type": "MultiLineString", "coordinates": [ [ [ 2.355905417997279, 48.83094274286438 ], [ 2.355043369242265, 48.830788865864626 ], [ 2.35458732219971, 48.830925281009627 ], [ 2.349843503477414, 48.829438617469989 ], [ 2.349263335571991, 48.82940768701426 ], [ 2.345380129271165, 48.830430839209093 ], [ 2.340406710814975, 48.83182004385354 ], [ 2.33588671665522, 48.833020442819517 ] ] ] } },
{ "type": "Feature", "properties": { "gid": 2294, "nom_entier": "Boulevard Extérieur" }, "geometry": { "type": "MultiLineString", "coordinates": [ [ [ 2.312592647809068, 48.84293749037468 ], [ 2.312446320743556, 48.842896880418266 ], [ 2.311949116585873, 48.843584227513695 ], [ 2.311323720009805, 48.844418041033997 ], [ 2.311056931419073, 48.844703974631216 ], [ 2.310845785484525, 48.845018669105102 ] ] ] } },
{ "type": "Feature", "properties": { "gid": 2296, "nom_entier": "Boulevard Extérieur" }, "geometry": { "type": "MultiLineString", "coordinates": [ [ [ 2.313561698773742, 48.841360390334309 ], [ 2.313458014054713, 48.841564634934549 ], [ 2.313484979572743, 48.841753659107184 ], [ 2.313393948975658, 48.841955893502885 ], [ 2.312592647809068, 48.84293749037468 ] ] ] } },
{ "type": "Feature", "properties": { "gid": 2297, "nom_entier": "Boulevard Extérieur" }, "geometry": { "type": "MultiLineString", "coordinates": [ [ [ 2.310845785484525, 48.845018669105102 ], [ 2.310674588914054, 48.844976743136073 ], [ 2.310466759440585, 48.845258848790309 ], [ 2.309818439737221, 48.845437035487912 ], [ 2.308512799990607, 48.845836397294072 ], [ 2.306263092671067, 48.846498301186578 ], [ 2.305439537490972, 48.846718498832104 ], [ 2.305079968570816, 48.846858062346357 ], [ 2.30339823739541, 48.847367671093799 ], [ 2.302397582788054, 48.847611813807291 ], [ 2.301648735304237, 48.847986224264844 ] ] ] } },
{ "type": "Feature", "properties": { "gid": 2298, "nom_entier": "Boulevard Extérieur" }, "geometry": { "type": "MultiLineString", "coordinates": [ [ [ 2.301648735304237, 48.847986224264844 ], [ 2.30052948847041, 48.848206397245953 ], [ 2.298809048450112, 48.848771264638522 ], [ 2.296573370088381, 48.849466397988614 ], [ 2.294916420499823, 48.849998252807474 ], [ 2.292299752760732, 48.850771260383006 ] ] ] } },
{ "type": "Feature", "properties": { "gid": 2299, "nom_entier": "Boulevard Extérieur" }, "geometry": { "type": "MultiLineString", "coordinates": [ [ [ 2.292299752760732, 48.850771260383006 ], [ 2.291348175910439, 48.851807527768393 ], [ 2.289440205746196, 48.853762661793148 ], [ 2.288983371183669, 48.854237672587047 ], [ 2.288825643918007, 48.85438394101827 ], [ 2.288493746853027, 48.854597956895091 ] ] ] } },
{ "type": "Feature", "properties": { "gid": 2519, "nom_entier": null }, "geometry": { "type": "MultiLineString", "coordinates": [ [ [ 2.355741450705188, 48.831266761759785 ], [ 2.355905417997279, 48.83094274286438 ] ] ] } },
{ "type": "Feature", "properties": { "gid": 2781, "nom_entier": "Rue du Chemin de Versailles" }, "geometry": { "type": "MultiLineString", "coordinates": [ [ [ 2.295897461267003, 48.86971890132827 ], [ 2.2957248652463, 48.869592447930799 ], [ 2.295591280934201, 48.869512009851441 ], [ 2.295135374963706, 48.869415894049673 ], [ 2.294919276068547, 48.869296526619635 ], [ 2.294671748788082, 48.86915640140743 ], [ 2.294227743700148, 48.868940998817003 ], [ 2.294007675344813, 48.86887089913138 ], [ 2.293846505006189, 48.868876024455005 ], [ 2.293673494301659, 48.868935602418922 ], [ 2.29328418374386, 48.869109198298396 ], [ 2.29317405013281, 48.869192138998017 ] ] ] } },
{ "type": "Feature", "properties": { "gid": 2815, "nom_entier": "Quai d'Austerlitz" }, "geometry": { "type": "MultiLineString", "coordinates": [ [ [ 2.372722506171097, 48.838260560881778 ], [ 2.373026306136614, 48.837969584476483 ], [ 2.373282222530734, 48.837764078885165 ], [ 2.373476369682515, 48.837604606819099 ] ] ] } },
{ "type": "Feature", "properties": { "gid": 2816, "nom_entier": "Quai d'Austerlitz" }, "geometry": { "type": "MultiLineString", "coordinates": [ [ [ 2.373476369682515, 48.837604606819099 ], [ 2.373646517272714, 48.837464846862787 ] ] ] } },
{ "type": "Feature", "properties": { "gid": 2894, "nom_entier": "Rue de Sèvres" }, "geometry": { "type": "MultiLineString", "coordinates": [ [ [ 2.310999486173962, 48.845068385183637 ], [ 2.310845780584442, 48.845018668662554 ], [ 2.310845785484525, 48.845018669105102 ] ] ] } },
{ "type": "Feature", "properties": { "gid": 3080, "nom_entier": "Quai Debilly" }, "geometry": { "type": "MultiLineString", "coordinates": [ [ [ 2.288141796579453, 48.857958901311584 ], [ 2.289056775704871, 48.858690575197521 ], [ 2.289590857579202, 48.859116085375483 ], [ 2.290219183594605, 48.85963498738392 ], [ 2.290631379607792, 48.860135645502766 ], [ 2.291069261568548, 48.860494982665294 ] ] ] } },
{ "type": "Feature", "properties": { "gid": 3180, "nom_entier": null }, "geometry": { "type": "MultiLineString", "coordinates": [ [ [ 2.287089377362057, 48.862987971827422 ], [ 2.287279397990091, 48.862870553534556 ] ] ] } },
{ "type": "Feature", "properties": { "gid": 3213, "nom_entier": "Rue de Lubeck" }, "geometry": { "type": "MultiLineString", "coordinates": [ [ [ 2.286549411218158, 48.861635216649553 ], [ 2.286855458314279, 48.861825071419084 ] ] ] } },
{ "type": "Feature", "properties": { "gid": 3291, "nom_entier": "Rue de Longchamps" }, "geometry": { "type": "MultiLineString", "coordinates": [ [ [ 2.288630063416542, 48.865087086353661 ], [ 2.288923880133332, 48.865076756175178 ] ] ] } },
{ "type": "Feature", "properties": { "gid": 3324, "nom_entier": "Rue Bouquet des Champs" }, "geometry": { "type": "MultiLineString", "coordinates": [ [ [ 2.289289557578273, 48.865056027755514 ], [ 2.289372005071225, 48.865219022844499 ], [ 2.289557983988168, 48.865589520668458 ], [ 2.289761080407852, 48.866010169505394 ], [ 2.28960902083898, 48.866065103521294 ] ] ] } },
{ "type": "Feature", "properties": { "gid": 3381, "nom_entier": "Rue de la Croix Boissière" }, "geometry": { "type": "MultiLineString", "coordinates": [ [ [ 2.290115917756348, 48.86672689364935 ], [ 2.290984441774887, 48.866325151565945 ] ] ] } },
{ "type": "Feature", "properties": { "gid": 3624, "nom_entier": null }, "geometry": { "type": "MultiLineString", "coordinates": [ [ [ 2.331825070197624, 48.833722220171516 ], [ 2.332137495183837, 48.8340667061915 ] ] ] } },
{ "type": "Feature", "properties": { "gid": 3626, "nom_entier": null }, "geometry": { "type": "MultiLineString", "coordinates": [ [ [ 2.332755098557958, 48.834217596361107 ], [ 2.332668825408112, 48.834129931242337 ], [ 2.332525923347418, 48.8340663102299 ], [ 2.332363125712861, 48.83403975932206 ], [ 2.332219271707165, 48.834050495291557 ], [ 2.332137495183837, 48.8340667061915 ] ] ] } },
{ "type": "Feature", "properties": { "gid": 3627, "nom_entier": null }, "geometry": { "type": "MultiLineString", "coordinates": [ [ [ 2.332137495183837, 48.8340667061915 ], [ 2.332061281701803, 48.834103461941098 ], [ 2.33197295620643, 48.834176049211287 ], [ 2.331933163617211, 48.834250189616732 ], [ 2.331916658317251, 48.834325742195155 ], [ 2.331946267793858, 48.834440015779712 ], [ 2.332046019202046, 48.834536731470394 ], [ 2.332196788498244, 48.834592704264288 ] ] ] } },
{ "type": "Feature", "properties": { "gid": 4017, "nom_entier": "Rue de Charenton" }, "geometry": { "type": "MultiLineString", "coordinates": [ [ [ 2.389232332250369, 48.839026409180583 ], [ 2.389462479256609, 48.838771274577091 ] ] ] } }
]
}
