{
"type": "FeatureCollection",
"name": "atlas_vasserot_1810_voies",
"crs": { "type": "name", "properties": { "name": "urn:ogc:def:crs:OGC:1.3:CRS84" } },
"features": [
{ "type": "Feature", "properties": { "geo_point_2d": { "lon": 2.2900634750500002, "lat": 48.866801295999998 }, "id": "2884", "geo_fid": 2884, "geo_creati": 1530173617493, "geo_modifi": 1530173617493, "id_alpage": "TR2885", "type": "Rue", "nom": "Croix-Bussière", "ref_scan": "ADO75CA_ANO059", "ref_scan2": null, "article": null, "nom2_scan2": null, "nom_entier": "Rue Croix-Bussière", "code_fiab": "1", "identifi": 2885, "oid": 1230736 }, "geometry": { "type": "LineString", "coordinates": [ [ 2.289984725190279, 48.866834311763277 ], [ 2.29014222490973, 48.866768280261546 ] ] } },
{ "type": "Feature", "properties": { "geo_point_2d": { "lon": 2.40089235668, "lat": 48.8464048604 }, "id": "3677", "geo_fid": 3677, "geo_creati": 1530173617565, "geo_modifi": 1530173617565, "id_alpage": "TR3684", "type": "Boulevard", "nom": "Extérieur", "ref_scan": "ADO75CA_ANO535", "ref_scan2": null, "article": null, "nom2_scan2": null, "nom_entier": "Boulevard Extérieur", "code_fiab": "1", "identifi": 3684, "oid": 1231529 }, "geometry": { "type": "LineString", "coordinates": [ [ 2.4031220590251, 48.844820408278345 ], [ 2.402920462679403, 48.844962969214002 ], [ 2.398888972094564, 48.847812314348992 ], [ 2.39891944906492, 48.848105820388 ] ] } },
{ "type": "Feature", "properties": { "geo_point_2d": { "lon": 2.3063066463999999, "lat": 48.846483024000001 }, "id": "3820", "geo_fid": 3820, "geo_creati": 1530173617581, "geo_modifi": 1530173617581, "id_alpage": "TR3828", "type": "Ruelle", "nom": "Paillassons", "ref_scan": "ADO75CA_ANO687", "ref_scan2": null, "article": "des", "nom2_scan2": null, "nom_entier": "Ruelle des Paillassons", "code_fiab": "1", "identifi": 3828, "oid": 1231672 }, "geometry": { "type": "LineString", "coordinates": [ [ 2.306223986217839, 48.846409576004177 ], [ 2.306389306587259, 48.846556471908869 ] ] } },
{ "type": "Feature", "properties": { "geo_point_2d": { "lon": 2.3247468946800001, "lat": 48.841134465899998 }, "id": "3945", "geo_fid": 3945, "geo_creati": 1530173617585, "geo_modifi": 1530173617585, "id_alpage": "TR3953", "type": "Rue", "nom": "Mont Parnasse", "ref_scan": "ADO75CA_ANO725", "ref_scan2": null, "article": "du", "nom2_scan2": null, "nom_entier": "Rue du Mont Parnasse", "code_fiab": "1", "identifi": 3953, "oid": 1231797 }, "geometry": { "type": "LineString", "coordinates": [ [ 2.324882275451135, 48.841296259739735 ], [ 2.324611513904508, 48.840972672105302 ] ] } },
{ "type": "Feature", "properties": { "geo_point_2d": { "lon": 2.3781199018599999, "lat": 48.841021439899997 }, "id": "977", "geo_fid": 977, "geo_creati": 1530173617224, "geo_modifi": 1530173617224, "id_alpage": "TR977", "type": "Rue", "nom": "Bercy", "ref_scan": "ADO75CA_ANO562", "ref_scan2": null, "article": "de", "nom2_scan2": null, "nom_entier": "Rue de Bercy", "code_fiab": "1", "identifi": 977, "oid": 1228829 }, "geometry": { "type": "LineString", "coordinates": [ [ 2.378958860910156, 48.840440473852354 ], [ 2.378716912724995, 48.840614031638516 ], [ 2.378529688628261, 48.840737209886967 ], [ 2.378263354360029, 48.840915002112489 ], [ 2.377918870843412, 48.841158378538125 ], [ 2.377669284307101, 48.841329688646994 ], [ 2.377287905564989, 48.841612284498034 ] ] } },
{ "type": "Feature", "properties": { "geo_point_2d": { "lon": 2.2865758647300001, "lat": 48.861788156700001 }, "id": "2866", "geo_fid": 2866, "geo_creati": 1530173617493, "geo_modifi": 1530173617493, "id_alpage": "TR2866", "type": "Chemin", "nom": "Ronde", "ref_scan": "ADO75CA_ANO061", "ref_scan2": null, "article": "de", "nom2_scan2": null, "nom_entier": "Chemin de Ronde", "code_fiab": "1", "identifi": 2866, "oid": 1230718 }, "geometry": { "type": "LineString", "coordinates": [ [ 2.286705018189851, 48.861707953857433 ], [ 2.286446711260612, 48.861868359447342 ] ] } },
{ "type": "Feature", "properties": { "geo_point_2d": { "lon": 2.28951534093, "lat": 48.8659046549 }, "id": "2883", "geo_fid": 2883, "geo_creati": 1530173617493, "geo_modifi": 1530173617493, "id_alpage": "TR2884", "type": "Chemin", "nom": "Ronde", "ref_scan": "ADO75CA_ANO059", "ref_scan2": null, "article": "de", "nom2_scan2": null, "nom_entier": "Chemin de Ronde", "code_fiab": "1", "identifi": 2884, "oid": 1230735 }, "geometry": { "type": "LineString", "coordinates": [ [ 2.288910593685162, 48.865026054802456 ], [ 2.289728360504097, 48.866229084927795 ], [ 2.29014168026987, 48.866767650546215 ] ] } },
{ "type": "Feature", "properties": { "geo_point_2d": { "lon": 2.3927705781599999, "lat": 48.839290093899997 }, "id": "3692", "geo_fid": 3692, "geo_creati": 1530173617565, "geo_modifi": 1530173617565, "id_alpage": "TR3699", "type": "Chemin", "nom": "Ronde", "ref_scan": "ADO75CA_ANO568", "ref_scan2": null, "article": "de", "nom2_scan2": null, "nom_entier": "Chemin de Ronde", "code_fiab": "1", "identifi": 3699, "oid": 1231544 }, "geometry": { "type": "LineString", "coordinates": [ [ 2.389912416774059, 48.839127862167267 ], [ 2.395628739543699, 48.839452325543476 ] ] } },
{ "type": "Feature", "properties": { "geo_point_2d": { "lon": 2.3958794273500001, "lat": 48.839466540099998 }, "id": "3693", "geo_fid": 3693, "geo_creati": 1530173617565, "geo_modifi": 1530173617565, "id_alpage": "TR3700", "type": "Chemin", "nom": "Ronde", "ref_scan": "ADO75CA_ANO568", "ref_scan2": null, "article": "de", "nom2_scan2": null, "nom_entier": "Chemin de Ronde", "code_fiab": "1", "identifi": 3700, "oid": 1231545 }, "geometry": { "type": "LineString", "coordinates": [ [ 2.395628739543699, 48.839452325543476 ], [ 2.396130115148906, 48.83948075468539 ] ] } },
{ "type": "Feature", "properties": { "geo_point_2d": { "lon": 2.3981053135199999, "lat": 48.839592784799997 }, "id": "3694", "geo_fid": 3694, "geo_creati": 1530173617565, "geo_modifi": 1530173617565, "id_alpage": "TR3701", "type": "Chemin", "nom": "Ronde", "ref_scan": "ADO75CA_ANO568", "ref_scan2": null, "article": "de", "nom2_scan2": null, "nom_entier": "Chemin de Ronde", "code_fiab": "1", "identifi": 3701, "oid": 1231546 }, "geometry": { "type": "LineString", "coordinates": [ [ 2.396130115148906, 48.83948075468539 ], [ 2.399898352809149, 48.839694483243626 ], [ 2.400080511914823, 48.839704814637514 ] ] } },
{ "type": "Feature", "properties": { "geo_point_2d": { "lon": 2.2914510474199998, "lat": 48.851613014100003 }, "id": "3811", "geo_fid": 3811, "geo_creati": 1530173617580, "geo_modifi": 1530173617580, "id_alpage": "TR3819", "type": "Rue", "nom": "Desaix", "ref_scan": "ADO75CA_ANO682", "ref_scan2": null, "article": null, "nom2_scan2": null, "nom_entier": "Rue Desaix", "code_fiab": "1", "identifi": 3819, "oid": 1231663 }, "geometry": { "type": "LineString", "coordinates": [ [ 2.291361922942214, 48.851544993351823 ], [ 2.291540171903487, 48.851681034780903 ] ] } },
{ "type": "Feature", "properties": { "geo_point_2d": { "lon": 2.30768443346, "lat": 48.846017826299999 }, "id": "3873", "geo_fid": 3873, "geo_creati": 1530173617583, "geo_modifi": 1530173617583, "id_alpage": "TR3881", "type": "Boulevard", "nom": "Extérieur", "ref_scan": "ADO75CA_ANO684", "ref_scan2": null, "article": null, "nom2_scan2": null, "nom_entier": "Boulevard Extérieur", "code_fiab": "1", "identifi": 3881, "oid": 1231725 }, "geometry": { "type": "LineString", "coordinates": [ [ 2.309144880698796, 48.845626076526983 ], [ 2.306223986217839, 48.846409576004177 ] ] } },
{ "type": "Feature", "properties": { "geo_point_2d": { "lon": 2.3102924728500001, "lat": 48.845447990300002 }, "id": "3882", "geo_fid": 3882, "geo_creati": 1530173617583, "geo_modifi": 1530173617583, "id_alpage": "TR3890", "type": "Chemin", "nom": "Ronde", "ref_scan": "ADO75CA_ANO688", "ref_scan2": null, "article": "de", "nom2_scan2": null, "nom_entier": "Chemin de Ronde", "code_fiab": "1", "identifi": 3890, "oid": 1231734 }, "geometry": { "type": "LineString", "coordinates": [ [ 2.30945031188422, 48.845704477834467 ], [ 2.310785774374821, 48.84532898909147 ], [ 2.311010289099332, 48.845119330614288 ], [ 2.311065088483969, 48.845067994748163 ] ] } },
{ "type": "Feature", "properties": { "geo_point_2d": { "lon": 2.3117122115500002, "lat": 48.843958211199997 }, "id": "3910", "geo_fid": 3910, "geo_creati": 1530173617584, "geo_modifi": 1530173617584, "id_alpage": "TR3918", "type": "Boulevard", "nom": "Extérieur", "ref_scan": "ADO75CA_ANO684", "ref_scan2": null, "article": null, "nom2_scan2": null, "nom_entier": "Boulevard Extérieur", "code_fiab": "1", "identifi": 3918, "oid": 1231762 }, "geometry": { "type": "LineString", "coordinates": [ [ 2.312608219524069, 48.842929509269368 ], [ 2.310816203570097, 48.844986913038753 ] ] } },
{ "type": "Feature", "properties": { "geo_point_2d": { "lon": 2.3142467333300001, "lat": 48.841048213199997 }, "id": "3956", "geo_fid": 3956, "geo_creati": 1530173617586, "geo_modifi": 1530173617586, "id_alpage": "TR3964", "type": "Boulevard", "nom": "Extérieur", "ref_scan": "ADO75CA_ANO724", "ref_scan2": null, "article": null, "nom2_scan2": null, "nom_entier": "Boulevard Extérieur", "code_fiab": "1", "identifi": 3964, "oid": 1231808 }, "geometry": { "type": "LineString", "coordinates": [ [ 2.314697240709789, 48.840530952712754 ], [ 2.313796225956098, 48.841565473693564 ] ] } },
{ "type": "Feature", "properties": { "geo_point_2d": { "lon": 2.2935834696700002, "lat": 48.851183555600002 }, "id": "949", "geo_fid": 949, "geo_creati": 1530173617223, "geo_modifi": 1530173617223, "id_alpage": "TR949", "type": "Rue", "nom": "Dupleix", "ref_scan": "ADO75CA_ANO684", "ref_scan2": null, "article": null, "nom2_scan2": null, "nom_entier": "Rue Dupleix", "code_fiab": "1", "identifi": 949, "oid": 1228801 }, "geometry": { "type": "LineString", "coordinates": [ [ 2.29240461093375, 48.85082194283725 ], [ 2.29279735366776, 48.851097903136186 ], [ 2.29289404196542, 48.851165925700748 ], [ 2.29310935429133, 48.851306475422859 ], [ 2.293292038668327, 48.851362210812773 ], [ 2.293374648059149, 48.851326271675845 ], [ 2.293669288694048, 48.851289784065393 ], [ 2.293892077120312, 48.851298411918023 ], [ 2.294344308993251, 48.851183475793214 ], [ 2.294751554104067, 48.851088305143193 ], [ 2.2948056693635, 48.851067641997624 ], [ 2.294846429674508, 48.851047963070066 ] ] } },
{ "type": "Feature", "properties": { "geo_point_2d": { "lon": 2.3225954086899998, "lat": 48.841622762999997 }, "id": "3946", "geo_fid": 3946, "geo_creati": 1530173617585, "geo_modifi": 1530173617585, "id_alpage": "TR3954", "type": "Boulevard", "nom": "Extérieur", "ref_scan": "ADO75CA_ANO725", "ref_scan2": null, "article": null, "nom2_scan2": null, "nom_entier": "Boulevard Extérieur", "code_fiab": "1", "identifi": 3954, "oid": 1231798 }, "geometry": { "type": "LineString", "coordinates": [ [ 2.324085316561505, 48.841142485232844 ], [ 2.321176587598266, 48.842081133218159 ], [ 2.321104658650096, 48.84206106932038 ] ] } },
{ "type": "Feature", "properties": { "geo_point_2d": { "lon": 2.3178554078800002, "lat": 48.841405676100003 }, "id": "3957", "geo_fid": 3957, "geo_creati": 1530173617586, "geo_modifi": 1530173617586, "id_alpage": "TR3965", "type": "Chemin", "nom": "Ronde", "ref_scan": "ADO75CA_ANO724", "ref_scan2": null, "article": "de", "nom2_scan2": null, "nom_entier": "Chemin de Ronde", "code_fiab": "1", "identifi": 3965, "oid": 1231809 }, "geometry": { "type": "LineString", "coordinates": [ [ 2.314697240709789, 48.840530952712754 ], [ 2.315284487292709, 48.840693565521903 ], [ 2.320614153556835, 48.842169810921533 ], [ 2.321013577967109, 48.842280388858455 ] ] } },
{ "type": "Feature", "properties": { "geo_point_2d": { "lon": 2.32105911831, "lat": 48.842170729099998 }, "id": "3958", "geo_fid": 3958, "geo_creati": 1530173617586, "geo_modifi": 1530173617586, "id_alpage": "TR3966", "type": "Chaussée", "nom": "Maine", "ref_scan": "ADO75CA_ANO724", "ref_scan2": null, "article": "du", "nom2_scan2": null, "nom_entier": "Chaussée du Maine", "code_fiab": "1", "identifi": 3966, "oid": 1231810 }, "geometry": { "type": "LineString", "coordinates": [ [ 2.321013577967109, 48.842280388858455 ], [ 2.321104658650096, 48.84206106932038 ] ] } },
{ "type": "Feature", "properties": { "geo_point_2d": { "lon": 2.4001524759900001, "lat": 48.846483563500001 }, "id": "3622", "geo_fid": 3622, "geo_creati": 1530173617562, "geo_modifi": 1530173617562, "id_alpage": "TR3629", "type": "Chemin", "nom": "Ronde", "ref_scan": "ADO75CA_ANO535", "ref_scan2": null, "article": "de", "nom2_scan2": null, "nom_entier": "Chemin de Ronde", "code_fiab": "1", "identifi": 3629, "oid": 1231474 }, "geometry": { "type": "LineString", "coordinates": [ [ 2.398393963521142, 48.848155653061418 ], [ 2.39824267168781, 48.847452413102495 ], [ 2.39883668244304, 48.847399126925687 ], [ 2.401585248845627, 48.845512196009317 ], [ 2.402496082267207, 48.844886774499955 ] ] } },
{ "type": "Feature", "properties": { "geo_point_2d": { "lon": 2.3834358300999998, "lat": 48.839827979399999 }, "id": "3658", "geo_fid": 3658, "geo_creati": 1530173617564, "geo_modifi": 1530173617564, "id_alpage": "TR3665", "type": "Chemin", "nom": "Ronde", "ref_scan": "ADO75CA_ANO564", "ref_scan2": null, "article": "de", "nom2_scan2": null, "nom_entier": "Chemin de Ronde", "code_fiab": "1", "identifi": 3665, "oid": 1231510 }, "geometry": { "type": "LineString", "coordinates": [ [ 2.380859234736206, 48.84029111353216 ], [ 2.386012425467627, 48.839364845341173 ] ] } },
{ "type": "Feature", "properties": { "geo_point_2d": { "lon": 2.3798946110100001, "lat": 48.840451174599998 }, "id": "3669", "geo_fid": 3669, "geo_creati": 1530173617564, "geo_modifi": 1530173617564, "id_alpage": "TR3676", "type": null, "nom": null, "ref_scan": "ADO75CA_ANO563", "ref_scan2": null, "article": null, "nom2_scan2": null, "nom_entier": null, "code_fiab": "3", "identifi": 3676, "oid": 1231521 }, "geometry": { "type": "LineString", "coordinates": [ [ 2.378958860910156, 48.840440473852354 ], [ 2.379220560683224, 48.840588398048745 ], [ 2.380859234736206, 48.84029111353216 ] ] } },
{ "type": "Feature", "properties": { "geo_point_2d": { "lon": 2.38750064734, "lat": 48.839097295599998 }, "id": "3671", "geo_fid": 3671, "geo_creati": 1530173617564, "geo_modifi": 1530173617564, "id_alpage": "TR3678", "type": "Chemin", "nom": "Ronde", "ref_scan": "ADO75CA_ANO565", "ref_scan2": null, "article": "de", "nom2_scan2": null, "nom_entier": "Chemin de Ronde", "code_fiab": "1", "identifi": 3678, "oid": 1231523 }, "geometry": { "type": "LineString", "coordinates": [ [ 2.38743254311661, 48.839109555652783 ], [ 2.387568751567437, 48.839085035456456 ] ] } },
{ "type": "Feature", "properties": { "geo_point_2d": { "lon": 2.3853026549499998, "lat": 48.839169328399997 }, "id": "3673", "geo_fid": 3673, "geo_creati": 1530173617565, "geo_modifi": 1530173617565, "id_alpage": "TR3680", "type": "Boulevard", "nom": "Extérieur", "ref_scan": "ADO75CA_ANO564", "ref_scan2": null, "article": null, "nom2_scan2": null, "nom_entier": "Boulevard Extérieur", "code_fiab": "1", "identifi": 3680, "oid": 1231525 }, "geometry": { "type": "LineString", "coordinates": [ [ 2.380732813400129, 48.839986668270086 ], [ 2.389872496497298, 48.83835198861906 ] ] } },
{ "type": "Feature", "properties": { "geo_point_2d": { "lon": 2.2883281452499999, "lat": 48.854722212600002 }, "id": "3794", "geo_fid": 3794, "geo_creati": 1530173617569, "geo_modifi": 1530173617569, "id_alpage": "TR3802", "type": "Quai", "nom": "Orsay", "ref_scan": "ADO75CA_ANO682", "ref_scan2": null, "article": "d'", "nom2_scan2": null, "nom_entier": "Quai d'Orsay", "code_fiab": "1", "identifi": 3802, "oid": 1231646 }, "geometry": { "type": "LineString", "coordinates": [ [ 2.288229055929949, 48.854669832528231 ], [ 2.288427234560511, 48.854774592695065 ] ] } },
{ "type": "Feature", "properties": { "geo_point_2d": { "lon": 2.2919723914199999, "lat": 48.851251488800003 }, "id": "3800", "geo_fid": 3800, "geo_creati": 1530173617569, "geo_modifi": 1530173617569, "id_alpage": "TR3808", "type": "Chemin", "nom": "Ronde", "ref_scan": "ADO75CA_ANO684", "ref_scan2": null, "article": "de", "nom2_scan2": null, "nom_entier": "Chemin de Ronde", "code_fiab": "1", "identifi": 3808, "oid": 1231652 }, "geometry": { "type": "LineString", "coordinates": [ [ 2.291540171903487, 48.851681034780903 ], [ 2.29240461093375, 48.85082194283725 ] ] } },
{ "type": "Feature", "properties": { "geo_point_2d": { "lon": 2.3038960087999998, "lat": 48.8473752859 }, "id": "3821", "geo_fid": 3821, "geo_creati": 1530173617581, "geo_modifi": 1530173617581, "id_alpage": "TR3829", "type": "Chemin", "nom": "Ronde", "ref_scan": "ADO75CA_ANO687", "ref_scan2": null, "article": "de", "nom2_scan2": null, "nom_entier": "Chemin de Ronde", "code_fiab": "1", "identifi": 3829, "oid": 1231673 }, "geometry": { "type": "LineString", "coordinates": [ [ 2.302359156093365, 48.848362669527972 ], [ 2.302961026931998, 48.848140821430896 ], [ 2.302261364748828, 48.84772100893175 ], [ 2.306262023639766, 48.846591868783946 ], [ 2.306389306587259, 48.846556471908869 ] ] } },
{ "type": "Feature", "properties": { "geo_point_2d": { "lon": 2.3100061519500001, "lat": 48.845353280700003 }, "id": "3881", "geo_fid": 3881, "geo_creati": 1530173617583, "geo_modifi": 1530173617583, "id_alpage": "TR3889", "type": "Boulevard", "nom": "Extérieur", "ref_scan": "ADO75CA_ANO684", "ref_scan2": null, "article": null, "nom2_scan2": null, "nom_entier": "Boulevard Extérieur", "code_fiab": "1", "identifi": 3889, "oid": 1231733 }, "geometry": { "type": "LineString", "coordinates": [ [ 2.310816203570097, 48.844986913038753 ], [ 2.310800934376416, 48.845004355383985 ], [ 2.31057098042255, 48.845193238994433 ], [ 2.309144880698796, 48.845626076526983 ] ] } },
{ "type": "Feature", "properties": { "geo_point_2d": { "lon": 2.3178596003599998, "lat": 48.841157758900003 }, "id": "3941", "geo_fid": 3941, "geo_creati": 1530173617585, "geo_modifi": 1530173617585, "id_alpage": "TR3949", "type": "Boulevard", "nom": "Extérieur", "ref_scan": "ADO75CA_ANO724", "ref_scan2": null, "article": null, "nom2_scan2": null, "nom_entier": "Boulevard Extérieur", "code_fiab": "1", "identifi": 3949, "oid": 1231793 }, "geometry": { "type": "LineString", "coordinates": [ [ 2.321104658650096, 48.84206106932038 ], [ 2.314882346215414, 48.840318401198886 ], [ 2.314697240709789, 48.840530952712754 ] ] } },
{ "type": "Feature", "properties": { "geo_point_2d": { "lon": 2.3129480628799999, "lat": 48.842539297499997 }, "id": "3944", "geo_fid": 3944, "geo_creati": 1530173617585, "geo_modifi": 1530173617585, "id_alpage": "TR3952", "type": "Boulevard", "nom": "Extérieur", "ref_scan": "ADO75CA_ANO684", "ref_scan2": null, "article": null, "nom2_scan2": null, "nom_entier": "Boulevard Extérieur", "code_fiab": "1", "identifi": 3952, "oid": 1231796 }, "geometry": { "type": "LineString", "coordinates": [ [ 2.313287906241047, 48.842149085696377 ], [ 2.312608219524069, 48.842929509269368 ] ] } },
{ "type": "Feature", "properties": { "geo_point_2d": { "lon": 2.2884967351299998, "lat": 48.8628725827 }, "id": "1905", "geo_fid": 1905, "geo_creati": 1530173617347, "geo_modifi": 1530173617347, "id_alpage": "TR1905", "type": "Rue", "nom": "Lubeck", "ref_scan": "ADO75CA_ANO061", "ref_scan2": null, "article": "de", "nom2_scan2": null, "nom_entier": "Rue de Lubeck", "code_fiab": "1", "identifi": 1905, "oid": 1229757 }, "geometry": { "type": "LineString", "coordinates": [ [ 2.286705154576366, 48.861707863990496 ], [ 2.286888485279711, 48.861828987022328 ], [ 2.287044984484355, 48.86193238230495 ], [ 2.287239081521767, 48.862056207321238 ], [ 2.287433043229629, 48.862180031948505 ], [ 2.287801210843533, 48.862423265231286 ], [ 2.287995311681027, 48.862547088963375 ], [ 2.28818941348542, 48.8626709123659 ], [ 2.288557588523318, 48.862914053285209 ], [ 2.288945662379053, 48.863161787720479 ], [ 2.289211957468949, 48.863337617831576 ], [ 2.289249279783572, 48.863362273582773 ], [ 2.289259359712652, 48.863368752578772 ], [ 2.289448427883499, 48.86348933434536 ], [ 2.289677403647286, 48.863640597613156 ], [ 2.289866473780335, 48.863761268615477 ], [ 2.28999083846222, 48.863843333771243 ], [ 2.29011506716826, 48.863925488662758 ], [ 2.290260413069485, 48.864018173593223 ], [ 2.290288373125056, 48.863998850727654 ] ] } },
{ "type": "Feature", "properties": { "geo_point_2d": { "lon": 2.2875035815899998, "lat": 48.858406094499998 }, "id": "2862", "geo_fid": 2862, "geo_creati": 1530173617492, "geo_modifi": 1530173617492, "id_alpage": "TR2862", "type": null, "nom": null, "ref_scan": "ADO75CA_ANO061", "ref_scan2": null, "article": null, "nom2_scan2": null, "nom_entier": null, "code_fiab": "3", "identifi": 2862, "oid": 1230714 }, "geometry": { "type": "LineString", "coordinates": [ [ 2.28809322976342, 48.857938539484977 ], [ 2.287425932393144, 48.858393372232349 ], [ 2.287000279839289, 48.858963774205392 ] ] } },
{ "type": "Feature", "properties": { "geo_point_2d": { "lon": 2.29053062892, "lat": 48.866605883799998 }, "id": "2885", "geo_fid": 2885, "geo_creati": 1530173617493, "geo_modifi": 1530173617493, "id_alpage": "TR2886", "type": "Rue", "nom": "Croix-Bussière", "ref_scan": "ADO75CA_ANO059", "ref_scan2": null, "article": null, "nom2_scan2": null, "nom_entier": "Rue Croix-Bussière", "code_fiab": "1", "identifi": 2886, "oid": 1230737 }, "geometry": { "type": "LineString", "coordinates": [ [ 2.29014222490973, 48.866768280261546 ], [ 2.290228269987902, 48.866732254868154 ], [ 2.290432268622043, 48.866646817802426 ], [ 2.29065849308684, 48.866552576565169 ], [ 2.290741673933677, 48.866517628744717 ], [ 2.290828808777241, 48.866481423488338 ], [ 2.290870399053956, 48.866463994487297 ], [ 2.290899444009184, 48.866451866091694 ], [ 2.290919080088582, 48.866443600746571 ] ] } },
{ "type": "Feature", "properties": { "geo_point_2d": { "lon": 2.4002895179300001, "lat": 48.839453712400001 }, "id": "3686", "geo_fid": 3686, "geo_creati": 1530173617565, "geo_modifi": 1530173617565, "id_alpage": "TR3693", "type": "Rue", "nom": "Picpus", "ref_scan": "ADO75CA_ANO534", "ref_scan2": null, "article": "de", "nom2_scan2": null, "nom_entier": "Rue de Picpus", "code_fiab": "1", "identifi": 3693, "oid": 1231538 }, "geometry": { "type": "LineString", "coordinates": [ [ 2.400437991487949, 48.839275394596982 ], [ 2.400141044378974, 48.839632030165845 ] ] } },
{ "type": "Feature", "properties": { "geo_point_2d": { "lon": 2.2923085368499998, "lat": 48.850754414699999 }, "id": "3802", "geo_fid": 3802, "geo_creati": 1530173617580, "geo_modifi": 1530173617580, "id_alpage": "TR3810", "type": "Rue", "nom": "Dupleix", "ref_scan": "ADO75CA_ANO684", "ref_scan2": null, "article": null, "nom2_scan2": null, "nom_entier": "Rue Dupleix", "code_fiab": "1", "identifi": 3810, "oid": 1231654 }, "geometry": { "type": "LineString", "coordinates": [ [ 2.292212462768692, 48.850686886480986 ], [ 2.29240461093375, 48.85082194283725 ] ] } },
{ "type": "Feature", "properties": { "geo_point_2d": { "lon": 2.28748822297, "lat": 48.863435498199998 }, "id": "2878", "geo_fid": 2878, "geo_creati": 1530173617493, "geo_modifi": 1530173617493, "id_alpage": "TR2878", "type": "Boulevard", "nom": "Sainte-Marie", "ref_scan": "ADO75CA_ANO060", "ref_scan2": null, "article": null, "nom2_scan2": null, "nom_entier": "Boulevard Sainte-Marie", "code_fiab": "1", "identifi": 2878, "oid": 1230730 }, "geometry": { "type": "LineString", "coordinates": [ [ 2.286446711260612, 48.861868359447342 ], [ 2.286353153054944, 48.861926410816778 ], [ 2.288685004469624, 48.865031804423481 ] ] } },
{ "type": "Feature", "properties": { "geo_point_2d": { "lon": 2.4001107781500002, "lat": 48.839668422400003 }, "id": "3691", "geo_fid": 3691, "geo_creati": 1530173617565, "geo_modifi": 1530173617565, "id_alpage": "TR3698", "type": "Rue", "nom": "Picpus", "ref_scan": "ADO75CA_ANO534", "ref_scan2": null, "article": "de", "nom2_scan2": null, "nom_entier": "Rue de Picpus", "code_fiab": "1", "identifi": 3698, "oid": 1231543 }, "geometry": { "type": "LineString", "coordinates": [ [ 2.400141044378974, 48.839632030165845 ], [ 2.400080511914823, 48.839704814637514 ] ] } },
{ "type": "Feature", "properties": { "geo_point_2d": { "lon": 2.3994772157100002, "lat": 48.840420267500001 }, "id": "1008", "geo_fid": 1008, "geo_creati": 1530173617240, "geo_modifi": 1530173617240, "id_alpage": "TR1008", "type": "Rue", "nom": "Picpus", "ref_scan": "ADO75CA_ANO534", "ref_scan2": null, "article": "de", "nom2_scan2": null, "nom_entier": "Rue de Picpus", "code_fiab": "1", "identifi": 1008, "oid": 1228860 }, "geometry": { "type": "LineString", "coordinates": [ [ 2.400080511914823, 48.839704814637514 ], [ 2.399402806909988, 48.840518577537885 ], [ 2.399249361308985, 48.840702921899521 ], [ 2.399089777257682, 48.840881963675912 ], [ 2.398845238372484, 48.841108802477976 ] ] } },
{ "type": "Feature", "properties": { "geo_point_2d": { "lon": 2.29411685057, "lat": 48.870841725299996 }, "id": "2880", "geo_fid": 2880, "geo_creati": 1530173617493, "geo_modifi": 1530173617493, "id_alpage": "TR2881", "type": "Boulevard", "nom": "Extérieur", "ref_scan": "ADO75CA_ANO059", "ref_scan2": null, "article": null, "nom2_scan2": null, "nom_entier": "Boulevard Extérieur", "code_fiab": "1", "identifi": 2881, "oid": 1230732 }, "geometry": { "type": "LineString", "coordinates": [ [ 2.291866844002544, 48.868819499494116 ], [ 2.293167232524618, 48.869341406724374 ], [ 2.295760837344756, 48.873035060744868 ], [ 2.295981833699074, 48.873349796240177 ] ] } },
{ "type": "Feature", "properties": { "geo_point_2d": { "lon": 2.40144294663, "lat": 48.842100091299997 }, "id": "3294", "geo_fid": 3294, "geo_creati": 1530173617528, "geo_modifi": 1530173617528, "id_alpage": "TR3299", "type": "Chemin", "nom": "Ronde", "ref_scan": "ADO75CA_ANO534", "ref_scan2": null, "article": "de", "nom2_scan2": null, "nom_entier": "Chemin de Ronde", "code_fiab": "1", "identifi": 3299, "oid": 1231146 }, "geometry": { "type": "LineString", "coordinates": [ [ 2.402496082267207, 48.844886774499955 ], [ 2.400682209149485, 48.839984065451361 ], [ 2.400545379594667, 48.839731625797121 ], [ 2.400080511914823, 48.839704814637514 ] ] } },
{ "type": "Feature", "properties": { "geo_point_2d": { "lon": 2.3896927366899998, "lat": 48.838543751099998 }, "id": "3674", "geo_fid": 3674, "geo_creati": 1530173617565, "geo_modifi": 1530173617565, "id_alpage": "TR3681", "type": "Rue", "nom": "Charenton", "ref_scan": "ADO75CA_ANO565", "ref_scan2": null, "article": "de", "nom2_scan2": null, "nom_entier": "Rue de Charenton", "code_fiab": "1", "identifi": 3681, "oid": 1231526 }, "geometry": { "type": "LineString", "coordinates": [ [ 2.389512976876967, 48.838735513575905 ], [ 2.389872496497298, 48.83835198861906 ] ] } },
{ "type": "Feature", "properties": { "geo_point_2d": { "lon": 2.3986567062900002, "lat": 48.8481307367 }, "id": "3680", "geo_fid": 3680, "geo_creati": 1530173617565, "geo_modifi": 1530173617565, "id_alpage": "TR3687", "type": null, "nom": null, "ref_scan": "ADO75CA_ANO535", "ref_scan2": null, "article": null, "nom2_scan2": null, "nom_entier": null, "code_fiab": "3", "identifi": 3687, "oid": 1231532 }, "geometry": { "type": "LineString", "coordinates": [ [ 2.39891944906492, 48.848105820388 ], [ 2.398393963521142, 48.848155653061418 ] ] } },
{ "type": "Feature", "properties": { "geo_point_2d": { "lon": 2.38934851534, "lat": 48.838910984100004 }, "id": "3688", "geo_fid": 3688, "geo_creati": 1530173617565, "geo_modifi": 1530173617565, "id_alpage": "TR3695", "type": "Rue", "nom": "Charenton", "ref_scan": "ADO75CA_ANO565", "ref_scan2": null, "article": "de", "nom2_scan2": null, "nom_entier": "Rue de Charenton", "code_fiab": "1", "identifi": 3695, "oid": 1231540 }, "geometry": { "type": "LineString", "coordinates": [ [ 2.389184070180371, 48.839086469820039 ], [ 2.389187472156848, 48.839082781255698 ], [ 2.389251838653236, 48.839014137473569 ], [ 2.389512976876967, 48.838735513575905 ] ] } },
{ "type": "Feature", "properties": { "geo_point_2d": { "lon": 2.2897954894399999, "lat": 48.853107412900002 }, "id": "3799", "geo_fid": 3799, "geo_creati": 1530173617569, "geo_modifi": 1530173617569, "id_alpage": "TR3807", "type": null, "nom": null, "ref_scan": null, "ref_scan2": null, "article": null, "nom2_scan2": null, "nom_entier": null, "code_fiab": "5", "identifi": 3807, "oid": 1231651 }, "geometry": { "type": "LineString", "coordinates": [ [ 2.291361922942214, 48.851544993351823 ], [ 2.288229055929949, 48.854669832528231 ] ] } },
{ "type": "Feature", "properties": { "geo_point_2d": { "lon": 2.3001402188400002, "lat": 48.848480447 }, "id": "3803", "geo_fid": 3803, "geo_creati": 1530173617580, "geo_modifi": 1530173617580, "id_alpage": "TR3811", "type": "Chemin", "nom": "Ronde", "ref_scan": "ADO75CA_ANO685", "ref_scan2": null, "article": "de", "nom2_scan2": null, "nom_entier": "Chemin de Ronde", "code_fiab": "1", "identifi": 3811, "oid": 1231655 }, "geometry": { "type": "LineString", "coordinates": [ [ 2.297884289492121, 48.849048798911099 ], [ 2.299095389448518, 48.848671515448373 ], [ 2.301158006074833, 48.848028846301055 ], [ 2.301295228081053, 48.848202898730875 ], [ 2.301430321783625, 48.848306267535669 ], [ 2.301554957796383, 48.848362690906256 ], [ 2.301715033111853, 48.848402668487161 ], [ 2.301864495524623, 48.848421509661101 ], [ 2.302035357297838, 48.848431004805875 ], [ 2.302163585097844, 48.848419263787761 ], [ 2.302309547870658, 48.848377042723577 ], [ 2.302359156093365, 48.848362669527972 ] ] } },
{ "type": "Feature", "properties": { "geo_point_2d": { "lon": 2.3109406460300002, "lat": 48.845027453900002 }, "id": "3884", "geo_fid": 3884, "geo_creati": 1530173617583, "geo_modifi": 1530173617583, "id_alpage": "TR3892", "type": "Rue", "nom": "Sèvres", "ref_scan": "ADO75CA_ANO688", "ref_scan2": null, "article": "de", "nom2_scan2": null, "nom_entier": "Rue de Sèvres", "code_fiab": "1", "identifi": 3892, "oid": 1231736 }, "geometry": { "type": "LineString", "coordinates": [ [ 2.310816203570097, 48.844986913038753 ], [ 2.311065088483969, 48.845067994748163 ] ] } },
{ "type": "Feature", "properties": { "geo_point_2d": { "lon": 2.3243484152299998, "lat": 48.841057578700003 }, "id": "3947", "geo_fid": 3947, "geo_creati": 1530173617585, "geo_modifi": 1530173617585, "id_alpage": "TR3955", "type": "Boulevard", "nom": "Extérieur", "ref_scan": "ADO75CA_ANO725", "ref_scan2": null, "article": null, "nom2_scan2": null, "nom_entier": "Boulevard Extérieur", "code_fiab": "1", "identifi": 3955, "oid": 1231799 }, "geometry": { "type": "LineString", "coordinates": [ [ 2.324611513904508, 48.840972672105302 ], [ 2.324085316561505, 48.841142485232844 ] ] } },
{ "type": "Feature", "properties": { "geo_point_2d": { "lon": 2.3138300907199998, "lat": 48.842144611899997 }, "id": "223", "geo_fid": 223, "geo_creati": 1530173617076, "geo_modifi": 1530173617076, "id_alpage": "TR223", "type": null, "nom": null, "ref_scan": "ADO75CA_ANO723", "ref_scan2": null, "article": null, "nom2_scan2": null, "nom_entier": null, "code_fiab": "3", "identifi": 223, "oid": 1228075 }, "geometry": { "type": "LineString", "coordinates": [ [ 2.314269432277998, 48.84176340965643 ], [ 2.314237395936069, 48.841806298484173 ], [ 2.314206586454592, 48.841847568860707 ], [ 2.314172640506844, 48.841895043572478 ], [ 2.31407939488889, 48.842017235770022 ], [ 2.31405186021586, 48.842047175941929 ], [ 2.31400866178241, 48.842068479911866 ], [ 2.313954815195392, 48.842135284858507 ], [ 2.313922775435748, 48.842184378574466 ], [ 2.313913089802987, 48.842210995048234 ], [ 2.313883630615339, 48.8422769955937 ], [ 2.313830591443868, 48.842364304048822 ], [ 2.313772563100469, 48.8423413607076 ], [ 2.313670809467658, 48.842300782593277 ], [ 2.313612781314776, 48.842277749243756 ], [ 2.313287906241047, 48.842149085696377 ] ] } },
{ "type": "Feature", "properties": { "geo_point_2d": { "lon": 2.30655718611, "lat": 48.846694667000001 }, "id": "501", "geo_fid": 501, "geo_creati": 1530173617139, "geo_modifi": 1530173617139, "id_alpage": "TR501", "type": "Ruelle", "nom": "Paillassons", "ref_scan": "ADO75CA_ANO687", "ref_scan2": null, "article": "des", "nom2_scan2": null, "nom_entier": "Ruelle des Paillassons", "code_fiab": "1", "identifi": 501, "oid": 1228353 }, "geometry": { "type": "LineString", "coordinates": [ [ 2.306389306587259, 48.846556471908869 ], [ 2.30649116845319, 48.84664687622125 ], [ 2.306538967319812, 48.846689424648908 ], [ 2.306593310896401, 48.846724780635618 ], [ 2.306625040726181, 48.84675302628844 ], [ 2.306644517331052, 48.846765621316266 ], [ 2.30668742028776, 48.846793510234853 ], [ 2.306738913876609, 48.846810700093144 ] ] } },
{ "type": "Feature", "properties": { "geo_point_2d": { "lon": 2.3881696917099999, "lat": 48.8393136308 }, "id": "975", "geo_fid": 975, "geo_creati": 1530173617224, "geo_modifi": 1530173617224, "id_alpage": "TR975", "type": null, "nom": null, "ref_scan": "ADO75CA_ANO565", "ref_scan2": null, "article": null, "nom2_scan2": null, "nom_entier": null, "code_fiab": "3", "identifi": 975, "oid": 1228827 }, "geometry": { "type": "LineString", "coordinates": [ [ 2.387568751567437, 48.839085035456456 ], [ 2.387843776860643, 48.839189858874406 ], [ 2.388057610476849, 48.839271327823731 ], [ 2.388264902429741, 48.839349741773276 ], [ 2.388478873657207, 48.839431209872885 ], [ 2.388686166940595, 48.839509623057729 ], [ 2.388770801810469, 48.83954177881018 ] ] } },
{ "type": "Feature", "properties": { "geo_point_2d": { "lon": 2.3750357476400001, "lat": 48.839516711199998 }, "id": "3654", "geo_fid": 3654, "geo_creati": 1530173617564, "geo_modifi": 1530173617564, "id_alpage": "TR3661", "type": "Quai", "nom": "Rapée", "ref_scan": "ADO75CA_ANO562", "ref_scan2": null, "article": "de la", "nom2_scan2": null, "nom_entier": "Quai de la Rapée", "code_fiab": "1", "identifi": 3661, "oid": 1231506 }, "geometry": { "type": "LineString", "coordinates": [ [ 2.374170862693589, 48.840321441755528 ], [ 2.374415373454906, 48.840093936455041 ], [ 2.375900633014255, 48.838711981187515 ] ] } },
{ "type": "Feature", "properties": { "geo_point_2d": { "lon": 2.3774297469599999, "lat": 48.839576227499997 }, "id": "3659", "geo_fid": 3659, "geo_creati": 1530173617564, "geo_modifi": 1530173617564, "id_alpage": "TR3666", "type": "Chemin", "nom": "Ronde", "ref_scan": "ADO75CA_ANO562", "ref_scan2": null, "article": "de", "nom2_scan2": null, "nom_entier": "Chemin de Ronde", "code_fiab": "1", "identifi": 3666, "oid": 1231511 }, "geometry": { "type": "LineString", "coordinates": [ [ 2.375900633014255, 48.838711981187515 ], [ 2.378958860910156, 48.840440473852354 ] ] } },
{ "type": "Feature", "properties": { "geo_point_2d": { "lon": 2.3790856207100002, "lat": 48.840349555899998 }, "id": "3662", "geo_fid": 3662, "geo_creati": 1530173617564, "geo_modifi": 1530173617564, "id_alpage": "TR3669", "type": "Rue", "nom": "Bercy", "ref_scan": "ADO75CA_ANO562", "ref_scan2": null, "article": "de", "nom2_scan2": null, "nom_entier": "Rue de Bercy", "code_fiab": "1", "identifi": 3669, "oid": 1231514 }, "geometry": { "type": "LineString", "coordinates": [ [ 2.379212380515073, 48.84025863799463 ], [ 2.378958860910156, 48.840440473852354 ] ] } },
{ "type": "Feature", "properties": { "geo_point_2d": { "lon": 2.3949674276000001, "lat": 48.8389995195 }, "id": "3687", "geo_fid": 3687, "geo_creati": 1530173617565, "geo_modifi": 1530173617565, "id_alpage": "TR3694", "type": "Boulevard", "nom": "Extèrieur", "ref_scan": "ADO75CA_ANO568", "ref_scan2": null, "article": null, "nom2_scan2": null, "nom_entier": "Boulevard Extèrieur", "code_fiab": "1", "identifi": 3694, "oid": 1231539 }, "geometry": { "type": "LineString", "coordinates": [ [ 2.400428594108992, 48.839277558054143 ], [ 2.389896083299431, 48.838755660981192 ], [ 2.389872496497298, 48.83835198861906 ] ] } },
{ "type": "Feature", "properties": { "geo_point_2d": { "lon": 2.29178891868, "lat": 48.851117637599998 }, "id": "3801", "geo_fid": 3801, "geo_creati": 1530173617580, "geo_modifi": 1530173617580, "id_alpage": "TR3809", "type": "Boulevard", "nom": "Extérieur", "ref_scan": "ADO75CA_ANO684", "ref_scan2": null, "article": null, "nom2_scan2": null, "nom_entier": "Boulevard Extérieur", "code_fiab": "1", "identifi": 3809, "oid": 1231653 }, "geometry": { "type": "LineString", "coordinates": [ [ 2.292212462768692, 48.850686886480986 ], [ 2.291959998180999, 48.850948474911945 ], [ 2.291361922942214, 48.851544993351823 ] ] } },
{ "type": "Feature", "properties": { "geo_point_2d": { "lon": 2.30791980924, "lat": 48.846130474900001 }, "id": "3879", "geo_fid": 3879, "geo_creati": 1530173617583, "geo_modifi": 1530173617583, "id_alpage": "TR3887", "type": "Chemin", "nom": "Ronde", "ref_scan": "ADO75CA_ANO687", "ref_scan2": null, "article": "de", "nom2_scan2": null, "nom_entier": "Chemin de Ronde", "code_fiab": "1", "identifi": 3887, "oid": 1231731 }, "geometry": { "type": "LineString", "coordinates": [ [ 2.306389306587259, 48.846556471908869 ], [ 2.30945031188422, 48.845704477834467 ] ] } },
{ "type": "Feature", "properties": { "geo_point_2d": { "lon": 2.3760066807500002, "lat": 48.838613340000002 }, "id": "3660", "geo_fid": 3660, "geo_creati": 1530173617564, "geo_modifi": 1530173617564, "id_alpage": "TR3667", "type": "Quai", "nom": "Rapée", "ref_scan": "ADO75CA_ANO562", "ref_scan2": null, "article": "de la", "nom2_scan2": null, "nom_entier": "Quai de la Rapée", "code_fiab": "1", "identifi": 3667, "oid": 1231512 }, "geometry": { "type": "LineString", "coordinates": [ [ 2.375900633014255, 48.838711981187515 ], [ 2.376112728477619, 48.838514698773388 ] ] } },
{ "type": "Feature", "properties": { "geo_point_2d": { "lon": 2.3776625545000001, "lat": 48.839386668400003 }, "id": "3661", "geo_fid": 3661, "geo_creati": 1530173617564, "geo_modifi": 1530173617564, "id_alpage": "TR3668", "type": "Boulevard", "nom": null, "ref_scan": "ADO75CA_ANO562", "ref_scan2": null, "article": null, "nom2_scan2": null, "nom_entier": "Boulevard", "code_fiab": "3", "identifi": 3668, "oid": 1231513 }, "geometry": { "type": "LineString", "coordinates": [ [ 2.376112728477619, 48.838514698773388 ], [ 2.379212380515073, 48.84025863799463 ] ] } },
{ "type": "Feature", "properties": { "geo_point_2d": { "lon": 2.3867224842899999, "lat": 48.839237200500001 }, "id": "3670", "geo_fid": 3670, "geo_creati": 1530173617564, "geo_modifi": 1530173617564, "id_alpage": "TR3677", "type": "Chemin", "nom": "Ronde", "ref_scan": "ADO75CA_ANO565", "ref_scan2": null, "article": "de", "nom2_scan2": null, "nom_entier": "Chemin de Ronde", "code_fiab": "1", "identifi": 3677, "oid": 1231522 }, "geometry": { "type": "LineString", "coordinates": [ [ 2.386012425467627, 48.839364845341173 ], [ 2.38743254311661, 48.839109555652783 ] ] } },
{ "type": "Feature", "properties": { "geo_point_2d": { "lon": 2.3885408642199999, "lat": 48.838910274500002 }, "id": "3672", "geo_fid": 3672, "geo_creati": 1530173617564, "geo_modifi": 1530173617564, "id_alpage": "TR3679", "type": "Chemin", "nom": "Ronde", "ref_scan": "ADO75CA_ANO565", "ref_scan2": null, "article": "de", "nom2_scan2": null, "nom_entier": "Chemin de Ronde", "code_fiab": "1", "identifi": 3679, "oid": 1231524 }, "geometry": { "type": "LineString", "coordinates": [ [ 2.387568751567437, 48.839085035456456 ], [ 2.389512976876967, 48.838735513575905 ] ] } },
{ "type": "Feature", "properties": { "geo_point_2d": { "lon": 2.3993823720099998, "lat": 48.849110511600003 }, "id": "3699", "geo_fid": 3699, "geo_creati": 1530173617566, "geo_modifi": 1530173617566, "id_alpage": "TR3706", "type": null, "nom": null, "ref_scan": null, "ref_scan2": null, "article": null, "nom2_scan2": null, "nom_entier": null, "code_fiab": "5", "identifi": 3706, "oid": 1231551 }, "geometry": { "type": "LineString", "coordinates": [ [ 2.39891944906492, 48.848105820388 ], [ 2.398982093595428, 48.848517203634977 ], [ 2.39974467375295, 48.848468048007497 ], [ 2.399203550167762, 48.850513558310119 ] ] } },
{ "type": "Feature", "properties": { "geo_point_2d": { "lon": 2.2887098259299998, "lat": 48.854996415599999 }, "id": "3795", "geo_fid": 3795, "geo_creati": 1530173617569, "geo_modifi": 1530173617569, "id_alpage": "TR3803", "type": "Quai", "nom": "Orsay", "ref_scan": "ADO75CA_ANO682", "ref_scan2": null, "article": "d'", "nom2_scan2": null, "nom_entier": "Quai d'Orsay", "code_fiab": "1", "identifi": 3803, "oid": 1231647 }, "geometry": { "type": "LineString", "coordinates": [ [ 2.288427234560511, 48.854774592695065 ], [ 2.288480763400055, 48.854802852710307 ], [ 2.28898579956456, 48.855228063307443 ] ] } },
{ "type": "Feature", "properties": { "geo_point_2d": { "lon": 2.2951280341500002, "lat": 48.8499081223 }, "id": "3797", "geo_fid": 3797, "geo_creati": 1530173617569, "geo_modifi": 1530173617569, "id_alpage": "TR3805", "type": "Chemin", "nom": "Ronde", "ref_scan": "ADO75CA_ANO684", "ref_scan2": null, "article": "de", "nom2_scan2": null, "nom_entier": "Chemin de Ronde", "code_fiab": "1", "identifi": 3805, "oid": 1231649 }, "geometry": { "type": "LineString", "coordinates": [ [ 2.29240461093375, 48.85082194283725 ], [ 2.292501718689821, 48.850725399070662 ], [ 2.297884289492121, 48.849048798911099 ] ] } },
{ "type": "Feature", "properties": { "geo_point_2d": { "lon": 2.30929759629, "lat": 48.845665277199998 }, "id": "3880", "geo_fid": 3880, "geo_creati": 1530173617583, "geo_modifi": 1530173617583, "id_alpage": "TR3888", "type": null, "nom": null, "ref_scan": "ADO75CA_ANO688", "ref_scan2": null, "article": null, "nom2_scan2": null, "nom_entier": null, "code_fiab": "3", "identifi": 3888, "oid": 1231732 }, "geometry": { "type": "LineString", "coordinates": [ [ 2.309144880698796, 48.845626076526983 ], [ 2.30945031188422, 48.845704477834467 ] ] } },
{ "type": "Feature", "properties": { "geo_point_2d": { "lon": 2.2937235345500002, "lat": 48.869041426099997 }, "id": "4231", "geo_fid": 4231, "geo_creati": 1530173617623, "geo_modifi": 1530173617623, "id_alpage": "TR4241", "type": null, "nom": null, "ref_scan": "ADO75CA_ANO067", "ref_scan2": null, "article": null, "nom2_scan2": null, "nom_entier": null, "code_fiab": "3", "identifi": 4241, "oid": 1232083 }, "geometry": { "type": "LineString", "coordinates": [ [ 2.293339445612322, 48.869289495063391 ], [ 2.293397680819323, 48.86925741339131 ], [ 2.293438049953227, 48.869235126913388 ], [ 2.293519750070274, 48.869181741411452 ], [ 2.293592180400706, 48.869128532165092 ], [ 2.29368288218837, 48.869069214785853 ], [ 2.293755312180212, 48.869016005436166 ], [ 2.293830464785152, 48.86896684380163 ], [ 2.293975187606485, 48.868860514744881 ], [ 2.29403491823671, 48.868832030405009 ], [ 2.294117933797072, 48.868832151691841 ] ] } },
{ "type": "Feature", "properties": { "geo_point_2d": { "lon": 2.3812211686899998, "lat": 48.840621851599998 }, "id": "983", "geo_fid": 983, "geo_creati": 1530173617225, "geo_modifi": 1530173617225, "id_alpage": "TR983", "type": null, "nom": null, "ref_scan": "ADO75CA_ANO563", "ref_scan2": null, "article": null, "nom2_scan2": null, "nom_entier": null, "code_fiab": "3", "identifi": 983, "oid": 1228835 }, "geometry": { "type": "LineString", "coordinates": [ [ 2.380859234736206, 48.84029111353216 ], [ 2.381103034825034, 48.840373843030335 ], [ 2.381199246864794, 48.840406539508123 ], [ 2.381360456861849, 48.840453689071275 ], [ 2.381552331156225, 48.840512786821236 ], [ 2.381414290091184, 48.840629116224925 ], [ 2.38131818623069, 48.840719080597509 ], [ 2.381230390623053, 48.840806883433523 ], [ 2.381146539892329, 48.840888209925254 ], [ 2.38106962958892, 48.840961080532132 ], [ 2.380985778335357, 48.841042406906041 ], [ 2.38093666001807, 48.841114996983556 ] ] } },
{ "type": "Feature", "properties": { "geo_point_2d": { "lon": 2.2893348648299998, "lat": 48.865933058099998 }, "id": "2882", "geo_fid": 2882, "geo_creati": 1530173617493, "geo_modifi": 1530173617493, "id_alpage": "TR2883", "type": "Boulevard", "nom": "Extérieur", "ref_scan": "ADO75CA_ANO059", "ref_scan2": null, "article": null, "nom2_scan2": null, "nom_entier": "Boulevard Extérieur", "code_fiab": "1", "identifi": 2883, "oid": 1230734 }, "geometry": { "type": "LineString", "coordinates": [ [ 2.288685004469624, 48.865031804423481 ], [ 2.289984725190279, 48.866834311763277 ] ] } },
{ "type": "Feature", "properties": { "geo_point_2d": { "lon": 2.3961950075599998, "lat": 48.839618825300001 }, "id": "3698", "geo_fid": 3698, "geo_creati": 1530173617566, "geo_modifi": 1530173617566, "id_alpage": "TR3705", "type": null, "nom": null, "ref_scan": "ADO75CA_ANO568", "ref_scan2": null, "article": null, "nom2_scan2": null, "nom_entier": null, "code_fiab": "2", "identifi": 3705, "oid": 1231550 }, "geometry": { "type": "LineString", "coordinates": [ [ 2.396169281462088, 48.839767242581836 ], [ 2.396191726545158, 48.839738813988063 ], [ 2.396208311584519, 48.839708769728212 ], [ 2.396218764546354, 48.839677469654397 ], [ 2.396222677484182, 48.839645543469643 ], [ 2.396219637759897, 48.839609664080953 ], [ 2.396208424824944, 48.839574508333634 ], [ 2.396189448252232, 48.839540795431574 ], [ 2.39616311771788, 48.839509334504328 ], [ 2.396130115148906, 48.83948075468539 ] ] } },
{ "type": "Feature", "properties": { "geo_point_2d": { "lon": 2.3860052438200001, "lat": 48.840420103600003 }, "id": "979", "geo_fid": 979, "geo_creati": 1530173617225, "geo_modifi": 1530173617225, "id_alpage": "TR979", "type": null, "nom": null, "ref_scan": "ADO75CA_ANO564", "ref_scan2": null, "article": null, "nom2_scan2": null, "nom_entier": null, "code_fiab": "3", "identifi": 979, "oid": 1228831 }, "geometry": { "type": "LineString", "coordinates": [ [ 2.386012425467627, 48.839364845341173 ], [ 2.385880559616596, 48.839512921813146 ], [ 2.385704056729033, 48.8397110166283 ], [ 2.385539940858908, 48.839899843425826 ], [ 2.38544672094361, 48.84000437826338 ], [ 2.385337989834387, 48.840129692749485 ], [ 2.385291311380016, 48.840181960124312 ], [ 2.385255793260721, 48.840222891955932 ], [ 2.385209250868906, 48.840275159240008 ], [ 2.385161076574388, 48.840330574642699 ], [ 2.385230175157522, 48.840358153256531 ], [ 2.385326257557189, 48.840394893035914 ], [ 2.386010684458708, 48.840645409552138 ], [ 2.386028810918734, 48.840652416125948 ], [ 2.386075967533851, 48.84067119074102 ], [ 2.386101180925887, 48.84068080215917 ], [ 2.386216889984624, 48.840724816888212 ], [ 2.38630820621073, 48.840762277305288 ], [ 2.386401567031226, 48.840800636040726 ], [ 2.386606682402325, 48.840878514380556 ], [ 2.386787680657175, 48.840952805738105 ], [ 2.3869227440853, 48.841004095451275 ], [ 2.387013243654709, 48.841041285879051 ], [ 2.387080843734752, 48.841066975556039 ], [ 2.387126093528626, 48.841085480789062 ], [ 2.387193693727031, 48.841111170399287 ], [ 2.387238943693542, 48.841129765514786 ], [ 2.387313632051642, 48.841159049036605 ] ] } },
{ "type": "Feature", "properties": { "geo_point_2d": { "lon": 2.3799725969600001, "lat": 48.840122653100003 }, "id": "3675", "geo_fid": 3675, "geo_creati": 1530173617565, "geo_modifi": 1530173617565, "id_alpage": "TR3682", "type": null, "nom": null, "ref_scan": null, "ref_scan2": null, "article": null, "nom2_scan2": null, "nom_entier": null, "code_fiab": "5", "identifi": 3682, "oid": 1231527 }, "geometry": { "type": "LineString", "coordinates": [ [ 2.379212380515073, 48.84025863799463 ], [ 2.380732813400129, 48.839986668270086 ] ] } },
{ "type": "Feature", "properties": { "geo_point_2d": { "lon": 2.2899837219400001, "lat": 48.853227832599998 }, "id": "3798", "geo_fid": 3798, "geo_creati": 1530173617569, "geo_modifi": 1530173617569, "id_alpage": "TR3806", "type": "Chemin", "nom": "Ronde", "ref_scan": "ADO75CA_ANO682", "ref_scan2": null, "article": "de", "nom2_scan2": null, "nom_entier": "Chemin de Ronde", "code_fiab": "1", "identifi": 3806, "oid": 1231650 }, "geometry": { "type": "LineString", "coordinates": [ [ 2.288427234560511, 48.854774592695065 ], [ 2.288491892374375, 48.854710412258839 ], [ 2.291540171903487, 48.851681034780903 ] ] } },
{ "type": "Feature", "properties": { "geo_point_2d": { "lon": 2.29803374904, "lat": 48.849149938700002 }, "id": "3805", "geo_fid": 3805, "geo_creati": 1530173617580, "geo_modifi": 1530173617580, "id_alpage": "TR3813", "type": "Avenue", "nom": "Motte Piquet", "ref_scan": "ADO75CA_ANO684", "ref_scan2": null, "article": "de la", "nom2_scan2": null, "nom_entier": "Avenue de la Motte Piquet", "code_fiab": "1", "identifi": 3813, "oid": 1231657 }, "geometry": { "type": "LineString", "coordinates": [ [ 2.298183222478524, 48.849251057911445 ], [ 2.298164428418912, 48.849238371745322 ], [ 2.297884289492121, 48.849048798911099 ] ] } },
{ "type": "Feature", "properties": { "geo_point_2d": { "lon": 2.3135420661000001, "lat": 48.841857279700001 }, "id": "3943", "geo_fid": 3943, "geo_creati": 1530173617585, "geo_modifi": 1530173617585, "id_alpage": "TR3951", "type": "Boulevard", "nom": "Extérieur", "ref_scan": "ADO75CA_ANO684", "ref_scan2": null, "article": null, "nom2_scan2": null, "nom_entier": "Boulevard Extérieur", "code_fiab": "1", "identifi": 3951, "oid": 1231795 }, "geometry": { "type": "LineString", "coordinates": [ [ 2.313796225956098, 48.841565473693564 ], [ 2.313287906241047, 48.842149085696377 ] ] } },
{ "type": "Feature", "properties": { "geo_point_2d": { "lon": 2.3104725777900001, "lat": 48.845965797300003 }, "id": "315", "geo_fid": 315, "geo_creati": 1530173617083, "geo_modifi": 1530173617083, "id_alpage": "TR315", "type": null, "nom": null, "ref_scan": "ADO75CA_ANO688", "ref_scan2": null, "article": null, "nom2_scan2": null, "nom_entier": null, "code_fiab": "3", "identifi": 315, "oid": 1228167 }, "geometry": { "type": "LineString", "coordinates": [ [ 2.30945031188422, 48.845704477834467 ], [ 2.309694984469739, 48.845767306283669 ], [ 2.310076843883878, 48.845865328449072 ], [ 2.3103972636855, 48.845947507728496 ], [ 2.310697385799871, 48.846024375689119 ], [ 2.31102135078262, 48.846105474913962 ], [ 2.311495584015054, 48.84622419675388 ] ] } },
{ "type": "Feature", "properties": { "geo_point_2d": { "lon": 2.2928679705800001, "lat": 48.852710610000003 }, "id": "947", "geo_fid": 947, "geo_creati": 1530173617223, "geo_modifi": 1530173617223, "id_alpage": "TR947", "type": "Rue", "nom": "Desaix", "ref_scan": "ADO75CA_ANO682", "ref_scan2": null, "article": null, "nom2_scan2": null, "nom_entier": "Rue Desaix", "code_fiab": "1", "identifi": 947, "oid": 1228799 }, "geometry": { "type": "LineString", "coordinates": [ [ 2.291540171903487, 48.851681034780903 ], [ 2.291611798622352, 48.851735649245192 ], [ 2.292241330139467, 48.852216290255775 ], [ 2.29242829584481, 48.852362675363644 ], [ 2.292550313035528, 48.852452110835536 ], [ 2.292695187387801, 48.852582471983467 ], [ 2.293145384993649, 48.852933992355858 ], [ 2.293261819261827, 48.853021716294727 ], [ 2.293273122470004, 48.853029993951417 ], [ 2.293409029684595, 48.853134002062824 ], [ 2.29358225008824, 48.853267520411947 ], [ 2.293774947842291, 48.853413096160494 ], [ 2.293861558905256, 48.853479855090633 ], [ 2.293923659347455, 48.853525651617929 ], [ 2.293960698141682, 48.853557140188798 ], [ 2.294047309704942, 48.853623898978235 ], [ 2.294111718642501, 48.85367949834454 ], [ 2.294187561760498, 48.853750029905179 ] ] } },
{ "type": "Feature", "properties": { "geo_point_2d": { "lon": 2.38699164867, "lat": 48.839627987500002 }, "id": "976", "geo_fid": 976, "geo_creati": 1530173617224, "geo_modifi": 1530173617224, "id_alpage": "TR976", "type": null, "nom": null, "ref_scan": "ADO75CA_ANO565", "ref_scan2": null, "article": null, "nom2_scan2": null, "nom_entier": null, "code_fiab": "3", "identifi": 976, "oid": 1228828 }, "geometry": { "type": "LineString", "coordinates": [ [ 2.38743254311661, 48.839109555652783 ], [ 2.387264493791595, 48.839307109600014 ], [ 2.387081202920285, 48.839522655400557 ], [ 2.386930976722446, 48.839699337958628 ], [ 2.38673407535327, 48.839930896172135 ], [ 2.386550779884453, 48.840146441124254 ] ] } },
{ "type": "Feature", "properties": { "geo_point_2d": { "lon": 2.2926732520700002, "lat": 48.869012410099998 }, "id": "4244", "geo_fid": 4244, "geo_creati": 1530173617623, "geo_modifi": 1530173617623, "id_alpage": "TR4254", "type": "Chemin", "nom": "Ronde", "ref_scan": "ADO75CA_ANO059", "ref_scan2": null, "article": "de", "nom2_scan2": null, "nom_entier": "Chemin de Ronde", "code_fiab": "1", "identifi": 4254, "oid": 1232096 }, "geometry": { "type": "LineString", "coordinates": [ [ 2.29198494453104, 48.868762352593997 ], [ 2.29211424756748, 48.868827870778233 ], [ 2.29276944975485, 48.869050337918175 ], [ 2.293044889057243, 48.869111055758701 ], [ 2.293314263308201, 48.869248568482568 ], [ 2.293339445612322, 48.869289495063391 ] ] } },
{ "type": "Feature", "properties": { "geo_point_2d": { "lon": 2.2909915627599999, "lat": 48.867850904100003 }, "id": "4245", "geo_fid": 4245, "geo_creati": 1530173617623, "geo_modifi": 1530173617623, "id_alpage": "TR4255", "type": "Chemin", "nom": "Ronde", "ref_scan": "ADO75CA_ANO059", "ref_scan2": null, "article": "de", "nom2_scan2": null, "nom_entier": "Chemin de Ronde", "code_fiab": "1", "identifi": 4255, "oid": 1232097 }, "geometry": { "type": "LineString", "coordinates": [ [ 2.29014168026987, 48.866767650546215 ], [ 2.290382787553052, 48.867081865592716 ], [ 2.291404243254091, 48.868468058982337 ], [ 2.29198494453104, 48.868762352593997 ] ] } },
{ "type": "Feature", "properties": { "geo_point_2d": { "lon": 2.3019471121400001, "lat": 48.847626225600003 }, "id": "3822", "geo_fid": 3822, "geo_creati": 1530173617581, "geo_modifi": 1530173617581, "id_alpage": "TR3830", "type": "Boulevard", "nom": "Extérieur", "ref_scan": "ADO75CA_ANO684", "ref_scan2": null, "article": null, "nom2_scan2": null, "nom_entier": "Boulevard Extérieur", "code_fiab": "1", "identifi": 3830, "oid": 1231674 }, "geometry": { "type": "LineString", "coordinates": [ [ 2.306223986217839, 48.846409576004177 ], [ 2.303043521578665, 48.847262616967448 ], [ 2.301478414211715, 48.847747025237943 ], [ 2.2976921293648, 48.848918697778096 ] ] } },
{ "type": "Feature", "properties": { "geo_point_2d": { "lon": 2.2908369843199998, "lat": 48.867940409399999 }, "id": "4243", "geo_fid": 4243, "geo_creati": 1530173617623, "geo_modifi": 1530173617623, "id_alpage": "TR4253", "type": "Boulevard", "nom": "Extérieur", "ref_scan": "ADO75CA_ANO059", "ref_scan2": null, "article": null, "nom2_scan2": null, "nom_entier": "Boulevard Extérieur", "code_fiab": "1", "identifi": 4253, "oid": 1232095 }, "geometry": { "type": "LineString", "coordinates": [ [ 2.289984725190279, 48.866834311763277 ], [ 2.291232670960504, 48.868564931612248 ], [ 2.291866844002544, 48.868819499494116 ] ] } },
{ "type": "Feature", "properties": { "geo_point_2d": { "lon": 2.2891536727599999, "lat": 48.858725437899999 }, "id": "2863", "geo_fid": 2863, "geo_creati": 1530173617492, "geo_modifi": 1530173617492, "id_alpage": "TR2863", "type": "Quay", "nom": "Bily", "ref_scan": "ADO75CA_ANO061", "ref_scan2": null, "article": "de", "nom2_scan2": null, "nom_entier": "Quay de Bily", "code_fiab": "1", "identifi": 2863, "oid": 1230715 }, "geometry": { "type": "LineString", "coordinates": [ [ 2.28809322976342, 48.857938539484977 ], [ 2.290196673129061, 48.859499392995353 ], [ 2.290214105888009, 48.859512349696253 ] ] } },
{ "type": "Feature", "properties": { "geo_point_2d": { "lon": 2.2947728465299999, "lat": 48.871283845800001 }, "id": "2881", "geo_fid": 2881, "geo_creati": 1530173617493, "geo_modifi": 1530173617493, "id_alpage": "TR2882", "type": "Chemin", "nom": "Ronde", "ref_scan": "ADO75CA_ANO059", "ref_scan2": null, "article": "de", "nom2_scan2": null, "nom_entier": "Chemin de Ronde", "code_fiab": "1", "identifi": 2882, "oid": 1230733 }, "geometry": { "type": "LineString", "coordinates": [ [ 2.293339445612322, 48.869289495063391 ], [ 2.293393757804478, 48.869377824485937 ], [ 2.295914076067085, 48.872861376793203 ], [ 2.29621256172378, 48.873273980699601 ] ] } },
{ "type": "Feature", "properties": { "geo_point_2d": { "lon": 2.4007097201400001, "lat": 48.8450780696 }, "id": "1009", "geo_fid": 1009, "geo_creati": 1530173617240, "geo_modifi": 1530173617240, "id_alpage": "TR1009", "type": "Avenue", "nom": "Saint Mandé", "ref_scan": "ADO75CA_ANO535", "ref_scan2": null, "article": "de", "nom2_scan2": null, "nom_entier": "Avenue de Saint Mandé", "code_fiab": "1", "identifi": 1009, "oid": 1228861 }, "geometry": { "type": "LineString", "coordinates": [ [ 2.4031220590251, 48.844820408278345 ], [ 2.402496082267207, 48.844886774499955 ], [ 2.401752404250894, 48.844968401582776 ], [ 2.401059546460087, 48.845051254394647 ], [ 2.400810514740946, 48.845076662930303 ], [ 2.400464894602845, 48.845112196321161 ], [ 2.400001294414977, 48.845157865455327 ], [ 2.399655673134409, 48.845193396396454 ], [ 2.399014826416192, 48.845252197768396 ], [ 2.398294676378739, 48.845307620759343 ] ] } },
{ "type": "Feature", "properties": { "geo_point_2d": { "lon": 2.32079638582, "lat": 48.8427870278 }, "id": "290", "geo_fid": 290, "geo_creati": 1530173617081, "geo_modifi": 1530173617081, "id_alpage": "TR290", "type": "Chaussée", "nom": "Maine", "ref_scan": "ADO75CA_ANO724", "ref_scan2": null, "article": "du", "nom2_scan2": null, "nom_entier": "Chaussée du Maine", "code_fiab": "1", "identifi": 290, "oid": 1228142 }, "geometry": { "type": "LineString", "coordinates": [ [ 2.320571679773139, 48.84329029762781 ], [ 2.320647355275877, 48.843111173658869 ], [ 2.320785054526714, 48.842830980416551 ], [ 2.32088063681448, 48.84260078051112 ], [ 2.321013577967109, 48.842280388858455 ] ] } },
{ "type": "Feature", "properties": { "geo_point_2d": { "lon": 2.3243008999799999, "lat": 48.8415011632 }, "id": "293", "geo_fid": 293, "geo_creati": 1530173617081, "geo_modifi": 1530173617081, "id_alpage": "TR293", "type": null, "nom": null, "ref_scan": "ADO75CA_ANO725", "ref_scan2": null, "article": null, "nom2_scan2": null, "nom_entier": null, "code_fiab": "3", "identifi": 293, "oid": 1228145 }, "geometry": { "type": "LineString", "coordinates": [ [ 2.324085316561505, 48.841142485232844 ], [ 2.324222314415005, 48.841365880067372 ], [ 2.324407794491265, 48.841668685904637 ], [ 2.324472470940906, 48.841815634183909 ], [ 2.324503248242566, 48.841866806191554 ] ] } },
{ "type": "Feature", "properties": { "geo_point_2d": { "lon": 2.2880138802199999, "lat": 48.860875708899997 }, "id": "1605", "geo_fid": 1605, "geo_creati": 1530173617315, "geo_modifi": 1530173617315, "id_alpage": "TR1605", "type": "Chemin", "nom": "Ronde", "ref_scan": "ADO75CA_ANO061", "ref_scan2": null, "article": "de", "nom2_scan2": null, "nom_entier": "Chemin de Ronde", "code_fiab": "1", "identifi": 1605, "oid": 1229457 }, "geometry": { "type": "LineString", "coordinates": [ [ 2.289305477250598, 48.860066283597703 ], [ 2.288356367892101, 48.860601578028302 ], [ 2.288408656557546, 48.860649981251036 ], [ 2.286705018189851, 48.861707953857433 ] ] } },
{ "type": "Feature", "properties": { "geo_point_2d": { "lon": 2.2887977990800001, "lat": 48.865028929600001 }, "id": "2879", "geo_fid": 2879, "geo_creati": 1530173617493, "geo_modifi": 1530173617493, "id_alpage": "TR2879", "type": "Rue", "nom": "Longchamps", "ref_scan": "ADO75CA_ANO060", "ref_scan2": null, "article": "de", "nom2_scan2": null, "nom_entier": "Rue de Longchamps", "code_fiab": "1", "identifi": 2879, "oid": 1230731 }, "geometry": { "type": "LineString", "coordinates": [ [ 2.288910593685162, 48.865026054802456 ], [ 2.288685004469624, 48.865031804423481 ] ] } },
{ "type": "Feature", "properties": { "geo_point_2d": { "lon": 2.4020087444999998, "lat": 48.841740487199999 }, "id": "3679", "geo_fid": 3679, "geo_creati": 1530173617565, "geo_modifi": 1530173617565, "id_alpage": "TR3686", "type": "Boulevard", "nom": "Extèrieur", "ref_scan": "ADO75CA_ANO534", "ref_scan2": null, "article": null, "nom2_scan2": null, "nom_entier": "Boulevard Extèrieur", "code_fiab": "1", "identifi": 3686, "oid": 1231531 }, "geometry": { "type": "LineString", "coordinates": [ [ 2.4031220590251, 48.844820408278345 ], [ 2.401217582893283, 48.839323520893601 ], [ 2.400428594108992, 48.839277558054143 ] ] } },
{ "type": "Feature", "properties": { "geo_point_2d": { "lon": 2.3955311968299999, "lat": 48.839603078099998 }, "id": "3696", "geo_fid": 3696, "geo_creati": 1530173617565, "geo_modifi": 1530173617565, "id_alpage": "TR3703", "type": null, "nom": null, "ref_scan": "ADO75CA_ANO568", "ref_scan2": null, "article": null, "nom2_scan2": null, "nom_entier": null, "code_fiab": "2", "identifi": 3703, "oid": 1231548 }, "geometry": { "type": "LineString", "coordinates": [ [ 2.395628739543699, 48.839452325543476 ], [ 2.395583542837336, 48.839480495879215 ], [ 2.395546116918043, 48.839513338442124 ], [ 2.395517822975336, 48.839549863345376 ], [ 2.395499204802068, 48.839589081118653 ], [ 2.395490942116297, 48.839629732438851 ], [ 2.395493169913163, 48.839670738112595 ], [ 2.395504520917387, 48.839707872258288 ], [ 2.395524588971906, 48.839743293333726 ], [ 2.395552692074406, 48.839776282265255 ] ] } },
{ "type": "Feature", "properties": { "geo_point_2d": { "lon": 2.3278528913400001, "lat": 48.839922593399997 }, "id": "3796", "geo_fid": 3796, "geo_creati": 1530173617569, "geo_modifi": 1530173617569, "id_alpage": "TR3804", "type": "Boulevard", "nom": "Extérieur", "ref_scan": "ADO75CA_ANO728", "ref_scan2": null, "article": null, "nom2_scan2": null, "nom_entier": "Boulevard Extérieur", "code_fiab": "1", "identifi": 3804, "oid": 1231648 }, "geometry": { "type": "LineString", "coordinates": [ [ 2.330796364025369, 48.838569613859427 ], [ 2.33063377571252, 48.839051434464928 ], [ 2.324611513904508, 48.840972672105302 ] ] } },
{ "type": "Feature", "properties": { "geo_point_2d": { "lon": 2.2949339447599999, "lat": 48.849772951799999 }, "id": "3804", "geo_fid": 3804, "geo_creati": 1530173617580, "geo_modifi": 1530173617580, "id_alpage": "TR3812", "type": "Boulevard", "nom": "Extérieur", "ref_scan": "ADO75CA_ANO684", "ref_scan2": null, "article": null, "nom2_scan2": null, "nom_entier": "Boulevard Extérieur", "code_fiab": "1", "identifi": 3812, "oid": 1231656 }, "geometry": { "type": "LineString", "coordinates": [ [ 2.2976921293648, 48.848918697778096 ], [ 2.292312847645847, 48.850582970134411 ], [ 2.292212462768692, 48.850686886480986 ] ] } },
{ "type": "Feature", "properties": { "geo_point_2d": { "lon": 2.2896733364099999, "lat": 48.865605285599997 }, "id": "2103", "geo_fid": 2103, "geo_creati": 1530173617375, "geo_modifi": 1530173617375, "id_alpage": "TR2103", "type": "Cul-de-Sac", "nom": "Bouquet des Champs", "ref_scan": "ADO75CA_ANO059", "ref_scan2": null, "article": "du", "nom2_scan2": null, "nom_entier": "Cul-de-Sac du Bouquet des Champs", "code_fiab": "1", "identifi": 2103, "oid": 1229955 }, "geometry": { "type": "LineString", "coordinates": [ [ 2.289436195956873, 48.865012606988302 ], [ 2.289472107966319, 48.865087891121568 ], [ 2.28950761272437, 48.865161556382887 ], [ 2.289567737637872, 48.86528855877161 ], [ 2.28960337898611, 48.865362224060284 ], [ 2.289633441648135, 48.865425725233528 ], [ 2.289663504386967, 48.865489226398935 ], [ 2.289742949194922, 48.865654275968723 ], [ 2.289705594141891, 48.865661814322785 ], [ 2.289741370378558, 48.865737458024434 ], [ 2.289762047107269, 48.865781261192474 ], [ 2.289789934641626, 48.865839185931023 ], [ 2.289810747762031, 48.865882989146968 ], [ 2.289838635410199, 48.865940913873693 ], [ 2.289835348875315, 48.865956829634534 ], [ 2.289796898178487, 48.865969583344928 ], [ 2.289812682411144, 48.86599827669307 ], [ 2.289821389417622, 48.866015726194881 ], [ 2.289776114396054, 48.86603782950047 ], [ 2.289737657694259, 48.866056788169175 ], [ 2.28964287970105, 48.866103331043512 ] ] } },
{ "type": "Feature", "properties": { "geo_point_2d": { "lon": 2.3319429242699998, "lat": 48.833802631799998 }, "id": "4191", "geo_fid": 4191, "geo_creati": 1530173617611, "geo_modifi": 1530173617611, "id_alpage": "TR4201", "type": "Route", "nom": "Orléans", "ref_scan": "ADO75CA_ANO887", "ref_scan2": null, "article": "d'", "nom2_scan2": null, "nom_entier": "Route d'Orléans", "code_fiab": "1", "identifi": 4201, "oid": 1232043 }, "geometry": { "type": "LineString", "coordinates": [ [ 2.33239205145092, 48.834311460585845 ], [ 2.331493797082674, 48.833293803112632 ] ] } },
{ "type": "Feature", "properties": { "geo_point_2d": { "lon": 2.2876786871100001, "lat": 48.863447180100003 }, "id": "2877", "geo_fid": 2877, "geo_creati": 1530173617493, "geo_modifi": 1530173617493, "id_alpage": "TR2877", "type": "Chemin", "nom": "Ronde", "ref_scan": "ADO75CA_ANO060", "ref_scan2": null, "article": "de", "nom2_scan2": null, "nom_entier": "Chemin de Ronde", "code_fiab": "1", "identifi": 2877, "oid": 1230729 }, "geometry": { "type": "LineString", "coordinates": [ [ 2.286446711260612, 48.861868359447342 ], [ 2.286500477733217, 48.861937267615851 ], [ 2.288859679504105, 48.86496065613855 ], [ 2.288910593685162, 48.865026054802456 ] ] } },
{ "type": "Feature", "properties": { "geo_point_2d": { "lon": 2.2977882094300002, "lat": 48.8489837483 }, "id": "3806", "geo_fid": 3806, "geo_creati": 1530173617580, "geo_modifi": 1530173617580, "id_alpage": "TR3814", "type": "Avenue", "nom": "Motte Piquet", "ref_scan": "ADO75CA_ANO684", "ref_scan2": null, "article": "de la", "nom2_scan2": null, "nom_entier": "Avenue de la Motte Piquet", "code_fiab": "1", "identifi": 3814, "oid": 1231658 }, "geometry": { "type": "LineString", "coordinates": [ [ 2.297884289492121, 48.849048798911099 ], [ 2.2976921293648, 48.848918697778096 ] ] } }
]
}
