{
"type": "FeatureCollection",
"name": "plan_delagrive_1728_voies",
"crs": { "type": "name", "properties": { "name": "urn:ogc:def:crs:OGC:1.3:CRS84" } },
"features": [
{ "type": "Feature", "properties": { "gid": 16, "streetname": null, "note": null }, "geometry": { "type": "MultiLineString", "coordinates": [ [ [ 2.34307847991659, 48.829048512842299 ], [ 2.344904312274958, 48.82876397347804 ] ] ] } },
{ "type": "Feature", "properties": { "gid": 211, "streetname": null, "note": null }, "geometry": { "type": "MultiLineString", "coordinates": [ [ [ 2.386467658577935, 48.838612410514614 ], [ 2.386322257349259, 48.838751750652889 ], [ 2.386163377466688, 48.838872945825365 ], [ 2.38598380100425, 48.839007591248439 ] ] ] } },
{ "type": "Feature", "properties": { "gid": 212, "streetname": null, "note": null }, "geometry": { "type": "MultiLineString", "coordinates": [ [ [ 2.387456620915572, 48.838924764229652 ], [ 2.387345448422661, 48.839064280835338 ], [ 2.387179087025757, 48.83923966580533 ] ] ] } },
{ "type": "Feature", "properties": { "gid": 327, "streetname": null, "note": null }, "geometry": { "type": "MultiLineString", "coordinates": [ [ [ 2.320293632286048, 48.83655804057527 ], [ 2.319649542017456, 48.837193676822999 ], [ 2.318915519766942, 48.837797883694307 ], [ 2.318476758009989, 48.838247063552025 ] ] ] } },
{ "type": "Feature", "properties": { "gid": 328, "streetname": null, "note": null }, "geometry": { "type": "MultiLineString", "coordinates": [ [ [ 2.318476758009989, 48.838247063552025 ], [ 2.317660763551737, 48.839777196972413 ], [ 2.317213159764455, 48.840899229110683 ], [ 2.31666530965356, 48.842209653029052 ], [ 2.316502515794761, 48.842909283550391 ], [ 2.316519786787485, 48.843145886281739 ] ] ] } },
{ "type": "Feature", "properties": { "gid": 330, "streetname": null, "note": null }, "geometry": { "type": "MultiLineString", "coordinates": [ [ [ 2.318476758009989, 48.838247063552025 ], [ 2.318921834964213, 48.838383258610911 ], [ 2.319964750796106, 48.838721037738566 ], [ 2.321786754956391, 48.839284457563934 ], [ 2.321780638146496, 48.839754536889615 ] ] ] } },
{ "type": "Feature", "properties": { "gid": 331, "streetname": null, "note": null }, "geometry": { "type": "MultiLineString", "coordinates": [ [ [ 2.321780638146496, 48.839754536889615 ], [ 2.321570630167899, 48.840868713776764 ], [ 2.321221150936326, 48.841968271081235 ], [ 2.320915291969142, 48.842934414527107 ], [ 2.320676181739487, 48.844135991553685 ], [ 2.320599148236801, 48.844688627045365 ] ] ] } },
{ "type": "Feature", "properties": { "gid": 345, "streetname": null, "note": null }, "geometry": { "type": "MultiLineString", "coordinates": [ [ [ 2.321780638146496, 48.839754536889615 ], [ 2.322036627531758, 48.83993573742223 ], [ 2.322297623073643, 48.840269061337068 ], [ 2.322777792187699, 48.840930861391058 ], [ 2.323528868389833, 48.841702501670362 ], [ 2.324131749943993, 48.842192153569947 ], [ 2.324705595417023, 48.842633244311358 ], [ 2.325368281249544, 48.843224623789041 ] ] ] } },
{ "type": "Feature", "properties": { "gid": 346, "streetname": null, "note": null }, "geometry": { "type": "MultiLineString", "coordinates": [ [ [ 2.32492097724224, 48.837907079138148 ], [ 2.325078938529146, 48.838067876070873 ] ] ] } },
{ "type": "Feature", "properties": { "gid": 347, "streetname": null, "note": null }, "geometry": { "type": "MultiLineString", "coordinates": [ [ [ 2.325078938529146, 48.838067876070873 ], [ 2.325280451897431, 48.838682005097276 ], [ 2.32544610689904, 48.839369674571543 ], [ 2.32549736876487, 48.839724853466286 ], [ 2.325608885304302, 48.839875273346067 ], [ 2.326299920769294, 48.840432241925072 ], [ 2.327565205367262, 48.841536291706731 ], [ 2.328111975958179, 48.841912688782656 ], [ 2.328519972133352, 48.842221474593821 ] ] ] } },
{ "type": "Feature", "properties": { "gid": 348, "streetname": null, "note": null }, "geometry": { "type": "MultiLineString", "coordinates": [ [ [ 2.325078938529146, 48.838067876070873 ], [ 2.325741978281518, 48.837818122239099 ], [ 2.32649186394812, 48.837601116502874 ] ] ] } },
{ "type": "Feature", "properties": { "gid": 365, "streetname": null, "note": null }, "geometry": { "type": "MultiLineString", "coordinates": [ [ [ 2.334747439706392, 48.831091437466164 ], [ 2.334847456542153, 48.83097983577381 ], [ 2.334976753446067, 48.830694797401094 ], [ 2.33519134396184, 48.830290399181521 ] ] ] } },
{ "type": "Feature", "properties": { "gid": 366, "streetname": null, "note": null }, "geometry": { "type": "MultiLineString", "coordinates": [ [ [ 2.336695673609799, 48.827828329664811 ], [ 2.336634728072888, 48.827680503561474 ], [ 2.336562315057486, 48.827336731151185 ], [ 2.336564191797899, 48.827189253435272 ] ] ] } },
{ "type": "Feature", "properties": { "gid": 367, "streetname": null, "note": null }, "geometry": { "type": "MultiLineString", "coordinates": [ [ [ 2.33519134396184, 48.830290399181521 ], [ 2.335553285431542, 48.829826902257089 ], [ 2.335993942409607, 48.829211744275035 ], [ 2.336420892297452, 48.828575767841841 ], [ 2.33656307953825, 48.828373760739098 ], [ 2.336614287474205, 48.828189684809281 ], [ 2.336680599014457, 48.827915817081532 ], [ 2.336695673609799, 48.827828329664811 ] ] ] } },
{ "type": "Feature", "properties": { "gid": 421, "streetname": "R de la Procession", "note": null }, "geometry": { "type": "MultiLineString", "coordinates": [ [ [ 2.396055556802806, 48.83946104795524 ], [ 2.396823915886954, 48.839912295343758 ], [ 2.397552102758002, 48.840286514081804 ], [ 2.398123425050213, 48.840610231271484 ], [ 2.398593008272236, 48.840852094158933 ], [ 2.398865113841726, 48.84100258517266 ], [ 2.399048383511995, 48.841139072631123 ] ] ] } },
{ "type": "Feature", "properties": { "gid": 439, "streetname": null, "note": null }, "geometry": { "type": "MultiLineString", "coordinates": [ [ [ 2.311554843993141, 48.840150940450663 ], [ 2.311387329076588, 48.840055080765211 ] ] ] } },
{ "type": "Feature", "properties": { "gid": 440, "streetname": null, "note": null }, "geometry": { "type": "MultiLineString", "coordinates": [ [ [ 2.333037183480339, 48.828431480369446 ], [ 2.33356110005086, 48.828255671804584 ], [ 2.334479753844684, 48.827928939389011 ], [ 2.33525145930491, 48.827629037187386 ], [ 2.335869239989991, 48.827355929302769 ], [ 2.336108619837653, 48.827195943273665 ] ] ] } },
{ "type": "Feature", "properties": { "gid": 444, "streetname": "R de Bercy", "note": null }, "geometry": { "type": "MultiLineString", "coordinates": [ [ [ 2.376865194272364, 48.84187060911654 ], [ 2.377383106175954, 48.841498237510592 ], [ 2.378127726082404, 48.841059258881671 ], [ 2.378639583347181, 48.840619066699112 ], [ 2.378915991578904, 48.840403594969821 ] ] ] } },
{ "type": "Feature", "properties": { "gid": 445, "streetname": "R de Bercy", "note": null }, "geometry": { "type": "MultiLineString", "coordinates": [ [ [ 2.380700509294716, 48.838867382468464 ], [ 2.381184405621753, 48.838472223056229 ], [ 2.381598769813884, 48.838167080287143 ], [ 2.382233890318334, 48.837718471256316 ], [ 2.382386091246328, 48.837583689935684 ] ] ] } },
{ "type": "Feature", "properties": { "gid": 446, "streetname": "R de Bercy", "note": null }, "geometry": { "type": "MultiLineString", "coordinates": [ [ [ 2.378915991578904, 48.840403594969821 ], [ 2.379386224674525, 48.840008372289937 ], [ 2.380700509294716, 48.838867382468464 ] ] ] } },
{ "type": "Feature", "properties": { "gid": 447, "streetname": "R de Bercy", "note": null }, "geometry": { "type": "MultiLineString", "coordinates": [ [ [ 2.382386091246328, 48.837583689935684 ], [ 2.38269599804023, 48.837427127838751 ] ] ] } },
{ "type": "Feature", "properties": { "gid": 455, "streetname": null, "note": null }, "geometry": { "type": "MultiLineString", "coordinates": [ [ [ 2.336695673609799, 48.827828329664811 ], [ 2.336930113456587, 48.827919505249533 ], [ 2.337227217322718, 48.828160820165756 ], [ 2.337600990238042, 48.828411776948236 ], [ 2.337821960152065, 48.828601969565298 ] ] ] } },
{ "type": "Feature", "properties": { "gid": 456, "streetname": null, "note": null }, "geometry": { "type": "MultiLineString", "coordinates": [ [ [ 2.337821960152065, 48.828601969565298 ], [ 2.337929431471212, 48.828934412363608 ], [ 2.338070987054049, 48.829331569538624 ], [ 2.338110792430332, 48.829495409143284 ], [ 2.338001462217319, 48.829858914496441 ], [ 2.338057995985482, 48.83035469400216 ], [ 2.338179024092596, 48.830719473982803 ], [ 2.338300258639522, 48.831068123398964 ], [ 2.33826172815989, 48.831353667408116 ], [ 2.338141436824495, 48.831618018476057 ] ] ] } },
{ "type": "Feature", "properties": { "gid": 485, "streetname": null, "note": null }, "geometry": { "type": "MultiLineString", "coordinates": [ [ [ 2.33519134396184, 48.830290399181521 ], [ 2.336037132075098, 48.830753692236627 ], [ 2.336828526141538, 48.831103757237841 ], [ 2.338141436824495, 48.831618018476057 ] ] ] } },
{ "type": "Feature", "properties": { "gid": 493, "streetname": "Chemin d'Issy", "note": null }, "geometry": { "type": "MultiLineString", "coordinates": [ [ [ 2.316519786787485, 48.843145886281739 ], [ 2.316281495221902, 48.842994339866515 ], [ 2.314556750194805, 48.841819035218109 ], [ 2.313696892199781, 48.841319095434756 ], [ 2.311554843993141, 48.840150940450663 ] ] ] } },
{ "type": "Feature", "properties": { "gid": 496, "streetname": null, "note": null }, "geometry": { "type": "MultiLineString", "coordinates": [ [ [ 2.311387329076588, 48.840055080765211 ], [ 2.310988568661153, 48.839927830456972 ], [ 2.309879788137698, 48.839536964385644 ], [ 2.30922003344917, 48.839326501200738 ], [ 2.308509769760857, 48.839082100800759 ], [ 2.30786426739707, 48.838895742051562 ] ] ] } },
{ "type": "Feature", "properties": { "gid": 510, "streetname": null, "note": null }, "geometry": { "type": "MultiLineString", "coordinates": [ [ [ 2.311387329076588, 48.840055080765211 ], [ 2.311459135984877, 48.839579707121317 ], [ 2.311433443601906, 48.839320038972353 ], [ 2.311385212843104, 48.83911310626663 ], [ 2.311435368857781, 48.838623189799641 ], [ 2.311634790829364, 48.837305107864786 ], [ 2.311731492708426, 48.836597989469617 ], [ 2.311734919246403, 48.836338488242795 ] ] ] } },
{ "type": "Feature", "properties": { "gid": 513, "streetname": null, "note": null }, "geometry": { "type": "MultiLineString", "coordinates": [ [ [ 2.311554843993141, 48.840150940450663 ], [ 2.311789327580552, 48.839937246023823 ], [ 2.31222158646351, 48.839733077199107 ], [ 2.31297448521784, 48.839506719132203 ], [ 2.313779224003299, 48.839213370694019 ], [ 2.314372326141753, 48.838957251404437 ], [ 2.314871729519173, 48.838628503531076 ], [ 2.315048786707786, 48.838451698005173 ], [ 2.315072647473395, 48.838298044763441 ], [ 2.315103788055276, 48.838144433179217 ], [ 2.31521672817655, 48.837860328144885 ], [ 2.315522288533414, 48.83732261065483 ], [ 2.315700790136791, 48.83703527567242 ], [ 2.315813267281085, 48.83678601024134 ] ] ] } },
{ "type": "Feature", "properties": { "gid": 514, "streetname": null, "note": null }, "geometry": { "type": "MultiLineString", "coordinates": [ [ [ 2.314507060677496, 48.837016425692788 ], [ 2.314670501839365, 48.836767453357581 ], [ 2.315224123279958, 48.836189105137883 ], [ 2.315864078519563, 48.835688143074805 ], [ 2.316143099662219, 48.835507112753263 ], [ 2.316203306413806, 48.835357271164746 ], [ 2.316504037211906, 48.835185975967008 ] ] ] } },
{ "type": "Feature", "properties": { "gid": 521, "streetname": null, "note": null }, "geometry": { "type": "MultiLineString", "coordinates": [ [ [ 2.311734919246403, 48.836338488242795 ], [ 2.311692097717922, 48.836273361589789 ], [ 2.311833266907814, 48.83605790635211 ], [ 2.312179786557429, 48.835728289240095 ], [ 2.312607834677929, 48.835288602819048 ], [ 2.312985489145146, 48.834805371745098 ] ] ] } },
{ "type": "Feature", "properties": { "gid": 522, "streetname": null, "note": null }, "geometry": { "type": "MultiLineString", "coordinates": [ [ [ 2.311734919246403, 48.836338488242795 ], [ 2.311851108985263, 48.836360783502151 ], [ 2.31257591073848, 48.836605248332525 ], [ 2.313772892400326, 48.836929313560198 ], [ 2.314295519785974, 48.837047653288117 ], [ 2.314507060677496, 48.837016425692788 ] ] ] } },
{ "type": "Feature", "properties": { "gid": 523, "streetname": null, "note": null }, "geometry": { "type": "MultiLineString", "coordinates": [ [ [ 2.333701877453187, 48.829588959684365 ], [ 2.334170999553372, 48.829830737192637 ], [ 2.334816304854729, 48.830138521611055 ], [ 2.33519134396184, 48.830290399181521 ] ] ] } },
{ "type": "Feature", "properties": { "gid": 542, "streetname": null, "note": null }, "geometry": { "type": "MultiLineString", "coordinates": [ [ [ 2.333701877453187, 48.829588959684365 ], [ 2.333388816847013, 48.829582103262105 ], [ 2.332867110286035, 48.829436315330142 ], [ 2.331692968800518, 48.828996514121471 ], [ 2.330208285157802, 48.828278422161908 ] ] ] } },
{ "type": "Feature", "properties": { "gid": 543, "streetname": null, "note": null }, "geometry": { "type": "MultiLineString", "coordinates": [ [ [ 2.328904695321186, 48.83046955826368 ], [ 2.329681221931912, 48.830586881874758 ], [ 2.33058568143371, 48.830827006320519 ], [ 2.331364379117278, 48.831075638794232 ], [ 2.332370319015017, 48.831569811224462 ], [ 2.33264630328905, 48.831824845804363 ], [ 2.332846504167666, 48.832001104207826 ], [ 2.333263170537847, 48.832173960156361 ], [ 2.333742490482889, 48.832360990596342 ], [ 2.334319016278001, 48.832590040973805 ], [ 2.334675668213694, 48.83267959613638 ], [ 2.335219177818548, 48.832760970988708 ], [ 2.335491550123006, 48.832753266604556 ], [ 2.335690845983894, 48.832734768015968 ] ] ] } },
{ "type": "Feature", "properties": { "gid": 544, "streetname": null, "note": null }, "geometry": { "type": "MultiLineString", "coordinates": [ [ [ 2.331133178499212, 48.832952261166426 ], [ 2.332052080912915, 48.833114348931964 ], [ 2.333604470366823, 48.833464072904896 ], [ 2.334110182700484, 48.833570407726512 ] ] ] } },
{ "type": "Feature", "properties": { "gid": 545, "streetname": null, "note": null }, "geometry": { "type": "MultiLineString", "coordinates": [ [ [ 2.334110182700484, 48.833570407726512 ], [ 2.335338211225248, 48.833828611353539 ], [ 2.336638278146194, 48.834066410663453 ] ] ] } },
{ "type": "Feature", "properties": { "gid": 547, "streetname": null, "note": null }, "geometry": { "type": "MultiLineString", "coordinates": [ [ [ 2.307880450230623, 48.841618746881117 ], [ 2.309580626118999, 48.842089881034418 ], [ 2.311354496356935, 48.842610468160579 ] ] ] } },
{ "type": "Feature", "properties": { "gid": 551, "streetname": null, "note": null }, "geometry": { "type": "MultiLineString", "coordinates": [ [ [ 2.311354496356935, 48.842610468160579 ], [ 2.312526252338056, 48.842958921765984 ], [ 2.313749543583548, 48.843297329849641 ], [ 2.315123566050198, 48.843706853321557 ] ] ] } },
{ "type": "Feature", "properties": { "gid": 552, "streetname": null, "note": null }, "geometry": { "type": "MultiLineString", "coordinates": [ [ [ 2.309864099576497, 48.84464216368012 ], [ 2.310370234188806, 48.843911665479439 ], [ 2.311128252112256, 48.842973473977651 ], [ 2.311354496356935, 48.842610468160579 ] ] ] } },
{ "type": "Feature", "properties": { "gid": 554, "streetname": null, "note": null }, "geometry": { "type": "MultiLineString", "coordinates": [ [ [ 2.311354496356935, 48.842610468160579 ], [ 2.311495197572543, 48.841899567055393 ], [ 2.311480990461715, 48.841061825695668 ], [ 2.311387329076588, 48.840055080765211 ] ] ] } },
{ "type": "Feature", "properties": { "gid": 556, "streetname": null, "note": null }, "geometry": { "type": "MultiLineString", "coordinates": [ [ [ 2.326880126890307, 48.836190652987426 ], [ 2.32766218278664, 48.836725083061822 ] ] ] } },
{ "type": "Feature", "properties": { "gid": 557, "streetname": null, "note": null }, "geometry": { "type": "MultiLineString", "coordinates": [ [ [ 2.32766218278664, 48.836725083061822 ], [ 2.328687004258674, 48.83738531248536 ], [ 2.329324381056213, 48.837771432013376 ] ] ] } },
{ "type": "Feature", "properties": { "gid": 602, "streetname": null, "note": null }, "geometry": { "type": "MultiLineString", "coordinates": [ [ [ 2.38269599804023, 48.837427127838751 ], [ 2.383357945982808, 48.837023840197872 ], [ 2.38397822583753, 48.836670042251491 ], [ 2.384274699189759, 48.836490812240491 ], [ 2.384758119683338, 48.83613178664956 ] ] ] } },
{ "type": "Feature", "properties": { "gid": 603, "streetname": null, "note": null }, "geometry": { "type": "MultiLineString", "coordinates": [ [ [ 2.384758119683338, 48.83613178664956 ], [ 2.385316614924717, 48.835791220516121 ], [ 2.385896595850841, 48.835369421523232 ], [ 2.386055518896206, 48.835243707681329 ], [ 2.386365507145082, 48.835078098460656 ], [ 2.38679870067204, 48.834913120118856 ], [ 2.387115423162158, 48.834756581289518 ], [ 2.387728487302993, 48.834429839992644 ] ] ] } },
{ "type": "Feature", "properties": { "gid": 604, "streetname": null, "note": null }, "geometry": { "type": "MultiLineString", "coordinates": [ [ [ 2.387728487302993, 48.834429839992644 ], [ 2.388368657628856, 48.834125828715109 ], [ 2.388698795116771, 48.833991948835916 ], [ 2.389152824058247, 48.83379995484848 ], [ 2.38989564828961, 48.833496459532526 ] ] ] } },
{ "type": "Feature", "properties": { "gid": 605, "streetname": "R de la Grange aux merciers", "note": null }, "geometry": { "type": "MultiLineString", "coordinates": [ [ [ 2.392382150153829, 48.835108814171029 ], [ 2.391963061422687, 48.834946262979969 ], [ 2.391662863403623, 48.834861136601816 ], [ 2.391193999607197, 48.834565021428396 ], [ 2.390733147824077, 48.834169528900389 ], [ 2.390367468261419, 48.833831006061089 ], [ 2.389990918355249, 48.8335443941452 ], [ 2.38989564828961, 48.833496459532526 ] ] ] } },
{ "type": "Feature", "properties": { "gid": 606, "streetname": null, "note": null }, "geometry": { "type": "MultiLineString", "coordinates": [ [ [ 2.38989564828961, 48.833496459532526 ], [ 2.389705584809102, 48.833359922195051 ], [ 2.389448822574094, 48.833073919579519 ], [ 2.389062069291043, 48.832782733480208 ], [ 2.388173757320673, 48.83206872107467 ], [ 2.387502790924809, 48.831500420571309 ], [ 2.387143172016284, 48.831231961364011 ], [ 2.386431587361288, 48.830627294685307 ], [ 2.385685691696036, 48.830031485005819 ] ] ] } },
{ "type": "Feature", "properties": { "gid": 607, "streetname": null, "note": null }, "geometry": { "type": "MultiLineString", "coordinates": [ [ [ 2.386790969877511, 48.829169520733586 ], [ 2.386225498266153, 48.829528135309559 ], [ 2.385728886691611, 48.829850949319365 ], [ 2.385685691696036, 48.830031485005819 ] ] ] } },
{ "type": "Feature", "properties": { "gid": 613, "streetname": null, "note": null }, "geometry": { "type": "MultiLineString", "coordinates": [ [ [ 2.315813267281085, 48.83678601024134 ], [ 2.316456454931267, 48.836593845467029 ], [ 2.317063066115346, 48.836414684735885 ], [ 2.317579926047499, 48.836417634658545 ], [ 2.318132430258526, 48.836478456828225 ], [ 2.318721836918785, 48.83650103910923 ], [ 2.319259972149531, 48.836547356394703 ], [ 2.320017378336799, 48.836527634830745 ], [ 2.320293632286048, 48.83655804057527 ] ] ] } },
{ "type": "Feature", "properties": { "gid": 614, "streetname": null, "note": null }, "geometry": { "type": "MultiLineString", "coordinates": [ [ [ 2.314507060677496, 48.837016425692788 ], [ 2.315097876823775, 48.836932101720116 ], [ 2.315565171493506, 48.836829045830193 ], [ 2.315813267281085, 48.83678601024134 ] ] ] } },
{ "type": "Feature", "properties": { "gid": 615, "streetname": null, "note": null }, "geometry": { "type": "MultiLineString", "coordinates": [ [ [ 2.320293632286048, 48.83655804057527 ], [ 2.32102782187808, 48.83664391134635 ], [ 2.321513813813286, 48.836781235274842 ], [ 2.322058796675513, 48.836861220322739 ], [ 2.322625370791716, 48.836960548887788 ], [ 2.323075345259135, 48.837068826812413 ], [ 2.323575391716262, 48.837245870750984 ], [ 2.324241149537496, 48.837557213465637 ], [ 2.324574031430566, 48.837712883400883 ], [ 2.32492097724224, 48.837907079138148 ] ] ] } },
{ "type": "Feature", "properties": { "gid": 616, "streetname": null, "note": null }, "geometry": { "type": "MultiLineString", "coordinates": [ [ [ 2.32492097724224, 48.837907079138148 ], [ 2.324930248836573, 48.837753341739152 ], [ 2.324775320115312, 48.837348769000016 ], [ 2.324614359350817, 48.836848043145494 ], [ 2.324502989579042, 48.836453327514597 ], [ 2.324342532526079, 48.835914156195074 ], [ 2.32423012326358, 48.835599933592995 ], [ 2.324131075018439, 48.835378300666669 ], [ 2.32411832289032, 48.835238856294893 ], [ 2.324192489168553, 48.835133544631482 ], [ 2.324187639504657, 48.834946085453822 ] ] ] } },
{ "type": "Feature", "properties": { "gid": 617, "streetname": null, "note": null }, "geometry": { "type": "MultiLineString", "coordinates": [ [ [ 2.320293632286048, 48.83655804057527 ], [ 2.32051772514058, 48.836121973328851 ], [ 2.320714637162439, 48.835536766913968 ], [ 2.320805498876223, 48.835268150075478 ] ] ] } },
{ "type": "Feature", "properties": { "gid": 714, "streetname": null, "note": null }, "geometry": { "type": "MultiLineString", "coordinates": [ [ [ 2.308378547179441, 48.847261880542348 ], [ 2.309258170944389, 48.845815388923363 ], [ 2.310007241194547, 48.844733438560112 ] ] ] } },
{ "type": "Feature", "properties": { "gid": 761, "streetname": "rue de Seve", "note": "rue de Sevres dans Verniquet" }, "geometry": { "type": "MultiLineString", "coordinates": [ [ [ 2.307968659985339, 48.843997991000194 ], [ 2.309864099576497, 48.84464216368012 ] ] ] } },
{ "type": "Feature", "properties": { "gid": 762, "streetname": "rue de Seve", "note": "rue de Sevres dans Verniquet" }, "geometry": { "type": "MultiLineString", "coordinates": [ [ [ 2.309864099576497, 48.84464216368012 ], [ 2.310007241194547, 48.844733438560112 ] ] ] } },
{ "type": "Feature", "properties": { "gid": 763, "streetname": "rue de Seve", "note": "rue de Sevres dans Verniquet" }, "geometry": { "type": "MultiLineString", "coordinates": [ [ [ 2.310007241194547, 48.844733438560112 ], [ 2.311832658773722, 48.845360133777113 ] ] ] } },
{ "type": "Feature", "properties": { "gid": 788, "streetname": "chemin de Gentilly", "note": null }, "geometry": { "type": "MultiLineString", "coordinates": [ [ [ 2.344004455122112, 48.832113223883695 ], [ 2.343886411083453, 48.831631333684683 ], [ 2.34352517653707, 48.830376459986923 ], [ 2.343355721557485, 48.829861097051726 ], [ 2.343147995498768, 48.829391158621732 ], [ 2.342882051175995, 48.829053656707778 ], [ 2.34216324938217, 48.828253163023149 ], [ 2.342039550131923, 48.827723528502887 ] ] ] } },
{ "type": "Feature", "properties": { "gid": 789, "streetname": "chemin de Gentilly", "note": null }, "geometry": { "type": "MultiLineString", "coordinates": [ [ [ 2.342039550131923, 48.827723528502887 ], [ 2.341992636705783, 48.827457756112139 ] ] ] } },
{ "type": "Feature", "properties": { "gid": 792, "streetname": "chemin d'Arcueil", "note": null }, "geometry": { "type": "MultiLineString", "coordinates": [ [ [ 2.332159593706782, 48.827459287278351 ], [ 2.332397419736861, 48.827712629554007 ] ] ] } },
{ "type": "Feature", "properties": { "gid": 793, "streetname": "chemin d'Arcueil", "note": null }, "geometry": { "type": "MultiLineString", "coordinates": [ [ [ 2.333037183480339, 48.828431480369446 ], [ 2.333160368627458, 48.82853261654504 ], [ 2.333642187553022, 48.829344399938762 ], [ 2.333701877453187, 48.829588959684365 ] ] ] } },
{ "type": "Feature", "properties": { "gid": 795, "streetname": "chemin d'Arcueil", "note": null }, "geometry": { "type": "MultiLineString", "coordinates": [ [ [ 2.335690845983894, 48.832734768015968 ], [ 2.335928037405713, 48.833041153740297 ], [ 2.336403357236901, 48.833580977507253 ], [ 2.336638278146194, 48.834066410663453 ] ] ] } },
{ "type": "Feature", "properties": { "gid": 796, "streetname": "chemin d'Arcueil", "note": null }, "geometry": { "type": "MultiLineString", "coordinates": [ [ [ 2.333701877453187, 48.829588959684365 ], [ 2.333728093762267, 48.829696371681464 ], [ 2.333984670780461, 48.83005592573943 ], [ 2.334261255541958, 48.830422222425533 ], [ 2.334747439706392, 48.831091437466164 ] ] ] } },
{ "type": "Feature", "properties": { "gid": 797, "streetname": "chemin d'Arcueil", "note": null }, "geometry": { "type": "MultiLineString", "coordinates": [ [ [ 2.334747439706392, 48.831091437466164 ], [ 2.335001661960977, 48.831636669869013 ], [ 2.335278008572964, 48.832022858066395 ], [ 2.335690845983894, 48.832734768015968 ] ] ] } },
{ "type": "Feature", "properties": { "gid": 799, "streetname": "chemin d'Arcueil", "note": null }, "geometry": { "type": "MultiLineString", "coordinates": [ [ [ 2.332397419736861, 48.827712629554007 ], [ 2.332981441797011, 48.828385715784428 ], [ 2.333037183480339, 48.828431480369446 ] ] ] } },
{ "type": "Feature", "properties": { "gid": 800, "streetname": null, "note": null }, "geometry": { "type": "MultiLineString", "coordinates": [ [ [ 2.340934119581182, 48.831670232791986 ], [ 2.340781902991749, 48.831632601287112 ], [ 2.340692202488408, 48.83154914512933 ], [ 2.340576036833971, 48.831350318359007 ], [ 2.340411881985612, 48.831082091994766 ], [ 2.340261690097008, 48.830813942355256 ], [ 2.339892088895544, 48.83023117037542 ], [ 2.339763193904704, 48.829935483474053 ], [ 2.339620135088811, 48.829655849614362 ], [ 2.3395127098909, 48.829318799877669 ], [ 2.339460720439383, 48.829014319094519 ], [ 2.339389805332849, 48.828550723268172 ], [ 2.339376895885134, 48.828467690004203 ] ] ] } },
{ "type": "Feature", "properties": { "gid": 824, "streetname": null, "note": null }, "geometry": { "type": "MultiLineString", "coordinates": [ [ [ 2.385685691696036, 48.830031485005819 ], [ 2.385157111714079, 48.830742760871644 ], [ 2.384339558625623, 48.831579076981683 ], [ 2.383522620558263, 48.832361163026 ], [ 2.382708012378427, 48.832944422282786 ], [ 2.381907611082306, 48.833482559939185 ], [ 2.381135323213829, 48.833957572589355 ], [ 2.380335857015905, 48.834414363630877 ], [ 2.379880231335794, 48.834737364706349 ], [ 2.379260108095611, 48.835077586088325 ], [ 2.37885696769897, 48.835590650122256 ] ] ] } },
{ "type": "Feature", "properties": { "gid": 836, "streetname": null, "note": null }, "geometry": { "type": "MultiLineString", "coordinates": [ [ [ 2.339894594474189, 48.828400385904011 ], [ 2.341020847933652, 48.828282137270278 ], [ 2.341209446267195, 48.828274879009797 ] ] ] } },
{ "type": "Feature", "properties": { "gid": 848, "streetname": null, "note": null }, "geometry": { "type": "MultiLineString", "coordinates": [ [ [ 2.345645622609113, 48.827274515131236 ], [ 2.346072840298148, 48.828280827192302 ], [ 2.347130898102272, 48.828087472375529 ], [ 2.347205879708667, 48.828121070933918 ], [ 2.347301735006561, 48.828494973123171 ], [ 2.34752159406024, 48.829002308600991 ], [ 2.347642690074472, 48.829368050601239 ], [ 2.347977004765735, 48.829768144170828 ], [ 2.348249735828539, 48.830068333486842 ], [ 2.348648344814021, 48.830352613108687 ] ] ] } },
{ "type": "Feature", "properties": { "gid": 854, "streetname": null, "note": null }, "geometry": { "type": "MultiLineString", "coordinates": [ [ [ 2.354606213002392, 48.82724023492969 ], [ 2.354744682494247, 48.828236659207327 ], [ 2.354744617928582, 48.829257226953658 ], [ 2.354626692178802, 48.829646563586529 ], [ 2.35448342585277, 48.830052357791629 ], [ 2.354250339970844, 48.830607017960574 ], [ 2.353897462683938, 48.831700353713714 ], [ 2.353778393721245, 48.832180952600233 ], [ 2.35338552937972, 48.833456609244529 ] ] ] } },
{ "type": "Feature", "properties": { "gid": 873, "streetname": null, "note": null }, "geometry": { "type": "MultiLineString", "coordinates": [ [ [ 2.335081882550974, 48.83476741770491 ], [ 2.334592456222352, 48.834276144579825 ], [ 2.334268229471861, 48.833970147916013 ], [ 2.334137414432139, 48.833826541416357 ], [ 2.334103568975143, 48.833743391380366 ], [ 2.334110182700484, 48.833570407726512 ] ] ] } },
{ "type": "Feature", "properties": { "gid": 879, "streetname": null, "note": null }, "geometry": { "type": "MultiLineString", "coordinates": [ [ [ 2.339870240043263, 48.832507888606521 ], [ 2.339696710910137, 48.832428578043078 ], [ 2.339536676857793, 48.832386213593679 ], [ 2.339280196414105, 48.832241918568307 ], [ 2.339045010414148, 48.832070086749169 ], [ 2.338774220573066, 48.831953365405568 ], [ 2.338476035218605, 48.831795011048698 ], [ 2.338141436824495, 48.831618018476057 ] ] ] } },
{ "type": "Feature", "properties": { "gid": 880, "streetname": null, "note": null }, "geometry": { "type": "MultiLineString", "coordinates": [ [ [ 2.338141436824495, 48.831618018476057 ], [ 2.338162602931255, 48.831737969215482 ], [ 2.338130349818766, 48.832078855557235 ], [ 2.338092051736278, 48.832345964620316 ], [ 2.338082144918673, 48.832576358886577 ], [ 2.338128085217964, 48.832807062166971 ], [ 2.338195729352555, 48.832977968740401 ], [ 2.338303797087682, 48.833264323357504 ], [ 2.338486794794597, 48.833560310194251 ] ] ] } },
{ "type": "Feature", "properties": { "gid": 881, "streetname": null, "note": null }, "geometry": { "type": "MultiLineString", "coordinates": [ [ [ 2.339870240043263, 48.832507888606521 ], [ 2.34014471048401, 48.832334261898581 ], [ 2.340525698737129, 48.832018343467773 ], [ 2.340773290382333, 48.83176160535929 ], [ 2.340934119581182, 48.831670232791986 ] ] ] } },
{ "type": "Feature", "properties": { "gid": 882, "streetname": null, "note": null }, "geometry": { "type": "MultiLineString", "coordinates": [ [ [ 2.342134124139547, 48.827436433766508 ], [ 2.342718224135468, 48.827718963113298 ], [ 2.343829453924019, 48.828293431468914 ], [ 2.344804563489475, 48.828701197223012 ], [ 2.344880170041176, 48.828685016785833 ] ] ] } },
{ "type": "Feature", "properties": { "gid": 910, "streetname": null, "note": null }, "geometry": { "type": "MultiLineString", "coordinates": [ [ [ 2.339376895885134, 48.828467690004203 ], [ 2.339894594474189, 48.828400385904011 ] ] ] } },
{ "type": "Feature", "properties": { "gid": 911, "streetname": null, "note": null }, "geometry": { "type": "MultiLineString", "coordinates": [ [ [ 2.337821960152065, 48.828601969565298 ], [ 2.338195583728259, 48.828590210691168 ], [ 2.338776062278154, 48.828505850545355 ], [ 2.339376895885134, 48.828467690004203 ] ] ] } },
{ "type": "Feature", "properties": { "gid": 914, "streetname": null, "note": null }, "geometry": { "type": "MultiLineString", "coordinates": [ [ [ 2.326880126890307, 48.836190652987426 ], [ 2.327134409117658, 48.835422385119507 ], [ 2.327357874980016, 48.834877478344694 ], [ 2.327381613507416, 48.83466098989085 ], [ 2.327381127814325, 48.834585010061183 ] ] ] } },
{ "type": "Feature", "properties": { "gid": 915, "streetname": null, "note": null }, "geometry": { "type": "MultiLineString", "coordinates": [ [ [ 2.32649186394812, 48.837601116502874 ], [ 2.32642565175283, 48.837321901166511 ], [ 2.32648023911983, 48.836879747571473 ], [ 2.326596050392611, 48.836562380692996 ], [ 2.326880126890307, 48.836190652987426 ] ] ] } },
{ "type": "Feature", "properties": { "gid": 916, "streetname": null, "note": null }, "geometry": { "type": "MultiLineString", "coordinates": [ [ [ 2.327381127814325, 48.834585010061183 ], [ 2.327379300637777, 48.834299172046656 ] ] ] } },
{ "type": "Feature", "properties": { "gid": 931, "streetname": null, "note": null }, "geometry": { "type": "MultiLineString", "coordinates": [ [ [ 2.393434875519971, 48.834056730872838 ], [ 2.393680497752571, 48.834125760015709 ], [ 2.394329121306514, 48.834269132719513 ], [ 2.394854122605186, 48.834448027814879 ], [ 2.395372282691975, 48.834626885976803 ], [ 2.395664252321165, 48.83483171270835 ] ] ] } },
{ "type": "Feature", "properties": { "gid": 932, "streetname": null, "note": null }, "geometry": { "type": "MultiLineString", "coordinates": [ [ [ 2.396736080326319, 48.833897188848127 ], [ 2.396355434567821, 48.834256781771032 ], [ 2.396072024467696, 48.834494853672879 ], [ 2.395905130982343, 48.834719956651085 ] ] ] } },
{ "type": "Feature", "properties": { "gid": 933, "streetname": null, "note": null }, "geometry": { "type": "MultiLineString", "coordinates": [ [ [ 2.395664252321165, 48.83483171270835 ], [ 2.395278267680015, 48.835060226505881 ], [ 2.395008328318368, 48.835316439519048 ], [ 2.394614810044803, 48.835603658861096 ], [ 2.39454567830341, 48.835662054802022 ] ] ] } },
{ "type": "Feature", "properties": { "gid": 934, "streetname": null, "note": null }, "geometry": { "type": "MultiLineString", "coordinates": [ [ [ 2.395905130982343, 48.834719956651085 ], [ 2.395664252321165, 48.83483171270835 ] ] ] } },
{ "type": "Feature", "properties": { "gid": 935, "streetname": null, "note": null }, "geometry": { "type": "MultiLineString", "coordinates": [ [ [ 2.39454567830341, 48.835662054802022 ], [ 2.39422755476856, 48.835940616594996 ], [ 2.393827287552944, 48.836218761232224 ], [ 2.39355169917056, 48.836371007221949 ] ] ] } },
{ "type": "Feature", "properties": { "gid": 936, "streetname": null, "note": null }, "geometry": { "type": "MultiLineString", "coordinates": [ [ [ 2.393441126841753, 48.8364608247457 ], [ 2.393070020693567, 48.836585471748016 ], [ 2.392540475221883, 48.836795172323626 ], [ 2.392203221282225, 48.836951620888215 ], [ 2.391982912479717, 48.837058955013546 ], [ 2.391797144853761, 48.837139350920673 ], [ 2.391618643734711, 48.837183632240659 ], [ 2.391337887120865, 48.837191241757033 ], [ 2.391071031878576, 48.837180845755178 ] ] ] } },
{ "type": "Feature", "properties": { "gid": 937, "streetname": null, "note": null }, "geometry": { "type": "MultiLineString", "coordinates": [ [ [ 2.39355169917056, 48.836371007221949 ], [ 2.393441126841753, 48.8364608247457 ] ] ] } },
{ "type": "Feature", "properties": { "gid": 938, "streetname": null, "note": null }, "geometry": { "type": "MultiLineString", "coordinates": [ [ [ 2.398135032330197, 48.83486224659903 ], [ 2.397806897249792, 48.834824443697975 ], [ 2.397615659401125, 48.834787329419669 ], [ 2.397273731007351, 48.834758493410227 ], [ 2.39698593435442, 48.834784156310974 ], [ 2.396684709233891, 48.834787156215839 ], [ 2.396301817021822, 48.834749072966261 ], [ 2.396076199330812, 48.834725339433739 ], [ 2.395905130982343, 48.834719956651085 ] ] ] } },
{ "type": "Feature", "properties": { "gid": 942, "streetname": "R de la Vallée de Fécamp", "note": null }, "geometry": { "type": "MultiLineString", "coordinates": [ [ [ 2.393649375149117, 48.833858986030684 ], [ 2.393434875519971, 48.834056730872838 ] ] ] } },
{ "type": "Feature", "properties": { "gid": 943, "streetname": "R de la Vallée de Fécamp", "note": null }, "geometry": { "type": "MultiLineString", "coordinates": [ [ [ 2.393434875519971, 48.834056730872838 ], [ 2.393068368907394, 48.834375714849521 ], [ 2.392763408572719, 48.834699529027013 ], [ 2.392548164913251, 48.834960533205923 ], [ 2.392382150153829, 48.835108814171029 ] ] ] } },
{ "type": "Feature", "properties": { "gid": 945, "streetname": "R de la Vallée de Fécamp", "note": null }, "geometry": { "type": "MultiLineString", "coordinates": [ [ [ 2.392382150153829, 48.835108814171029 ], [ 2.392074651691821, 48.835649521369383 ], [ 2.39193437918562, 48.835938018744983 ] ] ] } },
{ "type": "Feature", "properties": { "gid": 946, "streetname": "R de la Vallée de Fécamp", "note": null }, "geometry": { "type": "MultiLineString", "coordinates": [ [ [ 2.391071031878576, 48.837180845755178 ], [ 2.390289390404875, 48.837872775620035 ], [ 2.389569441975736, 48.838555977094089 ] ] ] } },
{ "type": "Feature", "properties": { "gid": 948, "streetname": "R de la Vallée de Fécamp", "note": null }, "geometry": { "type": "MultiLineString", "coordinates": [ [ [ 2.391390551618434, 48.836784808028739 ], [ 2.391071031878576, 48.837180845755178 ] ] ] } },
{ "type": "Feature", "properties": { "gid": 949, "streetname": "R de la Vallée de Fécamp", "note": null }, "geometry": { "type": "MultiLineString", "coordinates": [ [ [ 2.389569441975736, 48.838555977094089 ], [ 2.389042841260942, 48.839095556787044 ] ] ] } },
{ "type": "Feature", "properties": { "gid": 951, "streetname": "R de la Vallée de Fécamp", "note": null }, "geometry": { "type": "MultiLineString", "coordinates": [ [ [ 2.39193437918562, 48.835938018744983 ], [ 2.391696798280267, 48.836352550551752 ], [ 2.391564158042678, 48.836573302507581 ], [ 2.391390551618434, 48.836784808028739 ] ] ] } },
{ "type": "Feature", "properties": { "gid": 1024, "streetname": "rue de la Santé", "note": null }, "geometry": { "type": "MultiLineString", "coordinates": [ [ [ 2.341133267495509, 48.827642326921513 ], [ 2.341166009991597, 48.827832361568795 ] ] ] } },
{ "type": "Feature", "properties": { "gid": 1026, "streetname": "rue de la Santé", "note": null }, "geometry": { "type": "MultiLineString", "coordinates": [ [ [ 2.341209446267195, 48.828274879009797 ], [ 2.341134680850713, 48.828715327989144 ], [ 2.341041034386514, 48.829584619706921 ], [ 2.341146454539659, 48.830089030405418 ], [ 2.341221667847649, 48.830490881516084 ], [ 2.341097674418639, 48.831138979802766 ], [ 2.340934119581182, 48.831670232791986 ] ] ] } },
{ "type": "Feature", "properties": { "gid": 1027, "streetname": "rue de la Santé", "note": null }, "geometry": { "type": "MultiLineString", "coordinates": [ [ [ 2.340934119581182, 48.831670232791986 ], [ 2.34090231405762, 48.832648968646147 ], [ 2.340912444959931, 48.833164428661476 ] ] ] } },
{ "type": "Feature", "properties": { "gid": 1028, "streetname": "rue de la Santé", "note": null }, "geometry": { "type": "MultiLineString", "coordinates": [ [ [ 2.341166009991597, 48.827832361568795 ], [ 2.341228258382887, 48.828193641974622 ], [ 2.341209446267195, 48.828274879009797 ] ] ] } },
{ "type": "Feature", "properties": { "gid": 1046, "streetname": null, "note": null }, "geometry": { "type": "MultiLineString", "coordinates": [ [ [ 2.341166009991597, 48.827832361568795 ], [ 2.341642247895722, 48.827770396385255 ], [ 2.342039550131923, 48.827723528502887 ] ] ] } },
{ "type": "Feature", "properties": { "gid": 1047, "streetname": null, "note": null }, "geometry": { "type": "MultiLineString", "coordinates": [ [ [ 2.341992636705783, 48.827457756112139 ], [ 2.341914826726818, 48.827191162565413 ] ] ] } },
{ "type": "Feature", "properties": { "gid": 1048, "streetname": null, "note": null }, "geometry": { "type": "MultiLineString", "coordinates": [ [ [ 2.341133267495509, 48.827642326921513 ], [ 2.341042366130605, 48.827181749408965 ] ] ] } },
{ "type": "Feature", "properties": { "gid": 1050, "streetname": null, "note": null }, "geometry": { "type": "MultiLineString", "coordinates": [ [ [ 2.351325352794412, 48.827313754699659 ], [ 2.351611633577825, 48.827759673765826 ], [ 2.351819900100938, 48.828234750604921 ], [ 2.351745708546906, 48.828320014249158 ], [ 2.351611665543297, 48.82854330927119 ], [ 2.351331593583091, 48.828832196189907 ], [ 2.35095098693718, 48.829120536833464 ], [ 2.350405253867849, 48.829549033533773 ], [ 2.349621469988922, 48.829918152254749 ], [ 2.348825108284953, 48.830287197269143 ] ] ] } },
{ "type": "Feature", "properties": { "gid": 1052, "streetname": null, "note": null }, "geometry": { "type": "MultiLineString", "coordinates": [ [ [ 2.355626406358055, 48.827201302509444 ], [ 2.356225087148753, 48.827900484769557 ], [ 2.356734347366574, 48.828493175829756 ], [ 2.357196745165399, 48.828924297938997 ], [ 2.357728330565067, 48.829406488469303 ], [ 2.359194014695176, 48.830709474499095 ], [ 2.359616709809089, 48.831108110617663 ], [ 2.359940048981313, 48.831496995443295 ], [ 2.360408067100227, 48.832043358100812 ], [ 2.360929258384752, 48.832808928805207 ], [ 2.360972448340532, 48.832870404377267 ] ] ] } },
{ "type": "Feature", "properties": { "gid": 1054, "streetname": null, "note": null }, "geometry": { "type": "MultiLineString", "coordinates": [ [ [ 2.361052768306768, 48.832984729501085 ], [ 2.361157934265817, 48.832948419516441 ], [ 2.361315072241961, 48.83265889366389 ], [ 2.361473902020706, 48.832231107433017 ], [ 2.361613367125345, 48.831674166224325 ], [ 2.361832155693126, 48.830910243936174 ], [ 2.361941942430101, 48.830496021704363 ], [ 2.362417692979318, 48.828698751423936 ] ] ] } },
{ "type": "Feature", "properties": { "gid": 1055, "streetname": null, "note": null }, "geometry": { "type": "MultiLineString", "coordinates": [ [ [ 2.369425298824807, 48.827205721799764 ], [ 2.369065637168043, 48.828084141344867 ], [ 2.36863839548243, 48.829353965810242 ], [ 2.368384782451169, 48.830120021626655 ], [ 2.367901717519223, 48.831384937542218 ], [ 2.367288179092592, 48.832900348743202 ], [ 2.366866732196351, 48.83368625149842 ], [ 2.365882718858711, 48.835250880201087 ] ] ] } },
{ "type": "Feature", "properties": { "gid": 1058, "streetname": null, "note": null }, "geometry": { "type": "MultiLineString", "coordinates": [ [ [ 2.369939222790248, 48.836666034454581 ], [ 2.371369995973074, 48.836853311400972 ], [ 2.372171476920992, 48.836972744552497 ], [ 2.372700183886245, 48.837132222614827 ], [ 2.372894612531704, 48.837220812072943 ] ] ] } },
{ "type": "Feature", "properties": { "gid": 1059, "streetname": null, "note": null }, "geometry": { "type": "MultiLineString", "coordinates": [ [ [ 2.384133195957745, 48.827079573075743 ], [ 2.382889412010331, 48.828363675857382 ], [ 2.381942900741262, 48.829299019192376 ], [ 2.380530269864352, 48.830683620101119 ], [ 2.379178350344346, 48.831653711316015 ], [ 2.37800758300883, 48.832357409032603 ], [ 2.376951969947002, 48.833061694927729 ], [ 2.375810458634088, 48.833940663380098 ], [ 2.375472053883939, 48.834215434332386 ] ] ] } },
{ "type": "Feature", "properties": { "gid": 1060, "streetname": null, "note": null }, "geometry": { "type": "MultiLineString", "coordinates": [ [ [ 2.375472053883939, 48.834215434332386 ], [ 2.374721386132658, 48.835101040795081 ], [ 2.374324794558596, 48.835569080087197 ] ] ] } },
{ "type": "Feature", "properties": { "gid": 1061, "streetname": null, "note": null }, "geometry": { "type": "MultiLineString", "coordinates": [ [ [ 2.372299940873907, 48.827174754630256 ], [ 2.372534142812835, 48.828595550809105 ], [ 2.372811904231115, 48.829878303832331 ], [ 2.373165582208882, 48.830654465708562 ], [ 2.373462649314159, 48.831494854968938 ], [ 2.374221519134239, 48.832540454349193 ], [ 2.374783228844162, 48.833437530609693 ], [ 2.375099272550735, 48.833863206503914 ], [ 2.375472053883939, 48.834215434332386 ] ] ] } },
{ "type": "Feature", "properties": { "gid": 1062, "streetname": null, "note": null }, "geometry": { "type": "MultiLineString", "coordinates": [ [ [ 2.374324794558596, 48.835569080087197 ], [ 2.373566718699158, 48.836486902324317 ], [ 2.372894612531704, 48.837220812072943 ] ] ] } },
{ "type": "Feature", "properties": { "gid": 1063, "streetname": null, "note": null }, "geometry": { "type": "MultiLineString", "coordinates": [ [ [ 2.372894612531704, 48.837220812072943 ], [ 2.371812665975042, 48.838358152950995 ], [ 2.370399910179933, 48.839710362483096 ], [ 2.368914662630281, 48.840988428758656 ], [ 2.36819623972605, 48.841500836822718 ], [ 2.367195550832081, 48.842256020795702 ] ] ] } },
{ "type": "Feature", "properties": { "gid": 1086, "streetname": "port de la Rapée", "note": null }, "geometry": { "type": "MultiLineString", "coordinates": [ [ [ 2.37885696769897, 48.835590650122256 ], [ 2.378122132718798, 48.83636408572341 ], [ 2.377678655862754, 48.836813670786803 ], [ 2.377276782094114, 48.837218281529097 ], [ 2.376237465472128, 48.838261253756635 ], [ 2.375032300213539, 48.839429879174723 ], [ 2.374630060433102, 48.839861591800322 ], [ 2.37410329187981, 48.840401105086364 ], [ 2.373714728140591, 48.840832885893121 ] ] ] } },
{ "type": "Feature", "properties": { "gid": 1089, "streetname": null, "note": null }, "geometry": { "type": "MultiLineString", "coordinates": [ [ [ 2.380700509294716, 48.838867382468464 ], [ 2.381389263101824, 48.83909237263844 ], [ 2.382698119964709, 48.839560062207418 ] ] ] } },
{ "type": "Feature", "properties": { "gid": 1090, "streetname": null, "note": null }, "geometry": { "type": "MultiLineString", "coordinates": [ [ [ 2.382698119964709, 48.839560062207418 ], [ 2.383291322089829, 48.83976195356599 ], [ 2.383959455551095, 48.839995860127118 ], [ 2.384159737303799, 48.839847767716805 ], [ 2.384930345338057, 48.840100271919837 ], [ 2.385905369359292, 48.840435160759668 ], [ 2.386668936235391, 48.840705692975234 ], [ 2.387159801046323, 48.840879926692793 ], [ 2.387350947573251, 48.840926094728651 ] ] ] } },
{ "type": "Feature", "properties": { "gid": 1091, "streetname": null, "note": null }, "geometry": { "type": "MultiLineString", "coordinates": [ [ [ 2.382698119964709, 48.839560062207418 ], [ 2.382151329914378, 48.840063356112985 ], [ 2.381750805800763, 48.840355015174787 ], [ 2.381488047096657, 48.8405750828747 ], [ 2.381122119046722, 48.840835286332855 ] ] ] } },
{ "type": "Feature", "properties": { "gid": 1093, "streetname": null, "note": null }, "geometry": { "type": "MultiLineString", "coordinates": [ [ [ 2.378915991578904, 48.840403594969821 ], [ 2.379181407691742, 48.840536020792278 ], [ 2.379529026122613, 48.840664353504664 ], [ 2.380176294961379, 48.840925286192331 ], [ 2.380707730851634, 48.841140426721928 ] ] ] } },
{ "type": "Feature", "properties": { "gid": 1171, "streetname": null, "note": null }, "geometry": { "type": "MultiLineString", "coordinates": [ [ [ 2.39454567830341, 48.835662054802022 ], [ 2.394328057503807, 48.835538942419113 ], [ 2.394062050561019, 48.835456254728015 ], [ 2.393775719933115, 48.835355387777213 ], [ 2.393488654338986, 48.835317781191591 ], [ 2.393146829962019, 48.835279896104247 ], [ 2.392859817868585, 48.835237769359772 ], [ 2.392586601325118, 48.835186674151736 ], [ 2.392382150153829, 48.835108814171029 ] ] ] } },
{ "type": "Feature", "properties": { "gid": 1182, "streetname": null, "note": null }, "geometry": { "type": "MultiLineString", "coordinates": [ [ [ 2.393441126841753, 48.8364608247457 ], [ 2.393528903343014, 48.836565204727528 ], [ 2.393664753461506, 48.836656271608234 ], [ 2.393841464420567, 48.836765621028839 ], [ 2.393997115449226, 48.836920052550013 ], [ 2.394125491903301, 48.837065307882241 ], [ 2.394246446275789, 48.83726023342841 ], [ 2.394381774445006, 48.837396485828386 ], [ 2.394606038392785, 48.837537707107892 ], [ 2.394843889063887, 48.837688034487584 ], [ 2.395224809507984, 48.837897830535859 ], [ 2.395408111142578, 48.838029805313653 ], [ 2.395563875387485, 48.838175197348889 ], [ 2.395705478411275, 48.838361187721979 ], [ 2.395751666891216, 48.838510544750633 ], [ 2.395853404025494, 48.838592398818598 ] ] ] } },
{ "type": "Feature", "properties": { "gid": 1187, "streetname": null, "note": null }, "geometry": { "type": "MultiLineString", "coordinates": [ [ [ 2.395853404025494, 48.838592398818598 ], [ 2.396012574688021, 48.838444078933982 ], [ 2.396178746782151, 48.838282237464007 ], [ 2.396303061161428, 48.838187968014772 ], [ 2.396537841107531, 48.83801291555033 ], [ 2.396751874577155, 48.837855833587405 ], [ 2.397082954973182, 48.837640595514557 ], [ 2.397440420880955, 48.83751134857647 ], [ 2.397845905669695, 48.837373304496943 ], [ 2.398347324863233, 48.837226703806444 ], [ 2.398759598055061, 48.837093209666648 ], [ 2.39895193938365, 48.837035430552135 ] ] ] } },
{ "type": "Feature", "properties": { "gid": 1303, "streetname": null, "note": null }, "geometry": { "type": "MultiLineString", "coordinates": [ [ [ 2.398967388196945, 48.838070336775331 ], [ 2.398162369903022, 48.838423282237883 ], [ 2.397900160012607, 48.83860271864171 ], [ 2.397569912504248, 48.838745660634586 ], [ 2.397061160699127, 48.838932891069661 ], [ 2.396503179413566, 48.839232843387059 ], [ 2.396055556802806, 48.83946104795524 ] ] ] } },
{ "type": "Feature", "properties": { "gid": 1309, "streetname": null, "note": null }, "geometry": { "type": "MultiLineString", "coordinates": [ [ [ 2.396055556802806, 48.83946104795524 ], [ 2.395913321094674, 48.839329281763092 ] ] ] } },
{ "type": "Feature", "properties": { "gid": 1310, "streetname": null, "note": null }, "geometry": { "type": "MultiLineString", "coordinates": [ [ [ 2.395913321094674, 48.839329281763092 ], [ 2.395896398471109, 48.839017392412316 ], [ 2.39584399226907, 48.838813777328419 ] ] ] } },
{ "type": "Feature", "properties": { "gid": 1311, "streetname": null, "note": null }, "geometry": { "type": "MultiLineString", "coordinates": [ [ [ 2.395853404025494, 48.838592398818598 ], [ 2.39584399226907, 48.838813777328419 ] ] ] } },
{ "type": "Feature", "properties": { "gid": 1312, "streetname": null, "note": null }, "geometry": { "type": "MultiLineString", "coordinates": [ [ [ 2.394804413500828, 48.839319157721036 ], [ 2.394954016365899, 48.839405773547348 ], [ 2.395254639143764, 48.8394570015871 ], [ 2.395500813300599, 48.839480840350092 ] ] ] } },
{ "type": "Feature", "properties": { "gid": 1313, "streetname": null, "note": null }, "geometry": { "type": "MultiLineString", "coordinates": [ [ [ 2.395500813300599, 48.839480840350092 ], [ 2.395913321094674, 48.839329281763092 ] ] ] } },
{ "type": "Feature", "properties": { "gid": 1314, "streetname": null, "note": null }, "geometry": { "type": "MultiLineString", "coordinates": [ [ [ 2.395500813300599, 48.839480840350092 ], [ 2.395554738493397, 48.839553415177789 ], [ 2.395511412273291, 48.839747508736188 ] ] ] } },
{ "type": "Feature", "properties": { "gid": 1315, "streetname": null, "note": null }, "geometry": { "type": "MultiLineString", "coordinates": [ [ [ 2.394804413500828, 48.839319157721036 ], [ 2.394606893195509, 48.839232299200155 ] ] ] } },
{ "type": "Feature", "properties": { "gid": 1320, "streetname": null, "note": null }, "geometry": { "type": "MultiLineString", "coordinates": [ [ [ 2.394606893195509, 48.839232299200155 ], [ 2.394518532639043, 48.839177625209878 ], [ 2.394492095876354, 48.839096151233171 ], [ 2.394362663304819, 48.839041269208586 ], [ 2.394137763257517, 48.838954271255062 ], [ 2.394008961835098, 48.838845165245829 ], [ 2.393790803472934, 48.838767238569723 ], [ 2.39368870129652, 48.838717013194241 ], [ 2.3935389973594, 48.838639432999344 ], [ 2.39338208041198, 48.838593448333896 ], [ 2.393088783315604, 48.838501582575269 ], [ 2.392734247977382, 48.838377772902312 ], [ 2.392420733389062, 48.838258689423363 ], [ 2.392291357761617, 48.838199286481597 ], [ 2.392183308644778, 48.838072208220545 ], [ 2.392048564215176, 48.837886248421079 ], [ 2.391872591289588, 48.837713635550799 ], [ 2.391586727194356, 48.837572095829792 ], [ 2.39134156638102, 48.837462394864282 ], [ 2.391198873047523, 48.837371290571575 ], [ 2.391071031878576, 48.837180845755178 ] ] ] } },
{ "type": "Feature", "properties": { "gid": 1321, "streetname": null, "note": null }, "geometry": { "type": "MultiLineString", "coordinates": [ [ [ 2.391390551618434, 48.836784808028739 ], [ 2.391226955382539, 48.836725229710225 ] ] ] } },
{ "type": "Feature", "properties": { "gid": 1322, "streetname": null, "note": null }, "geometry": { "type": "MultiLineString", "coordinates": [ [ [ 2.391226955382539, 48.836725229710225 ], [ 2.391105749620116, 48.836552894222706 ], [ 2.391060684742811, 48.836308643662527 ], [ 2.391083384081366, 48.836123483868263 ], [ 2.391106294394447, 48.83592024946514 ], [ 2.391183330849805, 48.83577151748689 ] ] ] } },
{ "type": "Feature", "properties": { "gid": 1323, "streetname": null, "note": null }, "geometry": { "type": "MultiLineString", "coordinates": [ [ [ 2.391226955382539, 48.836725229710225 ], [ 2.390897863135784, 48.836768743444019 ], [ 2.390548393541927, 48.836798595723401 ], [ 2.390199346455554, 48.836792297864875 ], [ 2.389836926632281, 48.836758817316728 ], [ 2.389460711245913, 48.836734303071545 ], [ 2.389166425418262, 48.836728281697233 ], [ 2.38883085721395, 48.836740124313231 ], [ 2.388474912626476, 48.836738305086477 ], [ 2.388201904662531, 48.836669125374549 ], [ 2.388120188066993, 48.836632556101158 ] ] ] } },
{ "type": "Feature", "properties": { "gid": 1324, "streetname": null, "note": null }, "geometry": { "type": "MultiLineString", "coordinates": [ [ [ 2.388120188066993, 48.836632556101158 ], [ 2.388431556440524, 48.836349457086079 ], [ 2.388564421392825, 48.836110633993577 ], [ 2.3887675364166, 48.835718526647682 ], [ 2.388838529014523, 48.835501981513573 ], [ 2.38890193448392, 48.835348662354399 ], [ 2.388930214630881, 48.835271985269721 ], [ 2.388699660848702, 48.835085531623683 ], [ 2.38840702794617, 48.834939430342224 ], [ 2.388210171303774, 48.834798337158261 ], [ 2.388047380655715, 48.834670974678275 ], [ 2.387728487302993, 48.834429839992644 ] ] ] } },
{ "type": "Feature", "properties": { "gid": 1325, "streetname": null, "note": null }, "geometry": { "type": "MultiLineString", "coordinates": [ [ [ 2.388120188066993, 48.836632556101158 ], [ 2.387908733647591, 48.836568209477882 ] ] ] } },
{ "type": "Feature", "properties": { "gid": 1326, "streetname": null, "note": null }, "geometry": { "type": "MultiLineString", "coordinates": [ [ [ 2.387908733647591, 48.836568209477882 ], [ 2.38773872162558, 48.836472442230928 ], [ 2.387595506411834, 48.836426519959829 ] ] ] } },
{ "type": "Feature", "properties": { "gid": 1327, "streetname": null, "note": null }, "geometry": { "type": "MultiLineString", "coordinates": [ [ [ 2.387595506411834, 48.836426519959829 ], [ 2.387528170934822, 48.836331278042159 ], [ 2.387372275290703, 48.836199431226412 ], [ 2.387161673569078, 48.836062784999392 ] ] ] } },
{ "type": "Feature", "properties": { "gid": 1328, "streetname": null, "note": null }, "geometry": { "type": "MultiLineString", "coordinates": [ [ [ 2.387908733647591, 48.836568209477882 ], [ 2.387850736050895, 48.836843566216444 ], [ 2.38774498110871, 48.837105121697448 ], [ 2.387583720475318, 48.837429657570063 ], [ 2.387500038493602, 48.837560277417431 ] ] ] } },
{ "type": "Feature", "properties": { "gid": 1329, "streetname": null, "note": null }, "geometry": { "type": "MultiLineString", "coordinates": [ [ [ 2.387500038493602, 48.837560277417431 ], [ 2.387201657675591, 48.837902186078693 ], [ 2.3869109686274, 48.83817183085754 ], [ 2.386703324156167, 48.838365079317498 ], [ 2.386467658577935, 48.838612410514614 ] ] ] } },
{ "type": "Feature", "properties": { "gid": 1330, "streetname": null, "note": null }, "geometry": { "type": "MultiLineString", "coordinates": [ [ [ 2.389569441975736, 48.838555977094089 ], [ 2.389357925026244, 48.838496151775821 ], [ 2.38909875618512, 48.838413488210371 ], [ 2.388860018095963, 48.838339966264257 ], [ 2.388573628688512, 48.838243605754222 ], [ 2.388451208793642, 48.8381751963813 ], [ 2.388329425542552, 48.838052563276221 ], [ 2.38826288211125, 48.837889542397839 ], [ 2.388051581568445, 48.837811640195696 ], [ 2.387847073807216, 48.837738291280992 ], [ 2.387704491987494, 48.837638145572186 ], [ 2.387500038493602, 48.837560277417431 ] ] ] } },
{ "type": "Feature", "properties": { "gid": 1331, "streetname": null, "note": null }, "geometry": { "type": "MultiLineString", "coordinates": [ [ [ 2.387595506411834, 48.836426519959829 ], [ 2.387163684115553, 48.836474016342564 ], [ 2.386806944045694, 48.836539971742987 ], [ 2.386360419233299, 48.836673249174659 ], [ 2.386057905251417, 48.836784669627754 ], [ 2.385691920115032, 48.837053925220189 ], [ 2.385402773101171, 48.837192526103024 ], [ 2.384989238662853, 48.837429902796458 ], [ 2.384720943313182, 48.837541495761819 ], [ 2.384384568339859, 48.837621105404921 ], [ 2.384068888160646, 48.837687263940829 ], [ 2.383808396272734, 48.837717554687572 ] ] ] } },
{ "type": "Feature", "properties": { "gid": 1332, "streetname": null, "note": null }, "geometry": { "type": "MultiLineString", "coordinates": [ [ [ 2.383808396272734, 48.837717554687572 ], [ 2.383459985231473, 48.837657013570812 ], [ 2.383153020507722, 48.837565052809232 ], [ 2.382852848546797, 48.837477645203137 ], [ 2.38269599804023, 48.837427127838751 ] ] ] } },
{ "type": "Feature", "properties": { "gid": 1333, "streetname": null, "note": null }, "geometry": { "type": "MultiLineString", "coordinates": [ [ [ 2.387456620915572, 48.838924764229652 ], [ 2.387825368934644, 48.839003473254294 ], [ 2.388152515261925, 48.839127157355108 ], [ 2.388370507627133, 48.839218650175646 ], [ 2.388622886894755, 48.839296761644007 ], [ 2.38882087434199, 48.839342962383114 ] ] ] } },
{ "type": "Feature", "properties": { "gid": 1334, "streetname": null, "note": null }, "geometry": { "type": "MultiLineString", "coordinates": [ [ [ 2.383808396272734, 48.837717554687572 ], [ 2.383819415827384, 48.837943556839349 ], [ 2.384174567678853, 48.838013169399233 ], [ 2.384632559450239, 48.838069753276038 ], [ 2.384926212465106, 48.838130009380905 ], [ 2.385370675377213, 48.838172964133364 ], [ 2.385527424180496, 48.83823251522027 ], [ 2.385737923880807, 48.838378201321845 ], [ 2.386044472151048, 48.83850630443024 ], [ 2.386467658577935, 48.838612410514614 ] ] ] } },
{ "type": "Feature", "properties": { "gid": 1335, "streetname": null, "note": null }, "geometry": { "type": "MultiLineString", "coordinates": [ [ [ 2.386467658577935, 48.838612410514614 ], [ 2.386917802916745, 48.838754804474448 ], [ 2.387211249934635, 48.838833129452539 ], [ 2.387456620915572, 48.838924764229652 ] ] ] } },
{ "type": "Feature", "properties": { "gid": 1338, "streetname": "chemin de Charenton et de Conflans", "note": null }, "geometry": { "type": "MultiLineString", "coordinates": [ [ [ 2.396055556802806, 48.83946104795524 ], [ 2.395511412273291, 48.839747508736188 ] ] ] } },
{ "type": "Feature", "properties": { "gid": 1341, "streetname": "avenue de Saint Maur", "note": null }, "geometry": { "type": "MultiLineString", "coordinates": [ [ [ 2.394606893195509, 48.839232299200155 ], [ 2.393315115658189, 48.839641493128944 ], [ 2.39156935051776, 48.840233639515617 ] ] ] } },
{ "type": "Feature", "properties": { "gid": 1342, "streetname": "avenue de Saint Maur", "note": null }, "geometry": { "type": "MultiLineString", "coordinates": [ [ [ 2.398963460805222, 48.837817258608681 ], [ 2.396682369737716, 48.838537837028163 ], [ 2.39584399226907, 48.838813777328419 ] ] ] } },
{ "type": "Feature", "properties": { "gid": 1343, "streetname": "avenue de Saint Maur", "note": null }, "geometry": { "type": "MultiLineString", "coordinates": [ [ [ 2.39584399226907, 48.838813777328419 ], [ 2.394606893195509, 48.839232299200155 ] ] ] } },
{ "type": "Feature", "properties": { "gid": 1345, "streetname": "Avenue de Vincennes", "note": null }, "geometry": { "type": "MultiLineString", "coordinates": [ [ [ 2.399176180991969, 48.848092001429592 ], [ 2.39702572591216, 48.848135409145179 ] ] ] } },
{ "type": "Feature", "properties": { "gid": 1425, "streetname": null, "note": null }, "geometry": { "type": "MultiLineString", "coordinates": [ [ [ 2.399188471555753, 48.847619842244107 ], [ 2.397325694694398, 48.84765566186411 ], [ 2.396741496366688, 48.847255057666878 ] ] ] } },
{ "type": "Feature", "properties": { "gid": 1454, "streetname": null, "note": null }, "geometry": { "type": "MultiLineString", "coordinates": [ [ [ 2.384758119683338, 48.83613178664956 ], [ 2.384384470834644, 48.835923723399063 ], [ 2.383971792596043, 48.835693923626032 ], [ 2.382803238147674, 48.835013974172917 ] ] ] } },
{ "type": "Feature", "properties": { "gid": 1455, "streetname": null, "note": null }, "geometry": { "type": "MultiLineString", "coordinates": [ [ [ 2.382803238147674, 48.835013974172917 ], [ 2.382584896898257, 48.834886924171542 ] ] ] } },
{ "type": "Feature", "properties": { "gid": 1456, "streetname": null, "note": null }, "geometry": { "type": "MultiLineString", "coordinates": [ [ [ 2.382826445858211, 48.83472097072611 ], [ 2.382584896898257, 48.834886924171542 ] ] ] } },
{ "type": "Feature", "properties": { "gid": 1457, "streetname": null, "note": null }, "geometry": { "type": "MultiLineString", "coordinates": [ [ [ 2.382584896898257, 48.834886924171542 ], [ 2.382370832931033, 48.835043981200116 ], [ 2.381977354236192, 48.835322121748383 ], [ 2.381637521552058, 48.835117014003544 ], [ 2.381893085781536, 48.834924021389966 ], [ 2.382176295183325, 48.834708576401567 ] ] ] } },
{ "type": "Feature", "properties": { "gid": 1458, "streetname": null, "note": null }, "geometry": { "type": "MultiLineString", "coordinates": [ [ [ 2.382803238147674, 48.835013974172917 ], [ 2.382257566643733, 48.835359720608992 ], [ 2.381649747720537, 48.835817509538145 ], [ 2.381165933211423, 48.836208153133271 ], [ 2.380638635241421, 48.836585012780773 ] ] ] } },
{ "type": "Feature", "properties": { "gid": 1459, "streetname": null, "note": null }, "geometry": { "type": "MultiLineString", "coordinates": [ [ [ 2.38178121005138, 48.837214533488073 ], [ 2.381341397116378, 48.837573772405122 ], [ 2.381106514464836, 48.837753313740414 ], [ 2.380878368089664, 48.837941927277456 ], [ 2.380712579074302, 48.838067598497922 ], [ 2.38050507315446, 48.838247280327643 ], [ 2.380138672903548, 48.838548148973942 ], [ 2.380062836944294, 48.838592945033803 ] ] ] } },
{ "type": "Feature", "properties": { "gid": 1460, "streetname": null, "note": null }, "geometry": { "type": "MultiLineString", "coordinates": [ [ [ 2.380062836944294, 48.838592945033803 ], [ 2.379848481343898, 48.838772590163245 ], [ 2.379447147295224, 48.839132021233688 ], [ 2.379149834961968, 48.839379018220697 ], [ 2.378817807830483, 48.839666504286697 ] ] ] } },
{ "type": "Feature", "properties": { "gid": 1461, "streetname": "clos Payen", "note": null }, "geometry": { "type": "MultiLineString", "coordinates": [ [ [ 2.344433369331437, 48.827238835410789 ], [ 2.344430187298964, 48.827491886249987 ], [ 2.3446565579991, 48.827978520029134 ], [ 2.344880170041176, 48.828685016785833 ] ] ] } },
{ "type": "Feature", "properties": { "gid": 1462, "streetname": "clos Payen", "note": null }, "geometry": { "type": "MultiLineString", "coordinates": [ [ [ 2.344880170041176, 48.828685016785833 ], [ 2.344904312274958, 48.82876397347804 ] ] ] } },
{ "type": "Feature", "properties": { "gid": 1463, "streetname": "clos Payen", "note": null }, "geometry": { "type": "MultiLineString", "coordinates": [ [ [ 2.344904312274958, 48.82876397347804 ], [ 2.345208415042331, 48.829566328951238 ], [ 2.345767213911672, 48.831104387116795 ], [ 2.345778947854577, 48.831170829635781 ], [ 2.345749779356088, 48.831233219244858 ] ] ] } },
{ "type": "Feature", "properties": { "gid": 1466, "streetname": null, "note": null }, "geometry": { "type": "MultiLineString", "coordinates": [ [ [ 2.38178121005138, 48.837214533488073 ], [ 2.382107955850142, 48.837369864752326 ], [ 2.382386091246328, 48.837583689935684 ] ] ] } },
{ "type": "Feature", "properties": { "gid": 1467, "streetname": null, "note": null }, "geometry": { "type": "MultiLineString", "coordinates": [ [ [ 2.37885696769897, 48.835590650122256 ], [ 2.379068084014457, 48.835682124637806 ] ] ] } },
{ "type": "Feature", "properties": { "gid": 1468, "streetname": null, "note": null }, "geometry": { "type": "MultiLineString", "coordinates": [ [ [ 2.380638635241421, 48.836585012780773 ], [ 2.381523131917618, 48.837041480721901 ], [ 2.38178121005138, 48.837214533488073 ] ] ] } },
{ "type": "Feature", "properties": { "gid": 1469, "streetname": null, "note": null }, "geometry": { "type": "MultiLineString", "coordinates": [ [ [ 2.379068084014457, 48.835682124637806 ], [ 2.379387321562345, 48.835891651672995 ], [ 2.379741109284645, 48.836074243470911 ], [ 2.380638635241421, 48.836585012780773 ] ] ] } },
{ "type": "Feature", "properties": { "gid": 1470, "streetname": null, "note": null }, "geometry": { "type": "MultiLineString", "coordinates": [ [ [ 2.378817807830483, 48.839666504286697 ], [ 2.378170830968767, 48.839382970836098 ], [ 2.377918682671982, 48.83928676282688 ], [ 2.377680226111456, 48.839190625504592 ], [ 2.377428727325223, 48.839040192948424 ], [ 2.377278992678783, 48.838967111053627 ], [ 2.377549793556327, 48.838647678125902 ], [ 2.377792131144991, 48.838418474624042 ], [ 2.377192714253389, 48.838166815203245 ], [ 2.376831967964601, 48.837993217805945 ], [ 2.376791436765251, 48.83794781754127 ], [ 2.376985641932812, 48.837736440392248 ], [ 2.377511814086223, 48.83724209944959 ] ] ] } },
{ "type": "Feature", "properties": { "gid": 1471, "streetname": null, "note": null }, "geometry": { "type": "MultiLineString", "coordinates": [ [ [ 2.377511814086223, 48.83724209944959 ], [ 2.377989521466323, 48.836792693158628 ], [ 2.378467867168587, 48.83628906114393 ], [ 2.378772979456407, 48.835960765241595 ], [ 2.378959947377058, 48.83578097943137 ], [ 2.379068084014457, 48.835682124637806 ] ] ] } },
{ "type": "Feature", "properties": { "gid": 1472, "streetname": null, "note": null }, "geometry": { "type": "MultiLineString", "coordinates": [ [ [ 2.377511814086223, 48.83724209944959 ], [ 2.377818011832603, 48.83739733555835 ], [ 2.378607364704922, 48.837794584029695 ], [ 2.37909052249361, 48.838036595193756 ], [ 2.379505447094955, 48.838260174772486 ], [ 2.379729889540381, 48.838383349317091 ], [ 2.380062836944294, 48.838592945033803 ] ] ] } },
{ "type": "Feature", "properties": { "gid": 1533, "streetname": "chemin de Montrouge", "note": null }, "geometry": { "type": "MultiLineString", "coordinates": [ [ [ 2.327640864906509, 48.82906851059176 ], [ 2.328904695321186, 48.83046955826368 ] ] ] } },
{ "type": "Feature", "properties": { "gid": 1534, "streetname": "chemin de Montrouge", "note": null }, "geometry": { "type": "MultiLineString", "coordinates": [ [ [ 2.328904695321186, 48.83046955826368 ], [ 2.330415459447909, 48.83222045973335 ], [ 2.331133178499212, 48.832952261166426 ] ] ] } },
{ "type": "Feature", "properties": { "gid": 1537, "streetname": "chemin de Montrouge", "note": null }, "geometry": { "type": "MultiLineString", "coordinates": [ [ [ 2.331133178499212, 48.832952261166426 ], [ 2.331184617884592, 48.83300470890179 ], [ 2.332831866246107, 48.834905689050728 ] ] ] } },
{ "type": "Feature", "properties": { "gid": 1821, "streetname": null, "note": null }, "geometry": { "type": "MultiLineString", "coordinates": [ [ [ 2.329324381056213, 48.837771432013376 ], [ 2.33029602460499, 48.838362214211294 ], [ 2.331099211527898, 48.838887520782833 ], [ 2.331945959286348, 48.839284014100613 ] ] ] } },
{ "type": "Feature", "properties": { "gid": 1824, "streetname": null, "note": null }, "geometry": { "type": "MultiLineString", "coordinates": [ [ [ 2.32649186394812, 48.837601116502874 ], [ 2.327205777135021, 48.838142078537338 ], [ 2.328077498664609, 48.838764579329691 ], [ 2.328686545334782, 48.839182805284409 ], [ 2.329821181965649, 48.839995734947287 ], [ 2.330248964145877, 48.840394500854991 ] ] ] } },
{ "type": "Feature", "properties": { "gid": 1829, "streetname": null, "note": null }, "geometry": { "type": "MultiLineString", "coordinates": [ [ [ 2.327381127814325, 48.834585010061183 ], [ 2.327611188614163, 48.834724501882555 ], [ 2.328139795766866, 48.834879568553148 ], [ 2.328688518696743, 48.835099271410861 ] ] ] } },
{ "type": "Feature", "properties": { "gid": 1830, "streetname": null, "note": null }, "geometry": { "type": "MultiLineString", "coordinates": [ [ [ 2.328688518696743, 48.835099271410861 ], [ 2.330404409735572, 48.835767972741351 ], [ 2.331698441669766, 48.83626145621102 ] ] ] } },
{ "type": "Feature", "properties": { "gid": 2100, "streetname": null, "note": null }, "geometry": { "type": "MultiLineString", "coordinates": [ [ [ 2.347397746131433, 48.830864376517411 ], [ 2.346789276664424, 48.829865009252785 ], [ 2.346365958708725, 48.829144003276831 ], [ 2.34611734340141, 48.8287680144497 ], [ 2.345935921420396, 48.828449527589086 ], [ 2.345882166759356, 48.828334517947475 ], [ 2.345673867447821, 48.827812547794949 ], [ 2.345492445466807, 48.82741885484559 ], [ 2.345431971473136, 48.827233066087366 ] ] ] } },
{ "type": "Feature", "properties": { "gid": 2154, "streetname": null, "note": null }, "geometry": { "type": "MultiLineString", "coordinates": [ [ [ 2.332397419736861, 48.827712629554007 ], [ 2.331913218378122, 48.827671878562384 ], [ 2.331187530454068, 48.827632066944602 ] ] ] } },
{ "type": "Feature", "properties": { "gid": 2312, "streetname": null, "note": null }, "geometry": { "type": "MultiLineString", "coordinates": [ [ [ 2.32766218278664, 48.836725083061822 ], [ 2.32808781492729, 48.836175080259075 ], [ 2.328271171854551, 48.835850834202418 ], [ 2.328688518696743, 48.835099271410861 ] ] ] } },
{ "type": "Feature", "properties": { "gid": 3143, "streetname": null, "note": null }, "geometry": { "type": "MultiLineString", "coordinates": [ [ [ 2.39193437918562, 48.835938018744983 ], [ 2.392269491671061, 48.835944695183798 ], [ 2.392542380871237, 48.835977183927021 ], [ 2.392758880442722, 48.835996944763487 ], [ 2.393012635519419, 48.83605421732755 ], [ 2.393162960884952, 48.83609230313057 ], [ 2.393312779692936, 48.836173929734571 ], [ 2.393443753915252, 48.836255460583573 ], [ 2.39355169917056, 48.836371007221949 ] ] ] } }
]
}
