{
"type": "FeatureCollection",
"name": "zone_etude_paris_sud",
"crs": { "type": "name", "properties": { "name": "urn:ogc:def:crs:OGC:1.3:CRS84" } },
"features": [
{ "type": "Feature", "properties": { }, "geometry": { "type": "MultiPolygon", "coordinates": [ [ [ [ 2.398668128317027, 48.848138116241948 ], [ 2.398863272933275, 48.848120631366577 ], [ 2.399117693542693, 48.848097834622727 ], [ 2.399263524728671, 48.848085048761412 ], [ 2.399407099546139, 48.848072469938728 ], [ 2.399453228634635, 48.848068425966567 ], [ 2.403452116529008, 48.847717869263064 ], [ 2.404080324295172, 48.84765733470465 ], [ 2.406273698822662, 48.847446046186448 ], [ 2.406314101803262, 48.847442152825145 ], [ 2.406325142887441, 48.847441261493231 ], [ 2.407728317389582, 48.84732788523025 ], [ 2.408005156303897, 48.847305512449807 ], [ 2.409452139637248, 48.847188575257 ], [ 2.409560994828016, 48.84717807295646 ], [ 2.410430610140161, 48.847099916828427 ], [ 2.410636271043429, 48.847081432137884 ], [ 2.410984175939999, 48.847050161675291 ], [ 2.411098021678265, 48.847039928071169 ], [ 2.411155246660877, 48.84703478483555 ], [ 2.411275410835626, 48.847024449056633 ], [ 2.411574377272921, 48.846998733285467 ], [ 2.411706005668424, 48.84698741110801 ], [ 2.413342083410245, 48.846846667539253 ], [ 2.413614205895823, 48.846823255888118 ], [ 2.413636353586917, 48.846821295025947 ], [ 2.413941542051228, 48.846794267401606 ], [ 2.414143890980671, 48.846776347742441 ], [ 2.414490506997807, 48.846745650760028 ], [ 2.414565150387199, 48.846739039754475 ], [ 2.415288896856696, 48.846674938736484 ], [ 2.415483939172267, 48.846657664612245 ], [ 2.415993782667184, 48.84661250401286 ], [ 2.41591911567092, 48.846241309883077 ], [ 2.415918847262609, 48.84623996943477 ], [ 2.415875376784052, 48.846023859184498 ], [ 2.415855108565025, 48.845923098216993 ], [ 2.415737761574643, 48.845339703978837 ], [ 2.415718948531499, 48.84524617094943 ], [ 2.415690740650429, 48.845105934396273 ], [ 2.415361953666606, 48.844040298188844 ], [ 2.415245536435292, 48.84366296744863 ], [ 2.415136792526323, 48.843310497107588 ], [ 2.415128683173229, 48.84328420884772 ], [ 2.415099498404957, 48.843189609458307 ], [ 2.414877392092523, 48.842469687279497 ], [ 2.414814238899316, 48.842264983280842 ], [ 2.414783377710914, 48.842164947001301 ], [ 2.414690585759219, 48.841864166117333 ], [ 2.414613958721673, 48.841615778019715 ], [ 2.414511880868107, 48.841301371093351 ], [ 2.414509779007566, 48.841294897120285 ], [ 2.414287881217013, 48.840536400075699 ], [ 2.413571837393758, 48.838088635661499 ], [ 2.413511477520538, 48.837882285393952 ], [ 2.41332305828289, 48.837374754042557 ], [ 2.413259697754498, 48.837204081745917 ], [ 2.413103145482937, 48.836782378330952 ], [ 2.413053997071511, 48.836649984948735 ], [ 2.412927331514038, 48.836308779443719 ], [ 2.412859284817569, 48.836125476498779 ], [ 2.412552033389257, 48.835297792696309 ], [ 2.412524774460409, 48.835224359831209 ], [ 2.41249436077468, 48.835142430465048 ], [ 2.412442459934882, 48.835002616846616 ], [ 2.412410233765849, 48.834915803989084 ], [ 2.412299617437366, 48.834617809567533 ], [ 2.412274092572367, 48.834549049217159 ], [ 2.412124855402813, 48.834451709768693 ], [ 2.412061168425268, 48.83441016989925 ], [ 2.411922917506233, 48.834319995455246 ], [ 2.411904073315744, 48.834307704731479 ], [ 2.411549258205432, 48.834076272877638 ], [ 2.411354739594916, 48.833949396652507 ], [ 2.411341666248052, 48.833940868395658 ], [ 2.41131274449225, 48.833922003088155 ], [ 2.411216852230974, 48.833859454269088 ], [ 2.411408220133334, 48.833822272996599 ], [ 2.411578354683804, 48.833791474974134 ], [ 2.411749274723735, 48.833762641187121 ], [ 2.411858420813249, 48.833745562089199 ], [ 2.41192093384308, 48.83373578129703 ], [ 2.412093274764637, 48.8337109022142 ], [ 2.412266248364713, 48.833688012687901 ], [ 2.412439798728881, 48.83366711963572 ], [ 2.41261387813713, 48.833648228216987 ], [ 2.412788426588915, 48.833631345329728 ], [ 2.412963396364457, 48.833616476133855 ], [ 2.413138732943384, 48.833603624856742 ], [ 2.413314380442849, 48.833592795719596 ], [ 2.413496473701583, 48.833582752498906 ], [ 2.413624085442563, 48.83357750983447 ], [ 2.413751814111535, 48.833573738967026 ], [ 2.413879624300608, 48.833571439722633 ], [ 2.414007475133324, 48.833570613699521 ], [ 2.414135328487512, 48.833571259811357 ], [ 2.414263144858808, 48.833573378763994 ], [ 2.414390886125424, 48.83357696947148 ], [ 2.414518512782663, 48.833582032639953 ], [ 2.414645986739075, 48.833588564485858 ], [ 2.414773267147892, 48.833596563910383 ], [ 2.414900318621557, 48.833606028942228 ], [ 2.415027100343736, 48.833616955784926 ], [ 2.415257750963932, 48.833639545151065 ], [ 2.4154052247364, 48.833656218958076 ], [ 2.415552232759109, 48.833674587406669 ], [ 2.415698735570758, 48.833694647607523 ], [ 2.415844685587115, 48.833716392134995 ], [ 2.415990037927674, 48.83373981537563 ], [ 2.416134747742195, 48.833764909018299 ], [ 2.416278774266557, 48.83379166477183 ], [ 2.416422071247367, 48.833820077916087 ], [ 2.416564595245781, 48.833850135650522 ], [ 2.416706302742371, 48.833881832369208 ], [ 2.41684715165985, 48.833915155278724 ], [ 2.416987099870336, 48.833950096082255 ], [ 2.417126098454494, 48.833986644651304 ], [ 2.41726411215519, 48.83402478732679 ], [ 2.417401098843349, 48.834064515812422 ], [ 2.418869661010755, 48.834519372928199 ], [ 2.422250597419096, 48.835688670294552 ], [ 2.42189710266962, 48.83630354577415 ], [ 2.421886644821439, 48.836321737876212 ], [ 2.421738546610853, 48.836579334748642 ], [ 2.421699104126533, 48.836652862896756 ], [ 2.421679247128449, 48.836693017798638 ], [ 2.421660457113644, 48.836733395500197 ], [ 2.421642735586306, 48.836773983418134 ], [ 2.421626092214821, 48.836814769907932 ], [ 2.421610525798843, 48.8368557405744 ], [ 2.421596048711524, 48.836896885584864 ], [ 2.421581514845967, 48.836941671829855 ], [ 2.421570323264439, 48.836979676864523 ], [ 2.421560141223157, 48.837017803695772 ], [ 2.421550966099243, 48.837056043317602 ], [ 2.421533223469734, 48.837136080666959 ], [ 2.421533151620008, 48.837136416680409 ], [ 2.421528485270613, 48.837158398772793 ], [ 2.421516217084145, 48.837216187222154 ], [ 2.421293200770969, 48.838255915639195 ], [ 2.420862833305955, 48.839623556163481 ], [ 2.420418034704037, 48.840499245915645 ], [ 2.420229478400791, 48.840725704309946 ], [ 2.419989388198467, 48.840946344589575 ], [ 2.419856198555173, 48.841068746166236 ], [ 2.41957032094945, 48.841533294974262 ], [ 2.419422931450188, 48.842483882706162 ], [ 2.419524405436727, 48.842673454951473 ], [ 2.419527058624618, 48.842677710989243 ], [ 2.419529730145918, 48.842681789043354 ], [ 2.4195325096645, 48.842685835244573 ], [ 2.41953539445547, 48.842689849579692 ], [ 2.419538387263692, 48.842693830263286 ], [ 2.419541482669505, 48.842697774570972 ], [ 2.419544683387724, 48.842701683415306 ], [ 2.41954798671348, 48.842705554984434 ], [ 2.41955138993179, 48.842709388365861 ], [ 2.41955489580785, 48.842713179975483 ], [ 2.419558500223999, 48.842716932491435 ], [ 2.41956220594533, 48.842720642329645 ], [ 2.419566007531937, 48.842724308564421 ], [ 2.41956990498383, 48.842727931195725 ], [ 2.419573898321154, 48.842731508424961 ], [ 2.41957798619132, 48.842735039346174 ], [ 2.419582164536959, 48.842738521241579 ], [ 2.419586436072978, 48.842741955023705 ], [ 2.419590796722071, 48.842745339773444 ], [ 2.419595247866583, 48.84274867369875 ], [ 2.419599785439221, 48.842751954981196 ], [ 2.419604410802497, 48.842755183627318 ], [ 2.419609118506377, 48.842758359610734 ], [ 2.419613909943514, 48.842761480240085 ], [ 2.419617148292442, 48.842763601344288 ], [ 2.419635083558617, 48.842775358404502 ], [ 2.419646087610089, 48.842782943898186 ], [ 2.419656888614707, 48.842790654315699 ], [ 2.419667485229877, 48.842798487851823 ], [ 2.419677873398291, 48.842806441788881 ], [ 2.419688049042509, 48.842814515207735 ], [ 2.419698010839839, 48.842822704504648 ], [ 2.419707753360633, 48.842831007854649 ], [ 2.419717275292097, 48.842839420754579 ], [ 2.419717549003624, 48.842839680197514 ], [ 2.419739533745237, 48.84286062582099 ], [ 2.419752266553107, 48.842873384692581 ], [ 2.419764661200106, 48.842886288517569 ], [ 2.419776709551359, 48.842899333659098 ], [ 2.419788414381584, 48.84291251563404 ], [ 2.419799768938418, 48.842925829013531 ], [ 2.419810766419218, 48.84293927286533 ], [ 2.419821409628706, 48.842952840008358 ], [ 2.41983169177433, 48.842966528610944 ], [ 2.419841610190912, 48.842980333264165 ], [ 2.419851167543298, 48.842994259377178 ], [ 2.419859252082484, 48.843007807812157 ], [ 2.419865836814524, 48.843019486406597 ], [ 2.419872112775117, 48.843031239948481 ], [ 2.419878075926581, 48.843043063921527 ], [ 2.419883726318675, 48.843054953829146 ], [ 2.419889061256505, 48.843066906960296 ], [ 2.419894078044666, 48.843078920603865 ], [ 2.419898085721492, 48.843089293425074 ], [ 2.419901116433128, 48.843097830419644 ], [ 2.41990392195354, 48.843106400497625 ], [ 2.419906498215287, 48.843115001840623 ], [ 2.419908849335647, 48.843123631770467 ], [ 2.419910972619599, 48.84313228757614 ], [ 2.419912864019516, 48.843140965640536 ], [ 2.419914527622942, 48.843149665983496 ], [ 2.419915958049653, 48.843158382283491 ], [ 2.419917160749612, 48.843167114566896 ], [ 2.419919212304415, 48.843187846576768 ], [ 2.419920116447914, 48.843201612007114 ], [ 2.41992065668479, 48.843215386464969 ], [ 2.419920834447035, 48.843229163661832 ], [ 2.419920645667121, 48.843242941779245 ], [ 2.419920093129758, 48.843256715434585 ], [ 2.419919176884601, 48.843270480131295 ], [ 2.419917895598971, 48.843284233164866 ], [ 2.419916252067694, 48.843297968253367 ], [ 2.419912696324042, 48.843320809041437 ], [ 2.419910125895123, 48.843334207772536 ], [ 2.419907201544663, 48.84334757510851 ], [ 2.419903923312434, 48.843360907452102 ], [ 2.41990029399319, 48.843374198521303 ], [ 2.419896313596783, 48.843387447416859 ], [ 2.419891982203036, 48.84340064694419 ], [ 2.419887303919189, 48.843413795324551 ], [ 2.419882278804959, 48.843426887162003 ], [ 2.420108726039546, 48.843535958998096 ], [ 2.421780032415722, 48.844340946700306 ], [ 2.4219975204831, 48.844445697796864 ], [ 2.422106283164041, 48.844498080026867 ], [ 2.422303670928288, 48.844397212901242 ], [ 2.422338494909592, 48.844376811013937 ], [ 2.422358330495518, 48.844364623402129 ], [ 2.422377840194407, 48.844352209374755 ], [ 2.422397018526539, 48.84433957160357 ], [ 2.422415859981801, 48.84432671545823 ], [ 2.422434357707793, 48.844313644503259 ], [ 2.422452508939577, 48.844300362322869 ], [ 2.42247030546224, 48.844286872475031 ], [ 2.422487743128301, 48.844273180335875 ], [ 2.422504813733054, 48.84425928856411 ], [ 2.422521517206542, 48.844245203455003 ], [ 2.422537843991611, 48.844230926761242 ], [ 2.422553792645827, 48.844216465670904 ], [ 2.42256935362184, 48.844201821037409 ], [ 2.422584526820278, 48.844187001853903 ], [ 2.422599306781067, 48.84417200899361 ], [ 2.422613683897134, 48.84415684870573 ], [ 2.422684334104056, 48.844085788072327 ], [ 2.422723137402082, 48.844044638264165 ], [ 2.422760844543903, 48.844003047865264 ], [ 2.422797448579245, 48.843961029434013 ], [ 2.422832933020263, 48.843918595482769 ], [ 2.422867292269304, 48.843875759475843 ], [ 2.422900513926293, 48.84383253394531 ], [ 2.422932584208928, 48.843788933215201 ], [ 2.422963500274951, 48.843744968064996 ], [ 2.422993248312115, 48.843700655516656 ], [ 2.423015820862612, 48.84366693423577 ], [ 2.423062108950489, 48.843597780301288 ], [ 2.42311600459443, 48.84351726549869 ], [ 2.423205242428025, 48.84338394903083 ], [ 2.423206520023862, 48.843382147485997 ], [ 2.423671719351061, 48.84272642441158 ], [ 2.423699948719618, 48.842686634393019 ], [ 2.424442684643866, 48.842029597864766 ], [ 2.42451351834171, 48.841977710307873 ], [ 2.424543977619307, 48.841955399898865 ], [ 2.424556981942593, 48.841945874413419 ], [ 2.424798077253759, 48.841900724241043 ], [ 2.42474060513451, 48.841773971352524 ], [ 2.425049798226904, 48.841725173861491 ], [ 2.427555960843917, 48.841509850671457 ], [ 2.427560333230386, 48.841509474978103 ], [ 2.427571530146799, 48.841508512284392 ], [ 2.427590290763875, 48.841506900472282 ], [ 2.430740533723877, 48.841236159618539 ], [ 2.432451116588784, 48.841089109817325 ], [ 2.433532285114443, 48.840996152387177 ], [ 2.433637697638912, 48.840987088648227 ], [ 2.433676915932669, 48.8411938888989 ], [ 2.435402762214403, 48.841045351076247 ], [ 2.43719129412047, 48.840891400287191 ], [ 2.437204991087533, 48.840958686222919 ], [ 2.437781084301251, 48.843788631523751 ], [ 2.437898445104733, 48.844365104910118 ], [ 2.437936474640606, 48.844551901237359 ], [ 2.437939907741293, 48.844568766753021 ], [ 2.437944577672203, 48.844568361500258 ], [ 2.439505662360966, 48.844432691028665 ], [ 2.440511840011014, 48.844345235114162 ], [ 2.440513050687143, 48.844351517363371 ], [ 2.440517106051769, 48.844372562311378 ], [ 2.44055613202104, 48.844575049838433 ], [ 2.440609609248805, 48.844852520092473 ], [ 2.44061650561859, 48.844888302517695 ], [ 2.440808584814223, 48.844871941000854 ], [ 2.440873695538476, 48.845203976096748 ], [ 2.440874701953011, 48.845209108909202 ], [ 2.440694821987048, 48.845208373313369 ], [ 2.440701433153988, 48.84527302630589 ], [ 2.440766917585829, 48.845913457260458 ], [ 2.440767181489672, 48.845916038735226 ], [ 2.442028407065542, 48.845879639154624 ], [ 2.442843418628651, 48.845856108887418 ], [ 2.444131203223897, 48.845818917778765 ], [ 2.446476342747734, 48.845751151721061 ], [ 2.446527551313934, 48.845749670875591 ], [ 2.446553406475968, 48.845728963297795 ], [ 2.446553316520856, 48.84572845204984 ], [ 2.446545539035713, 48.845684785816552 ], [ 2.446543532985668, 48.845673518450141 ], [ 2.446518911005927, 48.845535259596218 ], [ 2.446431462569775, 48.845044219727342 ], [ 2.446411298119052, 48.844930991488283 ], [ 2.446412030609069, 48.844930919332178 ], [ 2.44653376286512, 48.844918945592326 ], [ 2.446550192710429, 48.844917329019474 ], [ 2.447143484549123, 48.844858968417761 ], [ 2.447844730004179, 48.844789983577286 ], [ 2.447870331512383, 48.84478746483348 ], [ 2.449379522944785, 48.844638983589775 ], [ 2.450754028523554, 48.844438160378125 ], [ 2.450833298578171, 48.844426577288409 ], [ 2.451606441029418, 48.844313608225676 ], [ 2.451616669419979, 48.844312113621598 ], [ 2.45222653660979, 48.844223940815858 ], [ 2.453107400557524, 48.844096579955234 ], [ 2.453502474876353, 48.844045456662869 ], [ 2.456830642668577, 48.843614731119466 ], [ 2.458069758798029, 48.843454340127643 ], [ 2.460587510537537, 48.842972967335392 ], [ 2.460617342886939, 48.842967263247075 ], [ 2.460806264791777, 48.842927606248466 ], [ 2.460985447164559, 48.84288765414896 ], [ 2.461163546887716, 48.842845641882953 ], [ 2.4613405079226, 48.84280158449171 ], [ 2.46151627561232, 48.84275549522448 ], [ 2.461690798025457, 48.842707387342905 ], [ 2.461864021840979, 48.842657276800757 ], [ 2.462035893757132, 48.842605177753491 ], [ 2.462206361798158, 48.842551107960048 ], [ 2.462375374035546, 48.842495080683186 ], [ 2.462390843755861, 48.842489728004686 ], [ 2.462467440262786, 48.842463221115615 ], [ 2.462542878476591, 48.842437115480998 ], [ 2.462708824519619, 48.842377229220048 ], [ 2.462873161554578, 48.842315439666336 ], [ 2.463103654099915, 48.842230198489261 ], [ 2.463109774775122, 48.842227804000522 ], [ 2.463230543812917, 48.842180552516481 ], [ 2.463356103429051, 48.842129452482411 ], [ 2.463480294635029, 48.842076913508173 ], [ 2.463603075030903, 48.842022950696723 ], [ 2.463724410345363, 48.841967583684401 ], [ 2.463844260923059, 48.841910825788013 ], [ 2.463962593865622, 48.841852695750759 ], [ 2.464079372197223, 48.841793211398425 ], [ 2.464194558942704, 48.841732390556807 ], [ 2.464308119824522, 48.841670253761976 ], [ 2.464420020630613, 48.841606815254835 ], [ 2.464435590368454, 48.841596986674148 ], [ 2.464475301187437, 48.841571919592816 ], [ 2.464658481231739, 48.841456283064531 ], [ 2.464833094119883, 48.841341461407929 ], [ 2.465004641965022, 48.841224646302443 ], [ 2.465173075369126, 48.841105871715243 ], [ 2.46533833943996, 48.840985176085688 ], [ 2.465500388870354, 48.840862593399329 ], [ 2.465659171486857, 48.840738163007117 ], [ 2.465814637870563, 48.840611921574286 ], [ 2.465966742663493, 48.84048390848222 ], [ 2.46611543778456, 48.840354163100024 ], [ 2.4662606806225, 48.840222723022649 ], [ 2.466392231794639, 48.840099201657296 ], [ 2.466396788138926, 48.840094923965481 ], [ 2.466402425796446, 48.84008963032921 ], [ 2.466440725602006, 48.840051530022023 ], [ 2.466467757827747, 48.8400233919646 ], [ 2.466494043813844, 48.839994945691025 ], [ 2.466519571188817, 48.839966201938857 ], [ 2.466544335801827, 48.839937166985557 ], [ 2.466568329359541, 48.839907852486171 ], [ 2.466586416484945, 48.839884800832849 ], [ 2.466591542224756, 48.839878268291095 ], [ 2.46720807312803, 48.839122576158893 ], [ 2.467208418075535, 48.839122152300142 ], [ 2.467239540986453, 48.839084005354174 ], [ 2.467244588507827, 48.839078977953235 ], [ 2.46734834365011, 48.838975666963769 ], [ 2.468341896460562, 48.837986316682489 ], [ 2.468450514237695, 48.837878156253105 ], [ 2.469313215059031, 48.837112194137489 ], [ 2.469337150008315, 48.837088488950066 ], [ 2.469345901791427, 48.837079821101334 ], [ 2.469367576466274, 48.837057321810576 ], [ 2.469388651438539, 48.837034577028852 ], [ 2.469409122557631, 48.837011593033608 ], [ 2.469428984301478, 48.836988376995436 ], [ 2.469448229804088, 48.836964934280346 ], [ 2.469466849428807, 48.836941274738784 ], [ 2.469484843121438, 48.83691740376694 ], [ 2.469502202635225, 48.836893328523352 ], [ 2.469518922421023, 48.836869058876587 ], [ 2.469534996993484, 48.836844598400056 ], [ 2.469550424890309, 48.836819956980399 ], [ 2.469553188761531, 48.836815314164475 ], [ 2.469565196502721, 48.836795141770132 ], [ 2.469579311739899, 48.836770161762594 ], [ 2.469641321391595, 48.8366784288799 ], [ 2.469670655985074, 48.836633083840944 ], [ 2.46970108264435, 48.836586049245518 ], [ 2.469707034706672, 48.836576564029961 ], [ 2.469711794635255, 48.836568555669906 ], [ 2.469716335776018, 48.836560492378212 ], [ 2.469720667610634, 48.836552379593073 ], [ 2.469724781974112, 48.836544216378989 ], [ 2.46972868153656, 48.836536008143959 ], [ 2.469732363564111, 48.836527755775236 ], [ 2.469735823942459, 48.836519461952633 ], [ 2.469739068084415, 48.836511130297652 ], [ 2.469742089169266, 48.836502761679398 ], [ 2.469744889885325, 48.836494359707231 ], [ 2.469747467480341, 48.836485927067066 ], [ 2.469749821936325, 48.836477465557508 ], [ 2.469751951863481, 48.836468977870531 ], [ 2.469753857225425, 48.836460467603345 ], [ 2.469755539357068, 48.836451937460012 ], [ 2.469756992790922, 48.836443389215013 ], [ 2.469758220233499, 48.836434824679046 ], [ 2.469758433608196, 48.836433000828627 ], [ 2.469759223019715, 48.836426246556087 ], [ 2.469759997026139, 48.836417658425361 ], [ 2.469760045617181, 48.836416899583078 ], [ 2.46976054494109, 48.836409063896163 ], [ 2.46976086539298, 48.836400463861779 ], [ 2.469760958345429, 48.836391861919473 ], [ 2.469760823789402, 48.836383258968624 ], [ 2.46975669475985, 48.836322017801045 ], [ 2.469747876892932, 48.83619122200971 ], [ 2.469705122377603, 48.835557022916824 ], [ 2.469530206520561, 48.83494727373246 ], [ 2.469503041113299, 48.834869379409263 ], [ 2.46948450821019, 48.834821276849382 ], [ 2.469464707482171, 48.834773394399967 ], [ 2.469443641492131, 48.834725748260283 ], [ 2.469421321004281, 48.834678351967774 ], [ 2.46939775133342, 48.834631219035749 ], [ 2.469372937767103, 48.834584365675383 ], [ 2.469347671123215, 48.8345391992938 ], [ 2.469346891069061, 48.834537805424063 ], [ 2.469319617907067, 48.834491552700335 ], [ 2.469291124957956, 48.834445621023427 ], [ 2.469261421622953, 48.834400023924559 ], [ 2.469230518656314, 48.834354775840339 ], [ 2.469198424078634, 48.834309892094616 ], [ 2.469165145955979, 48.834265383514484 ], [ 2.469130697757582, 48.834221265447972 ], [ 2.469062667846346, 48.834133978352114 ], [ 2.46902645080452, 48.8340903317563 ], [ 2.46898908653137, 48.834047107250093 ], [ 2.46895058440004, 48.834004321062515 ], [ 2.4689109579158, 48.833961984944168 ], [ 2.46885301725976, 48.833903388905014 ], [ 2.468820409754997, 48.833872135252001 ], [ 2.468786981020208, 48.833841261968253 ], [ 2.46875274050044, 48.833810778088704 ], [ 2.468717700355853, 48.833780693559632 ], [ 2.468681870031118, 48.833751017415992 ], [ 2.468645260342374, 48.833721757799289 ], [ 2.468578879845954, 48.833671931548352 ], [ 2.468543371726155, 48.833646611491289 ], [ 2.468507201426788, 48.833621704884074 ], [ 2.468470377057411, 48.833597218057662 ], [ 2.468432912158068, 48.833573159165915 ], [ 2.468394813457254, 48.833549536332399 ], [ 2.468356099971479, 48.833526355037257 ], [ 2.468286531136006, 48.833486248213681 ], [ 2.46822514280427, 48.833452178248443 ], [ 2.468162861796989, 48.83341881927219 ], [ 2.468099709789962, 48.833386183071639 ], [ 2.46803570439952, 48.833354278717458 ], [ 2.467941959203438, 48.833320441518211 ], [ 2.467890209432275, 48.833300669107814 ], [ 2.467838987536109, 48.833280301848042 ], [ 2.467788312504982, 48.833259347918272 ], [ 2.467738199269478, 48.833237812781753 ], [ 2.467688664104097, 48.833215703706429 ], [ 2.466727040081976, 48.832722201290608 ], [ 2.466543130992664, 48.832601026019645 ], [ 2.466464646215246, 48.832547842089582 ], [ 2.466408967511347, 48.832508511079062 ], [ 2.466354334832055, 48.832468543463683 ], [ 2.466300768462928, 48.832427953725031 ], [ 2.466248283286586, 48.832386751823925 ], [ 2.466196896863823, 48.832344952229803 ], [ 2.466120516896985, 48.832280259335178 ], [ 2.466061280794368, 48.832227994748038 ], [ 2.466003434433233, 48.832175055516991 ], [ 2.465946995354535, 48.832121457910759 ], [ 2.465891982470222, 48.832067217304889 ], [ 2.465822344889062, 48.831996038436507 ], [ 2.465765796485997, 48.831935731909773 ], [ 2.465710845927412, 48.831874783151399 ], [ 2.465657518888881, 48.831813212064112 ], [ 2.465605826107252, 48.831751033987196 ], [ 2.46555386804442, 48.831685510872113 ], [ 2.46551402046131, 48.831632759723561 ], [ 2.465475573898311, 48.831579557944529 ], [ 2.465438539102149, 48.831525919974197 ], [ 2.465436536427093, 48.831522879274814 ], [ 2.465402928135603, 48.83147186475427 ], [ 2.465387501976765, 48.8314472836961 ], [ 2.465368765191721, 48.831417423871862 ], [ 2.465322719392736, 48.831335884244915 ], [ 2.465322108649247, 48.831334733029458 ], [ 2.465287562802525, 48.831269695021639 ], [ 2.465254160839575, 48.831203111613895 ], [ 2.465222524201666, 48.83113615295764 ], [ 2.465192662196519, 48.831068840680523 ], [ 2.465164584159564, 48.831001193712176 ], [ 2.465138299388859, 48.830933234579454 ], [ 2.465113814504337, 48.830864981300358 ], [ 2.465091137423099, 48.830796458194214 ], [ 2.465070409268199, 48.830728116473736 ], [ 2.465070277489214, 48.830727683291009 ], [ 2.465027833534208, 48.830592743768911 ], [ 2.464657138256376, 48.8294141894267 ], [ 2.464638738957054, 48.829355689808743 ], [ 2.46461907709106, 48.829236159114672 ], [ 2.464525811751384, 48.82866915762591 ], [ 2.464515748426583, 48.828607971097362 ], [ 2.464519673707865, 48.828533889159125 ], [ 2.464542900211645, 48.828095704112343 ], [ 2.464551175908405, 48.827939553009173 ], [ 2.464608199418846, 48.827634035964749 ], [ 2.464609420368473, 48.827627492255324 ], [ 2.464734203705179, 48.827604273406649 ], [ 2.464735432001609, 48.827604044169931 ], [ 2.464764434641364, 48.827598647376519 ], [ 2.464808171284021, 48.827590508695998 ], [ 2.464809448707487, 48.827590270684709 ], [ 2.464898696145562, 48.827573663051702 ], [ 2.464910562760108, 48.827571456042449 ], [ 2.464932115121506, 48.827567445071615 ], [ 2.464953571939121, 48.827563452556099 ], [ 2.465011878735794, 48.827552602645987 ], [ 2.465085903486663, 48.827538827226917 ], [ 2.465229253481917, 48.827669961664839 ], [ 2.465433296789282, 48.827569011822767 ], [ 2.466176345841021, 48.82733166080007 ], [ 2.466175351328039, 48.827329147132417 ], [ 2.46589901078133, 48.826630122723678 ], [ 2.465891134683786, 48.826610202574066 ], [ 2.465881120977611, 48.826584873085153 ], [ 2.465831816136176, 48.82646014647775 ], [ 2.465760946799824, 48.826280876791287 ], [ 2.465760372927457, 48.826279056609138 ], [ 2.465755283440004, 48.826262897449602 ], [ 2.465700578729851, 48.826089226509552 ], [ 2.46567182020387, 48.825997931075499 ], [ 2.465360844427243, 48.825010665485564 ], [ 2.465358578138629, 48.825003470310932 ], [ 2.465344933440497, 48.825002602576063 ], [ 2.465307749144749, 48.825000268850339 ], [ 2.465261616239006, 48.824997372566919 ], [ 2.465206702126641, 48.824993927055253 ], [ 2.465147436229432, 48.824990207534242 ], [ 2.465149902183169, 48.824978202120747 ], [ 2.46524831696291, 48.824499088862837 ], [ 2.465247887169225, 48.824498098536161 ], [ 2.46471812324683, 48.823277567853935 ], [ 2.464666345703252, 48.823273129727404 ], [ 2.464364712431111, 48.822746925479308 ], [ 2.463487200024914, 48.8212160177847 ], [ 2.46290717870913, 48.820204059355881 ], [ 2.462798860668585, 48.819857400327649 ], [ 2.462728813925122, 48.819633222185601 ], [ 2.462638086486805, 48.819342849897666 ], [ 2.462523504522036, 48.819267437031179 ], [ 2.462527913550888, 48.819264488922663 ], [ 2.462604098662343, 48.819213529379368 ], [ 2.462810344737933, 48.819075575131357 ], [ 2.462804779450599, 48.819028817864115 ], [ 2.462799207210924, 48.819026096512843 ], [ 2.462120993095786, 48.818694887383472 ], [ 2.461326547377775, 48.818306906632401 ], [ 2.461075270155579, 48.818184187253294 ], [ 2.45976596977077, 48.817544736133549 ], [ 2.459195696946376, 48.817334019765276 ], [ 2.459248857459161, 48.817244935309482 ], [ 2.458764517861951, 48.817062048904653 ], [ 2.458631404827662, 48.817011785554186 ], [ 2.458478663072087, 48.817012422259694 ], [ 2.457148244620069, 48.817017974229763 ], [ 2.454546044301545, 48.817137079571168 ], [ 2.453272890387197, 48.817242918522609 ], [ 2.453209456844835, 48.817248191983083 ], [ 2.451839997056373, 48.817570209269661 ], [ 2.450826423478556, 48.817808530443116 ], [ 2.450524610091628, 48.817847339571507 ], [ 2.449852916848047, 48.817933705376717 ], [ 2.449635230968862, 48.817961695808407 ], [ 2.447624028259356, 48.818027518403312 ], [ 2.442665438727444, 48.817956695888775 ], [ 2.442140117120039, 48.817978765767009 ], [ 2.441636400289774, 48.818042180440642 ], [ 2.440088671039789, 48.818338558199216 ], [ 2.440058852699126, 48.818343802220163 ], [ 2.440042616866046, 48.818346374845056 ], [ 2.440026317681014, 48.818348759201818 ], [ 2.440009956505973, 48.818350955296786 ], [ 2.439993540150464, 48.818352963161885 ], [ 2.439977074081373, 48.818354781023906 ], [ 2.439960561022521, 48.818356408895582 ], [ 2.439944007792917, 48.818357845909503 ], [ 2.439893432085938, 48.818361470920856 ], [ 2.439861440176687, 48.818363283491124 ], [ 2.439829405932983, 48.818364726211655 ], [ 2.439804593725066, 48.81836555610937 ], [ 2.439797329346047, 48.818365799981777 ], [ 2.439752635589755, 48.818366271404265 ], [ 2.439717116293145, 48.818366183219176 ], [ 2.439681604107805, 48.818365686740918 ], [ 2.439646111310567, 48.818364780228301 ], [ 2.439644670973967, 48.818364726710897 ], [ 2.439610646053982, 48.818363465518289 ], [ 2.439575223319198, 48.818361742681113 ], [ 2.439554527375967, 48.81836049447881 ], [ 2.439539849935748, 48.818359609950043 ], [ 2.439505056610829, 48.818357108485948 ], [ 2.439504539484235, 48.818357070986302 ], [ 2.437349913715853, 48.818219606476191 ], [ 2.437386078042366, 48.818597271085878 ], [ 2.437423204155776, 48.81882108236114 ], [ 2.437470197469028, 48.81910438771623 ], [ 2.437410261030724, 48.819148080615442 ], [ 2.437386425760435, 48.819164610481778 ], [ 2.437372235223096, 48.81917399433194 ], [ 2.437357801309699, 48.819183213349135 ], [ 2.437343124059073, 48.819192263935946 ], [ 2.437328210300021, 48.819201144325703 ], [ 2.437313064147269, 48.819209851839553 ], [ 2.43729768973507, 48.81921838200001 ], [ 2.437282092510853, 48.81922673483259 ], [ 2.437266276599083, 48.819234906759149 ], [ 2.437250248838528, 48.819242895113668 ], [ 2.437234010620072, 48.819250697204531 ], [ 2.437214730063013, 48.819259611889336 ], [ 2.437184098265787, 48.819273773152219 ], [ 2.437147701201911, 48.819289965935653 ], [ 2.437136354828118, 48.819295013773605 ], [ 2.437088057571757, 48.819315700452364 ], [ 2.437039203764379, 48.819335834074415 ], [ 2.437009771942855, 48.819347580726998 ], [ 2.436984282801717, 48.819357322345738 ], [ 2.436958540783896, 48.819366769572468 ], [ 2.436932552737941, 48.819375918841736 ], [ 2.436926997555828, 48.819377792159656 ], [ 2.436906325512417, 48.819384766588151 ], [ 2.436879870021889, 48.819393311064253 ], [ 2.436870192391299, 48.819396303572219 ], [ 2.43679778505814, 48.819418691520092 ], [ 2.436715080424792, 48.819443180419071 ], [ 2.436604434782423, 48.819475408032794 ], [ 2.436536090663488, 48.819494450409458 ], [ 2.436493014587365, 48.819506451915409 ], [ 2.436454648687968, 48.819516636385664 ], [ 2.436417091394601, 48.819526099759642 ], [ 2.43637928819662, 48.819535127565246 ], [ 2.43634125271359, 48.819543719866424 ], [ 2.436302997261731, 48.819551871324855 ], [ 2.436264525927526, 48.819559581959503 ], [ 2.436212825474794, 48.819568973193526 ], [ 2.43618253746465, 48.819573970302486 ], [ 2.436152077500152, 48.819578621233497 ], [ 2.436121584678742, 48.8195829095542 ], [ 2.43609094169424, 48.819586851799514 ], [ 2.436060199034312, 48.819590439213663 ], [ 2.43602936623271, 48.81959367184156 ], [ 2.435998450099375, 48.819596549715286 ], [ 2.435967465644877, 48.819599070207374 ], [ 2.435936419669647, 48.81960123424934 ], [ 2.435184807429198, 48.819648198735059 ], [ 2.435180672365446, 48.819648340190625 ], [ 2.435178883694502, 48.819648379408427 ], [ 2.435177059604821, 48.81964841935828 ], [ 2.435173445920763, 48.819648458049649 ], [ 2.43517168903105, 48.819648455146904 ], [ 2.435169832704311, 48.819648453573201 ], [ 2.435166219945633, 48.819648406828236 ], [ 2.435162607615713, 48.819648320512748 ], [ 2.435160758799847, 48.819648254219459 ], [ 2.435158998477242, 48.819648191042262 ], [ 2.435155395224614, 48.819648021127712 ], [ 2.435153564571148, 48.819647912649515 ], [ 2.435151795163452, 48.819647808058143 ], [ 2.435148200978512, 48.819647555443801 ], [ 2.435144614060933, 48.819647260593122 ], [ 2.435141037124698, 48.819646924418322 ], [ 2.435137467446101, 48.819646546906483 ], [ 2.435133910472679, 48.81964612808337 ], [ 2.435132131524345, 48.819645898433706 ], [ 2.43513036346124, 48.819645669734776 ], [ 2.43512683055577, 48.819645166484023 ], [ 2.435123310287301, 48.819644628217283 ], [ 2.435121557877309, 48.819644337535429 ], [ 2.435119805467338, 48.819644046853519 ], [ 2.435116316066561, 48.819643425090675 ], [ 2.435114580428024, 48.819643094915456 ], [ 2.435112843437244, 48.819642763834459 ], [ 2.435109388950842, 48.819642062192123 ], [ 2.435107672817129, 48.819641691637166 ], [ 2.435105955321635, 48.819641321075721 ], [ 2.435102539835357, 48.819640539573165 ], [ 2.435099145196446, 48.819639719495903 ], [ 2.435095772766711, 48.819638860850382 ], [ 2.435094082043507, 48.819638407672912 ], [ 2.43509242390807, 48.819637963643075 ], [ 2.435089101354086, 48.819637026987486 ], [ 2.435087450505595, 48.81963653892273 ], [ 2.435085800999555, 48.819636052663022 ], [ 2.435033757828665, 48.81962023142556 ], [ 2.434998152288392, 48.819608792238739 ], [ 2.434975873376131, 48.819602892301042 ], [ 2.434963825841861, 48.819599470814893 ], [ 2.434951872398623, 48.819595913067353 ], [ 2.434940014437437, 48.819592216366864 ], [ 2.434928256015056, 48.819588383430833 ], [ 2.434916599835668, 48.819584416070718 ], [ 2.434905051346865, 48.819580314312269 ], [ 2.434893611871525, 48.819576081759372 ], [ 2.434882286877027, 48.819571716639082 ], [ 2.434871079047848, 48.819567222561652 ], [ 2.434859991117801, 48.819562598640566 ], [ 2.434849027123815, 48.819557849391941 ], [ 2.434838189809138, 48.819552973029921 ], [ 2.434827484582342, 48.819547973177635 ], [ 2.434816914157425, 48.819542850747304 ], [ 2.434500639300965, 48.819373165299822 ], [ 2.434323619591115, 48.81938590133705 ], [ 2.434179758874686, 48.819280808751529 ], [ 2.434303337379313, 48.820155698880427 ], [ 2.43299973753034, 48.821057906655277 ], [ 2.432475474948423, 48.821420731259956 ], [ 2.432889997744038, 48.821690164021554 ], [ 2.432624843116764, 48.821901717446387 ], [ 2.432189862301184, 48.821618810311676 ], [ 2.430371437682967, 48.822882003277158 ], [ 2.43054357617119, 48.823071072356726 ], [ 2.430692146357671, 48.823234254771116 ], [ 2.430328485806724, 48.82336892242472 ], [ 2.430126524488878, 48.82344135241965 ], [ 2.429981982727984, 48.823490616381385 ], [ 2.429836160974664, 48.823538204832111 ], [ 2.429689104303234, 48.823584107189845 ], [ 2.42954085512324, 48.823628307463785 ], [ 2.429391459911348, 48.823670791481547 ], [ 2.429073220807692, 48.823754926820818 ], [ 2.428909159079172, 48.823795087287756 ], [ 2.428744062284993, 48.823833350308632 ], [ 2.428577979600841, 48.823869704422414 ], [ 2.428410960183184, 48.823904139967041 ], [ 2.428182100514462, 48.823948336355222 ], [ 2.427966539723961, 48.823987191602889 ], [ 2.427749983034226, 48.824023555835687 ], [ 2.427532501416726, 48.824057418595721 ], [ 2.427314154937609, 48.824088770272482 ], [ 2.427095013207427, 48.824117600402417 ], [ 2.426728455240566, 48.824160323013778 ], [ 2.42648560521813, 48.824185011888815 ], [ 2.426242138823069, 48.824206897572829 ], [ 2.425998131093208, 48.824225972327895 ], [ 2.425753658369195, 48.82424223381917 ], [ 2.425601721377839, 48.824248803413262 ], [ 2.425401070988883, 48.824257480720206 ], [ 2.425157012181308, 48.824264582890457 ], [ 2.424912801807763, 48.8242688724009 ], [ 2.424668514867427, 48.824270345114428 ], [ 2.424424226300329, 48.824269002290436 ], [ 2.424180012418131, 48.824264844296273 ], [ 2.423935944074811, 48.824257872372755 ], [ 2.423806819301848, 48.824252691371356 ], [ 2.423692097571845, 48.824248087787666 ], [ 2.423448546457184, 48.82423549449414 ], [ 2.422807816082077, 48.824205020485465 ], [ 2.422734302746198, 48.824201524137131 ], [ 2.422534620165613, 48.824192025918762 ], [ 2.422101135534051, 48.824171406619925 ], [ 2.421375790365054, 48.82413690052099 ], [ 2.420894062304461, 48.824129496194466 ], [ 2.420780791161552, 48.824126778324157 ], [ 2.420679114840564, 48.824125577995936 ], [ 2.420577424139346, 48.824125549392356 ], [ 2.420475746301191, 48.824126691746009 ], [ 2.42037411534932, 48.824129007020652 ], [ 2.420272561270674, 48.824132492663651 ], [ 2.420171112670511, 48.824137147914648 ], [ 2.420069804984139, 48.824142970247529 ], [ 2.420015402797743, 48.824146730196347 ], [ 2.419968625886663, 48.824149964999201 ], [ 2.419859202098761, 48.824161124228958 ], [ 2.41978505671244, 48.824169770808098 ], [ 2.419711151058753, 48.824179271108683 ], [ 2.419637508338265, 48.824189620746814 ], [ 2.419564151721776, 48.824200818036715 ], [ 2.419491100323798, 48.824212858574818 ], [ 2.419181923257955, 48.824269426118853 ], [ 2.419023734950829, 48.824301275197683 ], [ 2.418838258583842, 48.824342775714932 ], [ 2.418745266732805, 48.824365377337351 ], [ 2.418652885375382, 48.824389045811429 ], [ 2.418561144520936, 48.824413776787566 ], [ 2.418261295573364, 48.824492798736529 ], [ 2.418102080637054, 48.824531701665272 ], [ 2.41788490689104, 48.82458174967492 ], [ 2.417667153959543, 48.824630689142523 ], [ 2.417552166838, 48.824655418562955 ], [ 2.417443934965088, 48.824677275812263 ], [ 2.417341792347738, 48.824696622808609 ], [ 2.417335143533353, 48.824697882809602 ], [ 2.417225821232767, 48.82471723249823 ], [ 2.417073878234993, 48.824742016992325 ], [ 2.416932678004807, 48.824763259785932 ], [ 2.416790937441189, 48.824782871916199 ], [ 2.416696558812298, 48.824794745578103 ], [ 2.416610194883838, 48.82480453215171 ], [ 2.416523586005058, 48.824813321864127 ], [ 2.416436756717359, 48.824821113035803 ], [ 2.416349734306105, 48.824827902201996 ], [ 2.416187535379295, 48.824838088188763 ], [ 2.416033446690083, 48.824845927528756 ], [ 2.41587917627537, 48.824851989524888 ], [ 2.41572476773518, 48.824856274389369 ], [ 2.415570268816592, 48.82485877695877 ], [ 2.415051287363023, 48.824858247811221 ], [ 2.414790113157252, 48.824853486742079 ], [ 2.414690015477003, 48.824849864349368 ], [ 2.414599277151417, 48.824845478255206 ], [ 2.414508667730141, 48.824840045855161 ], [ 2.41441821714257, 48.824833570893517 ], [ 2.414327951262431, 48.824826054396631 ], [ 2.414165013564105, 48.824813095899977 ], [ 2.414065510908161, 48.824806714828973 ], [ 2.414060599379376, 48.824806456927355 ], [ 2.413965856431922, 48.824801482327501 ], [ 2.413866076007297, 48.824797398522051 ], [ 2.413555314249358, 48.824791272879054 ], [ 2.413461096994574, 48.824790791017939 ], [ 2.413352307560075, 48.824790234899176 ], [ 2.413195758821911, 48.824791520086656 ], [ 2.413076578241587, 48.824794087508465 ], [ 2.412957482976271, 48.824798028570534 ], [ 2.412838467558384, 48.824803344145508 ], [ 2.412515263436035, 48.82482330303138 ], [ 2.412336227733906, 48.824837280971927 ], [ 2.412283279996683, 48.824842034762497 ], [ 2.41215758822704, 48.824853319253421 ], [ 2.411925419906953, 48.824877670453589 ], [ 2.41186737872947, 48.82488464114558 ], [ 2.411777711795214, 48.824895410788315 ], [ 2.411763099273566, 48.824897340012434 ], [ 2.411630496571382, 48.824914848680905 ], [ 2.411483815122912, 48.824935980736939 ], [ 2.411483392125211, 48.824936047007483 ], [ 2.411221334956281, 48.82497677299839 ], [ 2.411039867829272, 48.825007680286788 ], [ 2.410859243207673, 48.825040673495316 ], [ 2.410750311827288, 48.825062272124832 ], [ 2.410677869036631, 48.825077778260678 ], [ 2.410605849942665, 48.825094116560578 ], [ 2.410534270937446, 48.825111282609235 ], [ 2.410463156605633, 48.825129270233049 ], [ 2.410392528787567, 48.825148075043629 ], [ 2.410322410696005, 48.825167691760029 ], [ 2.41025281876409, 48.825188112369865 ], [ 2.41015326773329, 48.825219693867844 ], [ 2.410070733435799, 48.825247174453949 ], [ 2.409988937490947, 48.825275602066135 ], [ 2.40990790587586, 48.825304967840346 ], [ 2.40982766185383, 48.825335261999719 ], [ 2.409748231382117, 48.82536647747898 ], [ 2.409669636372635, 48.825398603595431 ], [ 2.40959190282367, 48.825431629686491 ], [ 2.409397205060326, 48.825518142931728 ], [ 2.409255276929078, 48.82558404213971 ], [ 2.409115111658926, 48.825651566956573 ], [ 2.408976751711525, 48.825720696013214 ], [ 2.408771892355555, 48.825827338991814 ], [ 2.408634866204022, 48.825901885755123 ], [ 2.408499831007558, 48.825977999916198 ], [ 2.408366827889491, 48.82605565830125 ], [ 2.40823589661191, 48.826134837729903 ], [ 2.407784045712434, 48.82642196538108 ], [ 2.407543134708046, 48.826582803614549 ], [ 2.407340703019347, 48.826725525364267 ], [ 2.407213849700679, 48.826819060713007 ], [ 2.407089487186266, 48.826914042766099 ], [ 2.406997226757191, 48.826987044075103 ], [ 2.406967652572491, 48.827010443834368 ], [ 2.40663382087435, 48.827272306970258 ], [ 2.406625074679899, 48.827278870346305 ], [ 2.406404343932441, 48.827444562193612 ], [ 2.405927338654997, 48.8277952385086 ], [ 2.405452755710011, 48.828147347687988 ], [ 2.405305078131211, 48.828254541347654 ], [ 2.405166384738194, 48.828351603140973 ], [ 2.405025145605499, 48.828447051225709 ], [ 2.404881404638055, 48.828540857931308 ], [ 2.404735205762522, 48.828632993788645 ], [ 2.40458659288613, 48.828723431127287 ], [ 2.404435612661935, 48.828812140491742 ], [ 2.404304231579636, 48.828883535503905 ], [ 2.404225682794182, 48.828924205816321 ], [ 2.404146070893526, 48.828963964215859 ], [ 2.404065421903542, 48.829002798239024 ], [ 2.40405471951054, 48.829007765185992 ], [ 2.403983755009186, 48.829040698086359 ], [ 2.403901101685435, 48.829077651321548 ], [ 2.403622037767324, 48.829198509454095 ], [ 2.403340835645201, 48.829317189682705 ], [ 2.403105720518976, 48.829414173562846 ], [ 2.402919035688237, 48.829487819129469 ], [ 2.402909973294341, 48.829491231058064 ], [ 2.402674487262746, 48.829579905664922 ], [ 2.402487209894153, 48.829647144090366 ], [ 2.402431364519245, 48.829631322187552 ], [ 2.402027199742744, 48.829516815381467 ], [ 2.401662328698503, 48.829413440102897 ], [ 2.401494324355356, 48.829365842189254 ], [ 2.401303914034882, 48.829311893853102 ], [ 2.400920517490214, 48.829203266557535 ], [ 2.399059031330721, 48.828675832411349 ], [ 2.395723159554499, 48.827730541968762 ], [ 2.394658609492223, 48.827561970178238 ], [ 2.394618158068745, 48.827555564257032 ], [ 2.394352160027871, 48.827513442694553 ], [ 2.393571995138783, 48.827173121729977 ], [ 2.393472132802878, 48.827129560607062 ], [ 2.393320947753657, 48.827063610922359 ], [ 2.392504106848682, 48.826707277677514 ], [ 2.391800207706176, 48.826400206923346 ], [ 2.391708071834238, 48.826360013051762 ], [ 2.391514743505959, 48.826275673035745 ], [ 2.391502122238009, 48.826270165816915 ], [ 2.39138198233534, 48.826217756021833 ], [ 2.39129180539997, 48.826178417199046 ], [ 2.391141037839472, 48.826112645774707 ], [ 2.390258194242504, 48.825727500033253 ], [ 2.390227986747498, 48.825714321296928 ], [ 2.390160855411358, 48.825685034470382 ], [ 2.390157490452913, 48.82568356572326 ], [ 2.390071592371044, 48.825646092385682 ], [ 2.389772682034096, 48.82551568737793 ], [ 2.389449050952382, 48.825342705887579 ], [ 2.389137145773225, 48.825175990855072 ], [ 2.389019297767094, 48.825112999299044 ], [ 2.388820406130953, 48.825006687951806 ], [ 2.387909313457416, 48.824682648859024 ], [ 2.386539603786046, 48.824195475174456 ], [ 2.385977291547229, 48.823995466168689 ], [ 2.385926775441713, 48.823977498093498 ], [ 2.38583751814977, 48.823945750480924 ], [ 2.385825817937541, 48.82394158834331 ], [ 2.385730197962604, 48.823907576622467 ], [ 2.385694158743225, 48.823894757979978 ], [ 2.385354742656064, 48.823774026651982 ], [ 2.38520226796218, 48.823719792117934 ], [ 2.385110637912914, 48.823687198031926 ], [ 2.385104863822762, 48.823685143849318 ], [ 2.385012912420634, 48.823652436511921 ], [ 2.383337611056133, 48.823056499164394 ], [ 2.383085273274425, 48.822966735069301 ], [ 2.38292917782442, 48.822911207177391 ], [ 2.382689751023289, 48.822826033610944 ], [ 2.381523578373206, 48.822411169540658 ], [ 2.380767481868588, 48.821700623745393 ], [ 2.38076247245009, 48.8216959156493 ], [ 2.380344266995388, 48.821558401128755 ], [ 2.3792962836695, 48.821213791891807 ], [ 2.379154824289122, 48.821167273821104 ], [ 2.379085243792338, 48.821144393930687 ], [ 2.37906509020154, 48.821137766096257 ], [ 2.379030631698868, 48.821126434878273 ], [ 2.378774223688053, 48.821042117516292 ], [ 2.378695327209729, 48.821016172484114 ], [ 2.377967732894902, 48.820776902162237 ], [ 2.377769625571445, 48.820711753912732 ], [ 2.376528004268092, 48.82030342553567 ], [ 2.376077484892134, 48.820156013129399 ], [ 2.375839301260488, 48.820078077393276 ], [ 2.375808047900912, 48.820067851106266 ], [ 2.375786780919582, 48.82006089222098 ], [ 2.374404385004064, 48.819608541800051 ], [ 2.374103228882908, 48.819509993860969 ], [ 2.374017137198487, 48.819481821629033 ], [ 2.373733187236363, 48.819388902990553 ], [ 2.37361802491065, 48.819351216566062 ], [ 2.37359189637511, 48.819342666895757 ], [ 2.373407554842645, 48.819282342009494 ], [ 2.373182572269759, 48.819208717824331 ], [ 2.372940372250644, 48.819129457343756 ], [ 2.372803124984538, 48.819084358533566 ], [ 2.370930492985564, 48.81846899036379 ], [ 2.370846355498132, 48.818441340531486 ], [ 2.370695405284566, 48.818391734107571 ], [ 2.370465656290366, 48.818316231399294 ], [ 2.370007921074347, 48.818165804127652 ], [ 2.369011076754757, 48.817838198945239 ], [ 2.368958810026089, 48.817821021048246 ], [ 2.368685230252785, 48.817731108380244 ], [ 2.367706331140409, 48.817421198538817 ], [ 2.367330067087702, 48.817302074577064 ], [ 2.367321559272587, 48.817299381780437 ], [ 2.366960839172221, 48.817185175756627 ], [ 2.365328008363024, 48.816668194483277 ], [ 2.364865549540015, 48.816521766598889 ], [ 2.364249182400225, 48.816326602235925 ], [ 2.364213441727064, 48.816315285930393 ], [ 2.364185766294566, 48.816306522679426 ], [ 2.363400722604815, 48.816057940025438 ], [ 2.361076672761135, 48.81603143034549 ], [ 2.360809394221121, 48.816028378389106 ], [ 2.360602547021383, 48.816026015968603 ], [ 2.360478741818628, 48.816024601944413 ], [ 2.360241376694387, 48.816021891288543 ], [ 2.359883519403233, 48.816017802141431 ], [ 2.358788035736818, 48.81600527855376 ], [ 2.358106476616731, 48.815997481615589 ], [ 2.357804169283242, 48.815994021724734 ], [ 2.356814209750083, 48.815982687145656 ], [ 2.356603132177672, 48.815980269864532 ], [ 2.35642326562862, 48.815978208184966 ], [ 2.356416139974789, 48.815978126659218 ], [ 2.356230228950517, 48.815975996177784 ], [ 2.356191549172487, 48.815975553169011 ], [ 2.355976311747358, 48.815973086299564 ], [ 2.355917397470913, 48.815972410993268 ], [ 2.35591488812557, 48.815974238513597 ], [ 2.353771423470949, 48.817536249401833 ], [ 2.353582350701524, 48.817674028159061 ], [ 2.353568496098918, 48.817684123472233 ], [ 2.353480791815501, 48.817748032461004 ], [ 2.353421323027145, 48.8177913669087 ], [ 2.352895133149599, 48.81817479058035 ], [ 2.352853021527362, 48.818205475325691 ], [ 2.352831525205173, 48.818221139535517 ], [ 2.352401300685059, 48.818534628133143 ], [ 2.352399527279396, 48.818533764115628 ], [ 2.352398472713072, 48.818533250253296 ], [ 2.351718667155824, 48.81820213834547 ], [ 2.351698876987584, 48.818192498494696 ], [ 2.351528523931596, 48.818109524091732 ], [ 2.351357674612606, 48.818026306609788 ], [ 2.350613678864621, 48.817663914687031 ], [ 2.350526262273688, 48.817621334388889 ], [ 2.35048725272452, 48.817602332586269 ], [ 2.349862110132665, 48.81729782349116 ], [ 2.349128640967002, 48.816940539148803 ], [ 2.34875037296288, 48.816756274217788 ], [ 2.348735308125454, 48.816748936835019 ], [ 2.348655592833953, 48.816710104325161 ], [ 2.348583405307413, 48.816674939087733 ], [ 2.346920150516103, 48.815864687254688 ], [ 2.346695756220884, 48.815886490100347 ], [ 2.346636415480103, 48.815892256475891 ], [ 2.34535110046578, 48.816017132326195 ], [ 2.344885019414967, 48.816062411454375 ], [ 2.344692756558111, 48.816081088553226 ], [ 2.344433707407901, 48.816106254284364 ], [ 2.344497356315571, 48.815576667817943 ], [ 2.344495938980134, 48.815577180791259 ], [ 2.344465671301745, 48.815588149230003 ], [ 2.344415987632226, 48.81560615321694 ], [ 2.344350838977904, 48.81562976188745 ], [ 2.344292324169985, 48.815650965973241 ], [ 2.344291842611131, 48.815651139611717 ], [ 2.343974525720291, 48.815766126523926 ], [ 2.343084791473955, 48.816088533793888 ], [ 2.34171180087934, 48.81634031184187 ], [ 2.34168119532263, 48.816341931309665 ], [ 2.341209551047037, 48.81636687448524 ], [ 2.337998519838255, 48.816536639982594 ], [ 2.337093033416465, 48.816584496155592 ], [ 2.333731744527478, 48.816762080323912 ], [ 2.333728551461577, 48.816762248703562 ], [ 2.331753489906688, 48.81703938319567 ], [ 2.331771059622775, 48.817072765826687 ], [ 2.331794188150542, 48.817116708618471 ], [ 2.331800956809172, 48.817129568075813 ], [ 2.331804474716814, 48.817136254875457 ], [ 2.331805249853434, 48.817137726103951 ], [ 2.331905524920838, 48.817328245499802 ], [ 2.332368144463365, 48.818207184188907 ], [ 2.332371646623536, 48.818213835800726 ], [ 2.332373765985016, 48.818217862484246 ], [ 2.33179393091182, 48.818342830699649 ], [ 2.331779070666774, 48.818346033102763 ], [ 2.331594136148449, 48.818385889933289 ], [ 2.330203174721378, 48.818685656862222 ], [ 2.3293992825448, 48.818866290056 ], [ 2.329266871212451, 48.818896041871966 ], [ 2.329193415980049, 48.818912547209884 ], [ 2.329022603515391, 48.818950926954578 ], [ 2.328954352214335, 48.818966262469125 ], [ 2.327061876089621, 48.819391463559292 ], [ 2.327043337782781, 48.819395628600006 ], [ 2.326905651305432, 48.819426561381874 ], [ 2.326801545936271, 48.81944995107358 ], [ 2.326712479331819, 48.819469961830016 ], [ 2.325850400044469, 48.819663636240655 ], [ 2.325633876953769, 48.819712279805636 ], [ 2.325609544098118, 48.819717746628946 ], [ 2.325374170569994, 48.819770622930925 ], [ 2.323901916192347, 48.820098775793824 ], [ 2.321829745611922, 48.820560604376297 ], [ 2.320993332739796, 48.820747003617747 ], [ 2.320386428455013, 48.820882251437588 ], [ 2.320200855805184, 48.820923399230217 ], [ 2.320056056579478, 48.820955506852954 ], [ 2.319958964548509, 48.820977034570717 ], [ 2.319930782164549, 48.820983283293984 ], [ 2.319913704979964, 48.820987070603906 ], [ 2.319636865095136, 48.821048453465956 ], [ 2.319572320791969, 48.821062765033382 ], [ 2.318072790977842, 48.821395240034498 ], [ 2.317410487026005, 48.821542078129731 ], [ 2.315590782095042, 48.821945495357625 ], [ 2.314686154578051, 48.822146687506226 ], [ 2.314554601796757, 48.822175944091661 ], [ 2.314514775151837, 48.822184802253567 ], [ 2.31448629888544, 48.822191133451099 ], [ 2.314168279449254, 48.822261861294756 ], [ 2.314091967248923, 48.822278831138249 ], [ 2.314072352326003, 48.822283193952167 ], [ 2.310983027214954, 48.822970182032357 ], [ 2.310258323412817, 48.823129792431203 ], [ 2.309508680654595, 48.823294889069246 ], [ 2.309506514090807, 48.823295366722228 ], [ 2.309145279077002, 48.823374920826076 ], [ 2.309008539593654, 48.823405034435432 ], [ 2.308417805953833, 48.823535126451794 ], [ 2.308376300841164, 48.823544266061958 ], [ 2.308201053804044, 48.823582858447644 ], [ 2.307023867745788, 48.82384208596843 ], [ 2.306791416759767, 48.823893271598308 ], [ 2.30624078588503, 48.824014520462327 ], [ 2.304458424887581, 48.82441916682702 ], [ 2.303995758116345, 48.824524200149355 ], [ 2.302444634564011, 48.824876316159958 ], [ 2.302282615299004, 48.824913093731766 ], [ 2.302241780496929, 48.824922362837306 ], [ 2.301990776201412, 48.824979338922539 ], [ 2.301962789633241, 48.824985692482635 ], [ 2.301756646102824, 48.825032485409544 ], [ 2.301659332339861, 48.825054574386982 ], [ 2.301314908825488, 48.82512953793416 ], [ 2.301287314955468, 48.825135543771239 ], [ 2.301223362300774, 48.825149462163978 ], [ 2.301201493746218, 48.825154221616152 ], [ 2.301076011751639, 48.825181532810092 ], [ 2.300862518321697, 48.82522799703527 ], [ 2.30041246076668, 48.825325948231907 ], [ 2.300336373830806, 48.825342507697997 ], [ 2.300223852624675, 48.825366996020684 ], [ 2.298411817165502, 48.825761335283929 ], [ 2.29737199101482, 48.825987607999913 ], [ 2.297195110581547, 48.826026096425572 ], [ 2.297071994670944, 48.826052886691933 ], [ 2.29701805891705, 48.826064939738224 ], [ 2.296912996359535, 48.826088418315535 ], [ 2.295218161334803, 48.826467148200557 ], [ 2.293918639630466, 48.826757519459946 ], [ 2.293816735886779, 48.82678028906836 ], [ 2.293716921137401, 48.826802590657977 ], [ 2.293685474448462, 48.826809617068683 ], [ 2.293409049024719, 48.826871378800895 ], [ 2.292814683654359, 48.827004179307806 ], [ 2.292759819565918, 48.827016438098667 ], [ 2.2926797703108, 48.827034321933397 ], [ 2.29256039039264, 48.827060993848932 ], [ 2.292406676292087, 48.827095337479783 ], [ 2.292223161328421, 48.827136338040532 ], [ 2.29200448986593, 48.827228288768254 ], [ 2.291988386932433, 48.82723506020713 ], [ 2.291722561936826, 48.827346837798977 ], [ 2.291295506229889, 48.827526409892677 ], [ 2.290933315304569, 48.827678703709061 ], [ 2.290817807498558, 48.82772727247248 ], [ 2.289378115683627, 48.82833261375503 ], [ 2.289216165549354, 48.828400705743782 ], [ 2.288767042741745, 48.828589537908243 ], [ 2.288327760671687, 48.828774230427101 ], [ 2.288312454192127, 48.828780664342482 ], [ 2.288279069493077, 48.828794701954408 ], [ 2.287569659661304, 48.829092959280771 ], [ 2.286699715262024, 48.829458709479027 ], [ 2.285957772637955, 48.829770640561257 ], [ 2.285029182328675, 48.830161030209574 ], [ 2.28493566267039, 48.830200345970994 ], [ 2.284762468359415, 48.830273156547776 ], [ 2.284578225946606, 48.830350612630504 ], [ 2.283316021740521, 48.830881225062136 ], [ 2.282930952720035, 48.83102278247717 ], [ 2.28285080676435, 48.831052244941347 ], [ 2.281834079603088, 48.831425999309346 ], [ 2.280647144226758, 48.831862303829233 ], [ 2.280491950222503, 48.831919350515896 ], [ 2.280439176815068, 48.831938749194506 ], [ 2.28037355163488, 48.831962871403711 ], [ 2.280235631476907, 48.832013567751751 ], [ 2.279192976720799, 48.832396813650611 ], [ 2.279132205819562, 48.832419150385604 ], [ 2.279028002946965, 48.832457450964071 ], [ 2.27667448390759, 48.830541677645996 ], [ 2.275899378685754, 48.829910694196734 ], [ 2.275507080892162, 48.829591332661437 ], [ 2.275475855413488, 48.829572534416165 ], [ 2.275236763943414, 48.829428592370142 ], [ 2.274815428572506, 48.829174932062365 ], [ 2.273461523651667, 48.828359797878015 ], [ 2.273261915519614, 48.828239617550004 ], [ 2.273141561828549, 48.828167155026712 ], [ 2.273136944592186, 48.828164374855412 ], [ 2.27309061687056, 48.82813648224959 ], [ 2.27293099839933, 48.828040377119265 ], [ 2.272744875520203, 48.827928313842548 ], [ 2.272742861345477, 48.827928277310761 ], [ 2.272057947190586, 48.827915920515842 ], [ 2.267831169293233, 48.827839568162709 ], [ 2.267814027894556, 48.827849915844183 ], [ 2.267636894122208, 48.827956851595808 ], [ 2.267631459993518, 48.827960172115915 ], [ 2.267534722565149, 48.829058837913742 ], [ 2.267323612916809, 48.831456323927426 ], [ 2.267321077634576, 48.83148511553383 ], [ 2.267320469671936, 48.831492024443065 ], [ 2.267335224021149, 48.831521726010173 ], [ 2.267340735201153, 48.831532821243663 ], [ 2.267340980314404, 48.831533312907212 ], [ 2.267384521574054, 48.831563571245901 ], [ 2.267606885831736, 48.831718096597513 ], [ 2.268603472235089, 48.832281103429189 ], [ 2.268603962950322, 48.832281374444996 ], [ 2.269117412690544, 48.832564220944199 ], [ 2.269201407394899, 48.832610490992074 ], [ 2.269442820658477, 48.832743478374994 ], [ 2.269574801152492, 48.832816180782849 ], [ 2.269653459412832, 48.832859510217233 ], [ 2.269971011087537, 48.832972182155913 ], [ 2.270041629237647, 48.83299723724776 ], [ 2.270041276947994, 48.832997489621768 ], [ 2.270040434762549, 48.832998092461587 ], [ 2.270032837206727, 48.833003530501855 ], [ 2.2699534694903, 48.833060333782861 ], [ 2.269848889615929, 48.833135181119516 ], [ 2.269446939060852, 48.833422852574408 ], [ 2.268533909245365, 48.834076281559895 ], [ 2.267854658673914, 48.834562385309155 ], [ 2.267852891639607, 48.834562679381683 ], [ 2.267834582183122, 48.834565728615495 ], [ 2.267799795851004, 48.834571521712384 ], [ 2.267422624276651, 48.834634337015785 ], [ 2.267363822997306, 48.834644129925728 ], [ 2.267299969111108, 48.834654763352141 ], [ 2.267011865908545, 48.834604483020755 ], [ 2.266100788726605, 48.834445477726284 ], [ 2.266079829833928, 48.834441819965399 ], [ 2.265155574533851, 48.8342805050873 ], [ 2.265141117326699, 48.834277980748951 ], [ 2.265134636182156, 48.834276849084389 ], [ 2.264788076181329, 48.834216379377438 ], [ 2.264684263808993, 48.834198265396616 ], [ 2.264537926653224, 48.834172730799565 ], [ 2.264529140644849, 48.834171197297451 ], [ 2.264360295704749, 48.834141734998049 ], [ 2.262963623864672, 48.833898014883836 ], [ 2.262958538495929, 48.833897127338588 ], [ 2.26295628393099, 48.833896733008345 ], [ 2.262781396733506, 48.833917116151298 ], [ 2.261454490359288, 48.834071750920629 ], [ 2.261393968568379, 48.834078804263875 ], [ 2.261348131332408, 48.834084145909991 ], [ 2.261164958342239, 48.834105490921537 ], [ 2.25698159152815, 48.834592907471063 ], [ 2.25697979156743, 48.834593117536599 ], [ 2.256736583231159, 48.834621448726843 ], [ 2.256267936085241, 48.83467604182524 ], [ 2.256260804485786, 48.834676871676145 ], [ 2.255153178841653, 48.834805889682563 ], [ 2.254197274086244, 48.835924453478384 ], [ 2.253636400978892, 48.836580737430438 ], [ 2.253636104437231, 48.8365810854378 ], [ 2.253630826567405, 48.836587259106992 ], [ 2.253576139455984, 48.836651250305678 ], [ 2.253008035483, 48.83731597327791 ], [ 2.252307446643641, 48.838135683912796 ], [ 2.251649583789443, 48.838905376798479 ], [ 2.251617586907048, 48.839205633675725 ], [ 2.251265539403704, 48.842508944130742 ], [ 2.25122419588258, 48.842896855457553 ], [ 2.251724534738297, 48.843915709826199 ], [ 2.252189160864769, 48.84486180177354 ], [ 2.252193294249686, 48.844870218739594 ], [ 2.252448407404248, 48.845389674260581 ], [ 2.25253621560478, 48.845568464591928 ], [ 2.252540390153786, 48.845576964539184 ], [ 2.252541291793071, 48.845578800390676 ], [ 2.250676615197924, 48.845626654153719 ], [ 2.250661550805601, 48.845627046357222 ], [ 2.25053810454023, 48.845658612636264 ], [ 2.250423671182932, 48.845687876210945 ], [ 2.25035904799309, 48.845704477486066 ], [ 2.248119121185426, 48.846279907787036 ], [ 2.247787056421513, 48.846365209474392 ], [ 2.247644118138152, 48.846401927713792 ], [ 2.246489996249475, 48.84669838956939 ], [ 2.24623495089733, 48.846763901119587 ], [ 2.244379789437811, 48.847240403366918 ], [ 2.242982056942999, 48.8475993888107 ], [ 2.242669888095343, 48.847679561564135 ], [ 2.242465634095833, 48.84773201745859 ], [ 2.242463421390752, 48.84773396227483 ], [ 2.24242618918697, 48.847766682116017 ], [ 2.242280035832254, 48.847895120060357 ], [ 2.242045643154549, 48.848101100951787 ], [ 2.2418982193644, 48.84823065276715 ], [ 2.241753185665644, 48.848358103322774 ], [ 2.241740883702532, 48.848368913117689 ], [ 2.241503795448236, 48.848573201178183 ], [ 2.241479360333598, 48.84859425607975 ], [ 2.241445964543236, 48.848623031905596 ], [ 2.241386663792071, 48.848674127689264 ], [ 2.240342014422935, 48.849574217524953 ], [ 2.24029724145549, 48.849612216644474 ], [ 2.240259561260797, 48.849642949821984 ], [ 2.240221072495259, 48.849673243457573 ], [ 2.240193431885447, 48.849694245349042 ], [ 2.240181790239339, 48.849703091350634 ], [ 2.240141724227735, 48.849732480071829 ], [ 2.240129770603485, 48.849740851019185 ], [ 2.240100709936905, 48.849761197223913 ], [ 2.240075254625462, 48.849778214376101 ], [ 2.240049352524312, 48.849794936390197 ], [ 2.24002301190138, 48.849811357022887 ], [ 2.239996240984874, 48.849827472728684 ], [ 2.239969050767928, 48.849843277281543 ], [ 2.239941442691912, 48.849858765294201 ], [ 2.239913430422801, 48.849873934155021 ], [ 2.239845400705508, 48.849909348062418 ], [ 2.239803311979497, 48.849930236480297 ], [ 2.2397606756935, 48.849950636644557 ], [ 2.23971750827845, 48.849970543262927 ], [ 2.239673819378643, 48.84998994920111 ], [ 2.239629625425156, 48.850008849166834 ], [ 2.239595981655296, 48.850022546771584 ], [ 2.239573463920141, 48.850031271425699 ], [ 2.239550718319555, 48.850039734709924 ], [ 2.239527753068876, 48.850047933978253 ], [ 2.23950457499495, 48.850055868374618 ], [ 2.239481188225324, 48.850063535227015 ], [ 2.239457605076433, 48.850070931016162 ], [ 2.239433826937689, 48.850078053952018 ], [ 2.239409867462081, 48.850084902322529 ], [ 2.239385728051971, 48.850091473438397 ], [ 2.239361418272351, 48.850097765561628 ], [ 2.239336947701656, 48.850103776054894 ], [ 2.239312320441283, 48.850109504044767 ], [ 2.239070265836923, 48.850163016957502 ], [ 2.239004006131596, 48.85017766534353 ], [ 2.23811300058224, 48.850374642217218 ], [ 2.238107340344991, 48.850375894068229 ], [ 2.238048441128331, 48.85038891507287 ], [ 2.237927902748044, 48.850415561006642 ], [ 2.237814748506829, 48.850440576537892 ], [ 2.237801526228367, 48.850443499792632 ], [ 2.237793608725202, 48.850445249888665 ], [ 2.237663547440192, 48.850474002366589 ], [ 2.237525639612086, 48.850504487246511 ], [ 2.237463065028791, 48.850518320953114 ], [ 2.227716780210871, 48.852662017306777 ], [ 2.226600646268913, 48.852907445689596 ], [ 2.226588274955746, 48.852910154661046 ], [ 2.226580530581471, 48.852911850273706 ], [ 2.226540825633702, 48.852920542319531 ], [ 2.226528812562657, 48.852923171758242 ], [ 2.226138150381096, 48.853008691078557 ], [ 2.225560845328687, 48.853135064633939 ], [ 2.224170556340536, 48.853439388501748 ], [ 2.224151160841721, 48.853443633662927 ], [ 2.22407844724687, 48.853959117121583 ], [ 2.224141516097633, 48.855052611040954 ], [ 2.224330282158946, 48.855946049189185 ], [ 2.224648016454482, 48.856860545105903 ], [ 2.224981031937296, 48.857818984082741 ], [ 2.225414169952079, 48.858882572560113 ], [ 2.22564241916246, 48.859443027584433 ], [ 2.225751044124119, 48.859709745446885 ], [ 2.226413636401583, 48.860961372366305 ], [ 2.22662832945567, 48.86131694970075 ], [ 2.226831210289747, 48.861652959274593 ], [ 2.227287427309459, 48.862565356191418 ], [ 2.228249480861213, 48.865158350513511 ], [ 2.228651087656746, 48.865761876159624 ], [ 2.228655650914007, 48.865767171301087 ], [ 2.229585216355394, 48.866845947164308 ], [ 2.22987703023719, 48.867184590577537 ], [ 2.229935985847487, 48.867253007023159 ], [ 2.23061596553032, 48.867991318239312 ], [ 2.231927773229244, 48.86935122037908 ], [ 2.232124116238643, 48.869554754552652 ], [ 2.232527150334645, 48.869668221622597 ], [ 2.23556745594926, 48.870524111921405 ], [ 2.235809465756121, 48.870592237187516 ], [ 2.235920037587994, 48.870623361853958 ], [ 2.237388106301098, 48.871017182679751 ], [ 2.238293306404494, 48.871236037843524 ], [ 2.238414097328744, 48.8712652412324 ], [ 2.239400491183021, 48.87150371479747 ], [ 2.23948570691306, 48.871524239829526 ], [ 2.239558474114228, 48.871542799776485 ], [ 2.239630737012329, 48.871562194669629 ], [ 2.239702477980379, 48.871582418102356 ], [ 2.239773672548943, 48.871603465423476 ], [ 2.239844300390683, 48.871625328410509 ], [ 2.239914337062064, 48.87164800061381 ], [ 2.239983764935717, 48.871671475626968 ], [ 2.240047364550486, 48.871695232865086 ], [ 2.240084521441055, 48.871709881754718 ], [ 2.240121286330262, 48.871724955335345 ], [ 2.240157644262772, 48.871740450814229 ], [ 2.240193588514616, 48.871756361853649 ], [ 2.24022910686987, 48.871772684779046 ], [ 2.240264185775552, 48.871789414108584 ], [ 2.24029881849454, 48.871806544403817 ], [ 2.240394521450128, 48.871856643915606 ], [ 2.240445518357739, 48.871884724175686 ], [ 2.240495762438047, 48.871913386911743 ], [ 2.240545240164228, 48.871942624844067 ], [ 2.240593938061584, 48.87197242709582 ], [ 2.24064183852653, 48.872002785462165 ], [ 2.240818807648663, 48.872116296177239 ], [ 2.240911876047942, 48.872179042289673 ], [ 2.241003269985464, 48.872242850631395 ], [ 2.241092963860655, 48.87230770035876 ], [ 2.241180927943391, 48.872373573299882 ], [ 2.241267136632149, 48.872440448611094 ], [ 2.242058415944143, 48.873077459529192 ], [ 2.243179282254763, 48.87397976214411 ], [ 2.243210583898001, 48.874004959223392 ], [ 2.243351536661658, 48.874118423466399 ], [ 2.245624955368594, 48.876355313611356 ], [ 2.249570087795399, 48.875379553488735 ], [ 2.253944106712725, 48.874297540566573 ], [ 2.254817095470826, 48.874081561863179 ], [ 2.254824080371423, 48.874079833632734 ], [ 2.255056571577049, 48.874152502675443 ], [ 2.255057580072667, 48.87415281832682 ], [ 2.255059587572236, 48.874153445973072 ], [ 2.255208755021335, 48.874200069985669 ], [ 2.255411771227289, 48.874263525488601 ], [ 2.256672165694486, 48.876717098082317 ], [ 2.256697340903279, 48.876766104092134 ], [ 2.258408260549036, 48.880096282292364 ], [ 2.258410281236941, 48.880100215938263 ], [ 2.258412265308774, 48.880100975581293 ], [ 2.258449750044976, 48.880115307649 ], [ 2.258834306078404, 48.880262341792807 ], [ 2.258867870315612, 48.880275174534759 ], [ 2.258884349335774, 48.880281474809422 ], [ 2.261548676371423, 48.879949788481021 ], [ 2.268085459664319, 48.879135735070207 ], [ 2.270397135416982, 48.878847755387412 ], [ 2.270428890095171, 48.878843798452976 ], [ 2.270432224299578, 48.878843381692597 ], [ 2.270504758701505, 48.878834307782341 ], [ 2.270921187298192, 48.878782215034967 ], [ 2.270981309449139, 48.878774693950341 ], [ 2.270984460582897, 48.87877430214067 ], [ 2.274268195957376, 48.878365393142772 ], [ 2.277490577203393, 48.87796402719367 ], [ 2.277708858740456, 48.878029213812674 ], [ 2.277921808432569, 48.878092806610248 ], [ 2.278081816037011, 48.878140589522808 ], [ 2.278362932672778, 48.878224537261204 ], [ 2.278611678016783, 48.878298818306 ], [ 2.279181149147991, 48.878468871206209 ], [ 2.279479191555316, 48.878557869957632 ], [ 2.279483031708196, 48.878559017245863 ], [ 2.27956435544695, 48.878583300528327 ], [ 2.279734547686344, 48.878634121098258 ], [ 2.279735336640966, 48.878634356076148 ], [ 2.279780485829414, 48.878647838120351 ], [ 2.279801073127652, 48.878653985756841 ], [ 2.281315082204436, 48.878158280160797 ], [ 2.283351471552164, 48.877491491270263 ], [ 2.283399423615623, 48.877475966111255 ], [ 2.283782457126006, 48.877351945022582 ], [ 2.283798868555532, 48.877346750587137 ], [ 2.283861680775442, 48.877326875898056 ], [ 2.283930296681111, 48.877305161664992 ], [ 2.283958660053912, 48.877296221895932 ], [ 2.284073208977157, 48.877260117661145 ], [ 2.284286607417284, 48.877192856707481 ], [ 2.287194877183897, 48.876276146076627 ], [ 2.288000485043614, 48.876017392807711 ], [ 2.289198414890218, 48.87563248611324 ], [ 2.289969482010793, 48.875388228592016 ], [ 2.290487563932998, 48.875224020125792 ], [ 2.29300449962799, 48.874422936023571 ], [ 2.294022093508186, 48.874100811293694 ], [ 2.294547367192032, 48.873934505182937 ], [ 2.294933410026856, 48.873812280038372 ], [ 2.295039601294047, 48.873778669292605 ], [ 2.295054550205345, 48.873761088841214 ], [ 2.295055083600081, 48.873760461543156 ], [ 2.29505561835821, 48.8737598342531 ], [ 2.295056151752922, 48.873759206955036 ], [ 2.295056686523095, 48.873758578765724 ], [ 2.295057219905711, 48.873757952366894 ], [ 2.295057753300384, 48.873757325068809 ], [ 2.295058286707317, 48.873756696871446 ], [ 2.29505882282857, 48.873756069589433 ], [ 2.295059356223305, 48.873755442291333 ], [ 2.29505989098123, 48.873754815001284 ], [ 2.295060424363668, 48.873754188602447 ], [ 2.295060959121667, 48.873753561312405 ], [ 2.295061491165119, 48.873752933107014 ], [ 2.295062025923093, 48.873752305816886 ], [ 2.295062559305479, 48.873751679418064 ], [ 2.295063094051257, 48.873751053027263 ], [ 2.295063628845605, 48.873750423039361 ], [ 2.29506416085258, 48.873749797531772 ], [ 2.295064695610389, 48.873749170241666 ], [ 2.295065229004984, 48.873748542943552 ], [ 2.295065762411634, 48.873747914746168 ], [ 2.295066298532708, 48.87374728746407 ], [ 2.295066831915092, 48.873746661065219 ], [ 2.295067365309533, 48.873746033767098 ], [ 2.295067900067265, 48.873745406476999 ], [ 2.295068433473953, 48.873744778279573 ], [ 2.295068968219488, 48.873744151888751 ], [ 2.295069500250677, 48.873743524582579 ], [ 2.295070033632985, 48.873742898183686 ], [ 2.295070568414993, 48.873742269095054 ], [ 2.295071103172648, 48.873741641804898 ], [ 2.295071637918118, 48.873741015414055 ], [ 2.295072171312545, 48.873740388115927 ], [ 2.295072704694789, 48.873739761717033 ], [ 2.295073239476733, 48.873739132628351 ], [ 2.295073772858849, 48.873738506229444 ], [ 2.295074306253226, 48.873737878931301 ], [ 2.29507484101079, 48.873737251641131 ], [ 2.295075375780512, 48.87373662345172 ], [ 2.295075909174849, 48.873735996153563 ], [ 2.295076442569174, 48.873735368855357 ], [ 2.295076977314515, 48.873734742464507 ], [ 2.295077510708712, 48.873734115166314 ], [ 2.295078045478472, 48.873733486976889 ], [ 2.295078578860473, 48.873732860577967 ], [ 2.295079113618036, 48.873732233287811 ], [ 2.295079647012181, 48.873731605989605 ], [ 2.295080181781787, 48.873730977800165 ], [ 2.295080715176009, 48.873730350501987 ], [ 2.295081248570116, 48.873729723203759 ], [ 2.295081781952141, 48.873729096804837 ], [ 2.295082316709526, 48.873728469514653 ], [ 2.295082851466998, 48.873727842224454 ], [ 2.295083384861054, 48.873727214926269 ], [ 2.295083919630569, 48.873726586736815 ], [ 2.29508445301253, 48.87372596033785 ], [ 2.295084986418718, 48.87372533214036 ], [ 2.295085519812825, 48.873724704842147 ], [ 2.295086054570118, 48.87372407755192 ], [ 2.295086587952027, 48.873723451152969 ], [ 2.295087124072597, 48.873722823870807 ], [ 2.295087657478721, 48.873722195673309 ], [ 2.295088190860592, 48.873721569274331 ], [ 2.295088724254521, 48.873720941976089 ], [ 2.295089259024009, 48.873720313786585 ], [ 2.29508979241791, 48.87371968648835 ], [ 2.2950903258119, 48.873719059190101 ], [ 2.29509086192021, 48.873718432807188 ], [ 2.295091393950873, 48.87371780550091 ], [ 2.295091928708024, 48.87371717821069 ], [ 2.295092463465164, 48.873716550920442 ], [ 2.29509299685909, 48.8737159236222 ], [ 2.295093530252901, 48.873715296323908 ], [ 2.295094062295671, 48.873714668118346 ], [ 2.295094597052757, 48.873714040828112 ], [ 2.295095131797765, 48.873713414437155 ], [ 2.295095666554827, 48.873712787146886 ], [ 2.295096199948573, 48.873712159848608 ], [ 2.29509673334241, 48.873711532550303 ], [ 2.295097266748403, 48.873710904352748 ], [ 2.295097801493243, 48.873710277961756 ], [ 2.29509833489911, 48.873709649764194 ], [ 2.295098871019397, 48.873709022481982 ], [ 2.295099404413168, 48.873708395183662 ], [ 2.295099937794655, 48.873707768784662 ], [ 2.295100471200572, 48.873707140587094 ], [ 2.295101005957505, 48.873706513296796 ], [ 2.295101540702357, 48.873705886905796 ], [ 2.295102072744831, 48.873705258700191 ], [ 2.295102608852857, 48.873704632317207 ], [ 2.295103142246539, 48.873704005018908 ], [ 2.295103677039918, 48.8737033750308 ], [ 2.295104210421405, 48.873702748631764 ], [ 2.295104743802776, 48.873702122232707 ], [ 2.295105278547538, 48.873701495841665 ], [ 2.295105810589923, 48.873700867636039 ], [ 2.295106345346829, 48.873700240345713 ], [ 2.29510688010362, 48.87369961305545 ], [ 2.295107413484928, 48.873698986656365 ], [ 2.295107948253966, 48.873698358466768 ], [ 2.295108481647417, 48.873697731168448 ], [ 2.295109016404259, 48.873697103878115 ], [ 2.295109549797685, 48.873696476579802 ], [ 2.295110083179029, 48.873695850180695 ], [ 2.295110617947901, 48.873695221991099 ], [ 2.29511115132922, 48.873694595592035 ], [ 2.295111687461368, 48.87369396741046 ], [ 2.295112220842559, 48.873693341011347 ], [ 2.29511275423601, 48.873692713712963 ], [ 2.295113287629346, 48.873692086414614 ], [ 2.29511451370013, 48.873690647491244 ], [ 2.295115981752125, 48.873688958176722 ], [ 2.29511652463971, 48.87368833453165 ], [ 2.295117064800781, 48.873687710870492 ], [ 2.295117609075881, 48.873687085434888 ], [ 2.295132800549542, 48.873669610724676 ], [ 2.295310195102113, 48.873466435984874 ], [ 2.295311404048472, 48.873465052717698 ], [ 2.295344309831307, 48.873427420062704 ], [ 2.296034426527043, 48.872637362356997 ], [ 2.2960128, 48.8726278 ], [ 2.2956998, 48.872535 ], [ 2.2944557, 48.8708096 ], [ 2.2933451, 48.869288 ], [ 2.2929462, 48.8690417 ], [ 2.2926394, 48.8689529 ], [ 2.2921976, 48.8689247 ], [ 2.2918172, 48.8689489 ], [ 2.2914322, 48.8684474 ], [ 2.2889976, 48.8652041 ], [ 2.2865447, 48.8619102 ], [ 2.2868331, 48.8616963 ], [ 2.2844216, 48.860132 ], [ 2.2846793, 48.8585575 ], [ 2.2868371, 48.8589211 ], [ 2.2871735, 48.8586609 ], [ 2.2872372, 48.8585502 ], [ 2.287319, 48.8584664 ], [ 2.2874373, 48.8583647 ], [ 2.289169, 48.85745 ], [ 2.2882047, 48.856316 ], [ 2.287555, 48.8556348 ], [ 2.2889654, 48.8544507 ], [ 2.2922476, 48.851214 ], [ 2.2921346, 48.8510879 ], [ 2.2922181, 48.8510588 ], [ 2.2925991, 48.8508752 ], [ 2.2988538, 48.8488982 ], [ 2.3011, 48.848206 ], [ 2.3011394, 48.8482675 ], [ 2.3012426, 48.8483516 ], [ 2.3014245, 48.848426 ], [ 2.3016112, 48.8484551 ], [ 2.3017734, 48.8484583 ], [ 2.3019553, 48.848426 ], [ 2.3023092, 48.8482028 ], [ 2.3023485, 48.8481057 ], [ 2.3023534, 48.8479537 ], [ 2.3022711, 48.8478187 ], [ 2.3050089, 48.847078 ], [ 2.3054218, 48.8468936 ], [ 2.3059625, 48.8467577 ], [ 2.3104243, 48.8454784 ], [ 2.3108102, 48.8454404 ], [ 2.310997, 48.8451946 ], [ 2.3109183, 48.8451655 ], [ 2.311169, 48.8447288 ], [ 2.3113509, 48.8447741 ], [ 2.3123966, 48.8433758 ], [ 2.312431, 48.8430588 ], [ 2.3127358, 48.8427774 ], [ 2.3129619, 48.8426835 ], [ 2.3138663, 48.8417923 ], [ 2.3136353, 48.8416759 ], [ 2.3149206, 48.8405428 ], [ 2.3179779, 48.8414777 ], [ 2.3181942, 48.8415554 ], [ 2.3204614, 48.8421603 ], [ 2.3207389, 48.8422133 ], [ 2.3206424, 48.8424503 ], [ 2.3208703, 48.8424933 ], [ 2.3211023, 48.8425371 ], [ 2.3211795, 48.8425371 ], [ 2.3212598, 48.8423106 ], [ 2.3216607, 48.8423673 ], [ 2.3248655, 48.8412319 ], [ 2.330273, 48.8394257 ], [ 2.3320599, 48.8346203 ], [ 2.331882, 48.8344469 ], [ 2.3318748, 48.8342735 ], [ 2.3319603, 48.8341329 ], [ 2.33248, 48.8339502 ], [ 2.3328075, 48.8340486 ], [ 2.3358047, 48.8332191 ], [ 2.3397633, 48.8321341 ], [ 2.346957, 48.8301624 ], [ 2.3489717, 48.8296047 ], [ 2.3492138, 48.8295438 ], [ 2.3495199, 48.8295344 ], [ 2.3498545, 48.8295813 ], [ 2.3507729, 48.8298718 ], [ 2.3545212, 48.8310845 ], [ 2.3550979, 48.8312719 ], [ 2.355283, 48.8312016 ], [ 2.3554254, 48.8312157 ], [ 2.3557528, 48.8312251 ], [ 2.3560376, 48.8313329 ], [ 2.3562059, 48.8311335 ], [ 2.3565916, 48.8312468 ], [ 2.3656655, 48.834269 ], [ 2.3697228, 48.8355794 ], [ 2.3701981, 48.8357472 ], [ 2.3713553, 48.8363638 ], [ 2.3731636, 48.8373772 ], [ 2.3729845, 48.8376447 ], [ 2.3745812, 48.8383031 ], [ 2.3791003, 48.8407193 ], [ 2.3883606, 48.8390608 ], [ 2.3887955, 48.8385838 ], [ 2.3901519, 48.8391153 ], [ 2.3901778, 48.839146 ], [ 2.3947983, 48.8395711 ], [ 2.395624, 48.8396452 ], [ 2.3960485, 48.8396793 ], [ 2.3999364, 48.8397747 ], [ 2.4002108, 48.8399007 ], [ 2.402125, 48.8448531 ], [ 2.402182, 48.845169 ], [ 2.4021147, 48.8451793 ], [ 2.3988557, 48.8473844 ], [ 2.3989334, 48.8477285 ], [ 2.3983743, 48.8477864 ], [ 2.398449505421427, 48.848157704061343 ], [ 2.398668128317027, 48.848138116241948 ] ] ] ] } }
]
}
