{
"type": "FeatureCollection",
"name": "atlas_vasserot_1810_voies",
"crs": { "type": "name", "properties": { "name": "urn:ogc:def:crs:OGC:1.3:CRS84" } },
"features": [
{ "type": "Feature", "properties": { "id": "3581", "geo_fid": 3581, "geo_creati": 1530173617551, "geo_modifi": 1530173617551, "id_alpage": "TR3588", "type": "Rue", "nom": "Sainte Catherine", "ref_scan": "ADO75CA_ANO513", "ref_scan2": null, "article": "Neuve", "nom2_scan2": null, "nom_entier": "Rue Neuve Sainte Catherine", "code_fiab": "1", "identifi": 3588, "oid": 1231433 }, "geometry": { "type": "LineString", "coordinates": [ [ 2.364386151588786, 48.856417743617079 ], [ 2.364266109803632, 48.856457250164247 ] ] } },
{ "type": "Feature", "properties": { "id": "1224", "geo_fid": 1224, "geo_creati": 1530173617266, "geo_modifi": 1530173617266, "id_alpage": "TR1224", "type": "Rue", "nom": "Foin", "ref_scan": "ADO75CA_ANO524", "ref_scan2": null, "article": "du", "nom2_scan2": null, "nom_entier": "Rue du Foin", "code_fiab": "1", "identifi": 1224, "oid": 1229076 }, "geometry": { "type": "LineString", "coordinates": [ [ 2.364426035109576, 48.857079598535989 ], [ 2.364524694778638, 48.857063478014965 ], [ 2.364576205033433, 48.857055282309325 ], [ 2.364732097922196, 48.857029615598009 ], [ 2.364913881725529, 48.856999356109384 ], [ 2.365069774264621, 48.856973688937167 ], [ 2.365158894321165, 48.856958559393696 ], [ 2.365265456859443, 48.856940637754199 ], [ 2.365384011121676, 48.856920914513843 ], [ 2.365513739747033, 48.856900019328314 ], [ 2.365632293813919, 48.856880295830187 ], [ 2.365762022228957, 48.85685940036263 ], [ 2.36589869981798, 48.856836614530856 ], [ 2.365982913337205, 48.856821665430708 ] ] } },
{ "type": "Feature", "properties": { "id": "1326", "geo_fid": 1326, "geo_creati": 1530173617272, "geo_modifi": 1530173617272, "id_alpage": "TR1326", "type": "Rue", "nom": "Saint Louis", "ref_scan": "ADO75CA_ANO513", "ref_scan2": null, "article": null, "nom2_scan2": null, "nom_entier": "Rue Saint Louis", "code_fiab": "1", "identifi": 1326, "oid": 1229178 }, "geometry": { "type": "LineString", "coordinates": [ [ 2.36444109587883, 48.857455850481713 ], [ 2.364438577747968, 48.857337057209392 ], [ 2.364437207384995, 48.857323298669634 ], [ 2.364431945995277, 48.857172312102612 ], [ 2.364426035109576, 48.857079598535989 ] ] } },
{ "type": "Feature", "properties": { "id": "1345", "geo_fid": 1345, "geo_creati": 1530173617274, "geo_modifi": 1530173617274, "id_alpage": "TR1345", "type": "Rue", "nom": "Saint Louis", "ref_scan": "ADO75CA_ANO513", "ref_scan2": null, "article": null, "nom2_scan2": null, "nom_entier": "Rue Saint Louis", "code_fiab": "1", "identifi": 1345, "oid": 1229197 }, "geometry": { "type": "LineString", "coordinates": [ [ 2.364426035109576, 48.857079598535989 ], [ 2.364419436685942, 48.856975644229159 ], [ 2.364408179333221, 48.856825288580659 ], [ 2.364406468676451, 48.856687610398602 ], [ 2.364395211428149, 48.856537254749639 ], [ 2.364386151588786, 48.856417743617079 ] ] } },
{ "type": "Feature", "properties": { "id": "3585", "geo_fid": 3585, "geo_creati": 1530173617551, "geo_modifi": 1530173617551, "id_alpage": "TR3592", "type": null, "nom": null, "ref_scan": "ADO75CA_ANO517", "ref_scan2": null, "article": null, "nom2_scan2": null, "nom_entier": null, "code_fiab": "2", "identifi": 3592, "oid": 1231437 }, "geometry": { "type": "LineString", "coordinates": [ [ 2.364863490282556, 48.856323295402198 ], [ 2.36445963222629, 48.855220165211684 ], [ 2.365303645445809, 48.855062678042394 ] ] } },
{ "type": "Feature", "properties": { "id": "3586", "geo_fid": 3586, "geo_creati": 1530173617551, "geo_modifi": 1530173617551, "id_alpage": "TR3593", "type": null, "nom": null, "ref_scan": "ADO75CA_ANO518", "ref_scan2": null, "article": null, "nom2_scan2": null, "nom_entier": null, "code_fiab": "2", "identifi": 3593, "oid": 1231438 }, "geometry": { "type": "LineString", "coordinates": [ [ 2.365303645445809, 48.855062678042394 ], [ 2.366157600404877, 48.854903293642913 ], [ 2.366644647698295, 48.856046324114892 ] ] } },
{ "type": "Feature", "properties": { "id": "1271", "geo_fid": 1271, "geo_creati": 1530173617269, "geo_modifi": 1530173617269, "id_alpage": "TR1271", "type": "Rue", "nom": "Chaussée des Minimes", "ref_scan": "ADO75CA_ANO522", "ref_scan2": null, "article": "de la", "nom2_scan2": null, "nom_entier": "Rue de la Chaussée des Minimes", "code_fiab": "1", "identifi": 1271, "oid": 1229123 }, "geometry": { "type": "LineString", "coordinates": [ [ 2.365733835719065, 48.856188010702446 ], [ 2.365795939100374, 48.85635499004475 ], [ 2.365827468576663, 48.856439603674175 ], [ 2.365856946695363, 48.856511627997229 ], [ 2.365909359714577, 48.856652261030192 ], [ 2.365966815296599, 48.8567926229886 ], [ 2.365982913337205, 48.856821665430708 ] ] } },
{ "type": "Feature", "properties": { "id": "3582", "geo_fid": 3582, "geo_creati": 1530173617551, "geo_modifi": 1530173617551, "id_alpage": "TR3589", "type": null, "nom": null, "ref_scan": "ADO75CA_ANO517", "ref_scan2": null, "article": null, "nom2_scan2": null, "nom_entier": null, "code_fiab": "2", "identifi": 3589, "oid": 1231434 }, "geometry": { "type": "LineString", "coordinates": [ [ 2.365739013895837, 48.856187200064312 ], [ 2.365639947159282, 48.856202692245475 ], [ 2.364944706479685, 48.856310865755709 ], [ 2.364863490282556, 48.856323295402198 ] ] } },
{ "type": "Feature", "properties": { "id": "3584", "geo_fid": 3584, "geo_creati": 1530173617551, "geo_modifi": 1530173617551, "id_alpage": "TR3591", "type": "Rue", "nom": "Pas de la Mûle", "ref_scan": "ADO75CA_ANO523", "ref_scan2": null, "article": "du", "nom2_scan2": null, "nom_entier": "Rue du Pas de la Mûle", "code_fiab": "1", "identifi": 3591, "oid": 1231436 }, "geometry": { "type": "LineString", "coordinates": [ [ 2.367289318843774, 48.855934016927385 ], [ 2.36703791098503, 48.855979945737403 ], [ 2.366753661312604, 48.856029299726963 ], [ 2.366750118363703, 48.856029840206617 ], [ 2.366644647698295, 48.856046324114892 ] ] } },
{ "type": "Feature", "properties": { "id": "4290", "geo_fid": 4290, "geo_creati": 1530173617627, "geo_modifi": 1530173617627, "id_alpage": "TR4300", "type": "Rue", "nom": "Ormesson", "ref_scan": "ADO75CA_ANO515", "ref_scan2": null, "article": "d'", "nom2_scan2": null, "nom_entier": "Rue d'Ormesson", "code_fiab": "1", "identifi": 4300, "oid": 1232142 }, "geometry": { "type": "LineString", "coordinates": [ [ 2.362693079811773, 48.855242425251824 ], [ 2.362837922433717, 48.855203004725141 ], [ 2.36285972351397, 48.85519661499918 ], [ 2.362867081375551, 48.855194455093468 ] ] } },
{ "type": "Feature", "properties": { "id": "1194", "geo_fid": 1194, "geo_creati": 1530173617253, "geo_modifi": 1530173617253, "id_alpage": "TR1194", "type": "Rue", "nom": "Necker", "ref_scan": "ADO75CA_ANO515", "ref_scan2": null, "article": null, "nom2_scan2": null, "nom_entier": "Rue Necker", "code_fiab": "1", "identifi": 1194, "oid": 1229046 }, "geometry": { "type": "LineString", "coordinates": [ [ 2.363051981226962, 48.855139647735953 ], [ 2.363075712716458, 48.855176692382571 ], [ 2.363077758605517, 48.855180019226694 ], [ 2.363135587220499, 48.855270293053323 ], [ 2.363136541116212, 48.855270202909615 ], [ 2.363196142916014, 48.855363084192945 ], [ 2.363256426940706, 48.855457134343773 ], [ 2.36332994539138, 48.855580138005145 ] ] } },
{ "type": "Feature", "properties": { "id": "1249", "geo_fid": 1249, "geo_creati": 1530173617267, "geo_modifi": 1530173617267, "id_alpage": "TR1249", "type": "Rue", "nom": "Egout", "ref_scan": "ADO75CA_ANO514", "ref_scan2": null, "article": "de l'", "nom2_scan2": null, "nom_entier": "Rue de l'Egout", "code_fiab": "1", "identifi": 1249, "oid": 1229101 }, "geometry": { "type": "LineString", "coordinates": [ [ 2.364266109803632, 48.856457250164247 ], [ 2.364182929920707, 48.856367612386244 ], [ 2.364106554966818, 48.856260616990767 ], [ 2.364060859005408, 48.856182660832737 ], [ 2.363984484598302, 48.856075665355959 ], [ 2.363936879683988, 48.855995101706505 ], [ 2.363909053326188, 48.85594789641825 ], [ 2.36377008583322, 48.855762858576377 ], [ 2.363673810236898, 48.855644986323703 ], [ 2.363620353432334, 48.85557791298276 ], [ 2.363570848410049, 48.85551002936004 ] ] } },
{ "type": "Feature", "properties": { "id": "1255", "geo_fid": 1255, "geo_creati": 1530173617268, "geo_modifi": 1530173617268, "id_alpage": "TR1255", "type": "Rue", "nom": "Jarente", "ref_scan": "ADO75CA_ANO514", "ref_scan2": null, "article": null, "nom2_scan2": null, "nom_entier": "Rue Jarente", "code_fiab": "1", "identifi": 1255, "oid": 1229107 }, "geometry": { "type": "LineString", "coordinates": [ [ 2.363570848410049, 48.85551002936004 ], [ 2.363527791455001, 48.855523168662664 ], [ 2.363452578220651, 48.855546567044286 ], [ 2.363377364395161, 48.855568976177089 ], [ 2.36332994539138, 48.855580138005145 ] ] } },
{ "type": "Feature", "properties": { "id": "1169", "geo_fid": 1169, "geo_creati": 1530173617251, "geo_modifi": 1530173617251, "id_alpage": "TR1169", "type": "Rue", "nom": "Royale", "ref_scan": "ADO75CA_ANO517", "ref_scan2": null, "article": null, "nom2_scan2": null, "nom_entier": "Rue Royale", "code_fiab": "1", "identifi": 1169, "oid": 1229021 }, "geometry": { "type": "LineString", "coordinates": [ [ 2.365303645445809, 48.855062678042394 ], [ 2.365213315950947, 48.854859914323931 ], [ 2.365196532806983, 48.854822328855995 ], [ 2.365134984312209, 48.854665780616486 ], [ 2.365060065303607, 48.854480818601409 ], [ 2.364953615604755, 48.85420305930306 ], [ 2.364878697967998, 48.854018097170695 ], [ 2.364751502671179, 48.853924963302937 ] ] } },
{ "type": "Feature", "properties": { "id": "1192", "geo_fid": 1192, "geo_creati": 1530173617253, "geo_modifi": 1530173617253, "id_alpage": "TR1192", "type": "Rue", "nom": "Ormesson", "ref_scan": "ADO75CA_ANO515", "ref_scan2": null, "article": "d'", "nom2_scan2": null, "nom_entier": "Rue d'Ormesson", "code_fiab": "1", "identifi": 1192, "oid": 1229044 }, "geometry": { "type": "LineString", "coordinates": [ [ 2.36326740276265, 48.855077279234102 ], [ 2.363060565332431, 48.85513703790425 ], [ 2.363057433200908, 48.855141355119834 ], [ 2.363051981226962, 48.855139647735953 ] ] } },
{ "type": "Feature", "properties": { "id": "1272", "geo_fid": 1272, "geo_creati": 1530173617269, "geo_modifi": 1530173617269, "id_alpage": "TR1272", "type": "Impasse", "nom": "Hospitalières", "ref_scan": "ADO75CA_ANO523", "ref_scan2": null, "article": "des", "nom2_scan2": null, "nom_entier": "Impasse des Hospitalières", "code_fiab": "1", "identifi": 1272, "oid": 1229124 }, "geometry": { "type": "LineString", "coordinates": [ [ 2.365982913337205, 48.856821665430708 ], [ 2.36614888741508, 48.856792217301731 ], [ 2.366255721698247, 48.856774114814669 ], [ 2.366286109400635, 48.856768801377662 ], [ 2.366547745016972, 48.856726198904724 ] ] } },
{ "type": "Feature", "properties": { "id": "1273", "geo_fid": 1273, "geo_creati": 1530173617269, "geo_modifi": 1530173617269, "id_alpage": "TR1273", "type": null, "nom": null, "ref_scan": "ADO75CA_ANO518", "ref_scan2": null, "article": null, "nom2_scan2": null, "nom_entier": null, "code_fiab": "2", "identifi": 1273, "oid": 1229125 }, "geometry": { "type": "LineString", "coordinates": [ [ 2.366644647698295, 48.856046324114892 ], [ 2.365739013895837, 48.856187200064312 ] ] } },
{ "type": "Feature", "properties": { "id": "3583", "geo_fid": 3583, "geo_creati": 1530173617551, "geo_modifi": 1530173617551, "id_alpage": "TR3590", "type": "Rue", "nom": "Echarpe", "ref_scan": "ADO75CA_ANO522", "ref_scan2": null, "article": "de l'", "nom2_scan2": null, "nom_entier": "Rue de l'Echarpe", "code_fiab": "1", "identifi": 3590, "oid": 1231435 }, "geometry": { "type": "LineString", "coordinates": [ [ 2.364863490282556, 48.856323295402198 ], [ 2.364788406115777, 48.856334734311211 ], [ 2.364464498874192, 48.856392005764626 ], [ 2.364386151588786, 48.856417743617079 ] ] } },
{ "type": "Feature", "properties": { "id": "1178", "geo_fid": 1178, "geo_creati": 1530173617252, "geo_modifi": 1530173617252, "id_alpage": "TR1178", "type": null, "nom": null, "ref_scan": "ADO75CA_ANO515", "ref_scan2": null, "article": null, "nom2_scan2": null, "nom_entier": null, "code_fiab": "2", "identifi": 1178, "oid": 1229030 }, "geometry": { "type": "LineString", "coordinates": [ [ 2.362870786110169, 48.855507580865563 ], [ 2.362927605084504, 48.855490122206575 ], [ 2.362961942048451, 48.855480222476544 ], [ 2.363034159677707, 48.855461411383871 ], [ 2.363005791136046, 48.855417623233542 ], [ 2.362973058168718, 48.855366911664007 ], [ 2.362952054498662, 48.855334272815369 ], [ 2.362929823660371, 48.855300285330806 ], [ 2.362908819303521, 48.855266207638834 ], [ 2.362876083704491, 48.855210010481493 ], [ 2.362867081375551, 48.855194455093468 ] ] } },
{ "type": "Feature", "properties": { "id": "1187", "geo_fid": 1187, "geo_creati": 1530173617252, "geo_modifi": 1530173617252, "id_alpage": "TR1187", "type": "Rue", "nom": "Tournelles", "ref_scan": "ADO75CA_ANO523", "ref_scan2": null, "article": "des", "nom2_scan2": null, "nom_entier": "Rue des Tournelles", "code_fiab": "1", "identifi": 1187, "oid": 1229039 }, "geometry": { "type": "LineString", "coordinates": [ [ 2.367289318843774, 48.855934016927385 ], [ 2.367290164580979, 48.855980419155401 ], [ 2.367294256575465, 48.85621171091411 ], [ 2.367307907630347, 48.856475014249753 ], [ 2.367310571520785, 48.85659821385444 ], [ 2.367312538832824, 48.856696323945386 ], [ 2.367315339028345, 48.856819523514552 ], [ 2.367321020324272, 48.85697437671017 ], [ 2.367321296699408, 48.856980671543617 ] ] } },
{ "type": "Feature", "properties": { "id": "1193", "geo_fid": 1193, "geo_creati": 1530173617253, "geo_modifi": 1530173617253, "id_alpage": "TR1193", "type": "Rue", "nom": "Egout", "ref_scan": "ADO75CA_ANO515", "ref_scan2": null, "article": "de l'", "nom2_scan2": null, "nom_entier": "Rue de l'Egout", "code_fiab": "1", "identifi": 1193, "oid": 1229045 }, "geometry": { "type": "LineString", "coordinates": [ [ 2.363570848410049, 48.85551002936004 ], [ 2.363549571445269, 48.855476851120827 ], [ 2.363474428191591, 48.855374531236905 ], [ 2.363367920327972, 48.855232110946652 ], [ 2.363340371885005, 48.855193268689248 ], [ 2.363312823485076, 48.855154426425237 ], [ 2.36326740276265, 48.855077279234102 ] ] } },
{ "type": "Feature", "properties": { "id": "1198", "geo_fid": 1198, "geo_creati": 1530173617253, "geo_modifi": 1530173617253, "id_alpage": "TR1198", "type": "Rue", "nom": "Ormesson", "ref_scan": "ADO75CA_ANO515", "ref_scan2": null, "article": "d'", "nom2_scan2": null, "nom_entier": "Rue d'Ormesson", "code_fiab": "1", "identifi": 1198, "oid": 1229050 }, "geometry": { "type": "LineString", "coordinates": [ [ 2.362867081375551, 48.855194455093468 ], [ 2.362955648312207, 48.855168715980987 ], [ 2.363051981226962, 48.855139647735953 ] ] } },
{ "type": "Feature", "properties": { "id": "1217", "geo_fid": 1217, "geo_creati": 1530173617265, "geo_modifi": 1530173617265, "id_alpage": "TR1217", "type": "Rue", "nom": "Pas de la Mule", "ref_scan": "ADO75CA_ANO521", "ref_scan2": null, "article": "du", "nom2_scan2": null, "nom_entier": "Rue du Pas de la Mule", "code_fiab": "1", "identifi": 1217, "oid": 1229069 }, "geometry": { "type": "LineString", "coordinates": [ [ 2.367289318843774, 48.855934016927385 ], [ 2.367342325618988, 48.855924290816766 ], [ 2.367570297288038, 48.855885561745978 ], [ 2.367864633525494, 48.855841958359697 ], [ 2.36809246813124, 48.855803228283001 ], [ 2.368484551262753, 48.8558167006221 ] ] } },
{ "type": "Feature", "properties": { "id": "1240", "geo_fid": 1240, "geo_creati": 1530173617267, "geo_modifi": 1530173617267, "id_alpage": "TR1240", "type": "Rue", "nom": "Egout", "ref_scan": "ADO75CA_ANO516", "ref_scan2": null, "article": "de l'", "nom2_scan2": null, "nom_entier": "Rue de l'Egout", "code_fiab": "1", "identifi": 1240, "oid": 1229092 }, "geometry": { "type": "LineString", "coordinates": [ [ 2.36326740276265, 48.855077279234102 ], [ 2.363183529875482, 48.854957515268801 ], [ 2.363103344482985, 48.854852408544374 ], [ 2.363023023153424, 48.854747301794667 ], [ 2.362955793668418, 48.854659637920797 ], [ 2.362891836102626, 48.854574041598191 ] ] } },
{ "type": "Feature", "properties": { "id": "1267", "geo_fid": 1267, "geo_creati": 1530173617268, "geo_modifi": 1530173617268, "id_alpage": "TR1267", "type": "Rue", "nom": "Chaussée des Minimes", "ref_scan": "ADO75CA_ANO524", "ref_scan2": null, "article": "de la", "nom2_scan2": null, "nom_entier": "Rue de la Chaussée des Minimes", "code_fiab": "1", "identifi": 1267, "oid": 1229119 }, "geometry": { "type": "LineString", "coordinates": [ [ 2.365982913337205, 48.856821665430708 ], [ 2.366004604782635, 48.856860778310782 ], [ 2.366043777888041, 48.856964634382052 ], [ 2.366097420701825, 48.857109133890717 ], [ 2.366109160228181, 48.857142224142734 ], [ 2.366125535317292, 48.85717864052792 ] ] } },
{ "type": "Feature", "properties": { "id": "4223", "geo_fid": 4223, "geo_creati": 1530173617622, "geo_modifi": 1530173617622, "id_alpage": "TR4233", "type": "Rue", "nom": "Tournelles", "ref_scan": "ADO75CA_ANO518", "ref_scan2": null, "article": "des", "nom2_scan2": null, "nom_entier": "Rue des Tournelles", "code_fiab": "1", "identifi": 4233, "oid": 1232075 }, "geometry": { "type": "LineString", "coordinates": [ [ 2.367289318843774, 48.855934016927385 ], [ 2.367288477784752, 48.855895348439951 ], [ 2.36728061521974, 48.855738787202931 ], [ 2.36727724407389, 48.855572602570255 ], [ 2.36727434679048, 48.855513970779313 ], [ 2.367272187071266, 48.85532278605875 ], [ 2.367266054957245, 48.855323417162957 ], [ 2.367260363753195, 48.855151567726189 ], [ 2.367267119957931, 48.855056153159246 ], [ 2.367263621102944, 48.854903997209618 ], [ 2.367256883801153, 48.854805079031181 ], [ 2.367254745797915, 48.854649685343922 ], [ 2.367248008548235, 48.854550767165449 ], [ 2.367251142288177, 48.854549777141891 ], [ 2.367264049615469, 48.854485475779072 ], [ 2.367296934478718, 48.854330432582564 ], [ 2.367297341508537, 48.85432746487686 ], [ 2.367310365076507, 48.85423025011341 ], [ 2.367323659345782, 48.854130067678796 ], [ 2.367356543842593, 48.853975114393478 ], [ 2.367396775881609, 48.853801993857928 ], [ 2.367418251333756, 48.853710172482813 ] ] } },
{ "type": "Feature", "properties": { "id": "1254", "geo_fid": 1254, "geo_creati": 1530173617268, "geo_modifi": 1530173617268, "id_alpage": "TR1254", "type": null, "nom": null, "ref_scan": "ADO75CA_ANO514", "ref_scan2": null, "article": null, "nom2_scan2": null, "nom_entier": null, "code_fiab": "3", "identifi": 1254, "oid": 1229106 }, "geometry": { "type": "LineString", "coordinates": [ [ 2.363445867654821, 48.855742520014843 ], [ 2.363397455397593, 48.855679312281652 ], [ 2.36332994539138, 48.855580138005145 ] ] } },
{ "type": "Feature", "properties": { "id": "1210", "geo_fid": 1210, "geo_creati": 1530173617264, "geo_modifi": 1530173617264, "id_alpage": "TR1210", "type": "Rue", "nom": "Jarente", "ref_scan": "ADO75CA_ANO514", "ref_scan2": null, "article": null, "nom2_scan2": null, "nom_entier": "Rue Jarente", "code_fiab": "1", "identifi": 1210, "oid": 1229062 }, "geometry": { "type": "LineString", "coordinates": [ [ 2.362989166197644, 48.855682462670877 ], [ 2.363045439094971, 48.85566284582297 ], [ 2.36316766151395, 48.855625498317444 ], [ 2.363287431775562, 48.855590129639872 ], [ 2.36332994539138, 48.855580138005145 ] ] } },
{ "type": "Feature", "properties": { "id": "1233", "geo_fid": 1233, "geo_creati": 1530173617266, "geo_modifi": 1530173617266, "id_alpage": "TR1233", "type": "Impasse", "nom": "Guéménée", "ref_scan": "ADO75CA_ANO518", "ref_scan2": null, "article": null, "nom2_scan2": null, "nom_entier": "Impasse Guéménée", "code_fiab": "1", "identifi": 1233, "oid": 1229085 }, "geometry": { "type": "LineString", "coordinates": [ [ 2.365612623532569, 48.853697596268333 ], [ 2.365696906081957, 48.853812322420403 ], [ 2.365805311083674, 48.854166878385904 ], [ 2.365905399848349, 48.854512803327111 ] ] } },
{ "type": "Feature", "properties": { "id": "1250", "geo_fid": 1250, "geo_creati": 1530173617267, "geo_modifi": 1530173617267, "id_alpage": "TR1250", "type": "Rue", "nom": "Sainte Catherine", "ref_scan": "ADO75CA_ANO513", "ref_scan2": null, "article": "Neuve", "nom2_scan2": null, "nom_entier": "Rue Neuve Sainte Catherine", "code_fiab": "1", "identifi": 1250, "oid": 1229102 }, "geometry": { "type": "LineString", "coordinates": [ [ 2.364266109803632, 48.856457250164247 ], [ 2.364192125006728, 48.85648613430326 ], [ 2.364136532012256, 48.856503863084406 ], [ 2.364021392350025, 48.856536713603795 ], [ 2.363668889986811, 48.856643089774906 ], [ 2.36332346864953, 48.85674163957033 ], [ 2.363201515838238, 48.856778357690921 ], [ 2.363126571662558, 48.856798968052665 ], [ 2.362835245068847, 48.856883835147649 ] ] } }
]
}
