{
"type": "FeatureCollection",
"name": "atlas_municipal_1888_voies",
"crs": { "type": "name", "properties": { "name": "urn:ogc:def:crs:EPSG::2154" } },
"features": [
{ "type": "Feature", "properties": { "gid": 4355, "streetname": "R DE BEARN", "note": null }, "geometry": { "type": "MultiLineString", "coordinates": [ [ [ 653461.930841177236289, 6861981.50575461704284 ], [ 653482.526190593722276, 6862052.331187028437853 ] ] ] } },
{ "type": "Feature", "properties": { "gid": 4369, "streetname": "PL DES VOSGES", "note": null }, "geometry": { "type": "MultiLineString", "coordinates": [ [ [ 653427.882547781220637, 6861856.794587887823582 ], [ 653367.022643577191047, 6861873.30613303091377 ], [ 653400.070968225714751, 6861998.025743311271071 ] ] ] } },
{ "type": "Feature", "properties": { "gid": 4507, "streetname": "R DE JARENTE", "note": null }, "geometry": { "type": "MultiLineString", "coordinates": [ [ [ 653260.478011206258088, 6861927.201110290363431 ], [ 653285.374847453203984, 6861914.991975137032568 ] ] ] } },
{ "type": "Feature", "properties": { "gid": 4825, "streetname": "R DE BIRAGUE", "note": null }, "geometry": { "type": "MultiLineString", "coordinates": [ [ [ 653394.817412225878797, 6861730.075314946472645 ], [ 653421.647612750297412, 6861828.847596228122711 ] ] ] } },
{ "type": "Feature", "properties": { "gid": 5287, "streetname": "R DE TURENNE", "note": null }, "geometry": { "type": "MultiLineString", "coordinates": [ [ [ 653307.313995473785326, 6861907.807610834017396 ], [ 653281.895813981420361, 6861858.02236839197576 ] ] ] } },
{ "type": "Feature", "properties": { "gid": 5496, "streetname": "R DE TURENNE", "note": null }, "geometry": { "type": "MultiLineString", "coordinates": [ [ [ 653366.772010748041794, 6862081.304254660382867 ], [ 653363.326572831370868, 6862028.334213537164032 ], [ 653357.200967399170622, 6862013.386013510636985 ] ] ] } },
{ "type": "Feature", "properties": { "gid": 5498, "streetname": "R DES VOSGES", "note": null }, "geometry": { "type": "MultiLineString", "coordinates": [ [ [ 653574.693584642955102, 6861953.557762547396123 ], [ 653664.500413728994317, 6861930.802698379382491 ] ] ] } },
{ "type": "Feature", "properties": { "gid": 5499, "streetname": "PL DES VOSGES", "note": null }, "geometry": { "type": "MultiLineString", "coordinates": [ [ [ 653400.070968225714751, 6861998.025743311271071 ], [ 653461.930841177236289, 6861981.50575461704284 ] ] ] } },
{ "type": "Feature", "properties": { "gid": 5785, "streetname": "R NECKER", "note": null }, "geometry": { "type": "MultiLineString", "coordinates": [ [ [ 653263.973127758363262, 6861867.172908812761307 ], [ 653285.374847453203984, 6861914.991975137032568 ] ] ] } },
{ "type": "Feature", "properties": { "gid": 7116, "streetname": null, "note": null }, "geometry": { "type": "MultiLineString", "coordinates": [ [ [ 653571.768526809406467, 6861843.584544885903597 ], [ 653632.771388699882664, 6861844.071352208964527 ] ] ] } },
{ "type": "Feature", "properties": { "gid": 7294, "streetname": null, "note": null }, "geometry": { "type": "MultiLineString", "coordinates": [ [ [ 653482.526190593722276, 6862052.331187028437853 ], [ 653534.412207184126601, 6862038.894990471191704 ] ] ] } },
{ "type": "Feature", "properties": { "gid": 12573, "streetname": "PL DES VOSGES", "note": null }, "geometry": { "type": "MultiLineString", "coordinates": [ [ [ 653461.930841177236289, 6861981.50575461704284 ], [ 653523.799108306062408, 6861965.985646381042898 ] ] ] } },
{ "type": "Feature", "properties": { "gid": 12574, "streetname": "R DES VOSGES", "note": null }, "geometry": { "type": "MultiLineString", "coordinates": [ [ [ 653523.799108306062408, 6861965.985646381042898 ], [ 653574.693584642955102, 6861953.557762547396123 ] ] ] } },
{ "type": "Feature", "properties": { "gid": 12580, "streetname": "PL DES VOSGES", "note": null }, "geometry": { "type": "MultiLineString", "coordinates": [ [ [ 653523.799108306062408, 6861965.985646381042898 ], [ 653492.742071557207964, 6861840.249371889978647 ], [ 653427.882547781220637, 6861856.794587887823582 ] ] ] } },
{ "type": "Feature", "properties": { "gid": 12583, "streetname": "R DES TOURNELLES", "note": null }, "geometry": { "type": "MultiLineString", "coordinates": [ [ [ 653578.660614363849163, 6862068.52222318854183 ], [ 653578.26528297434561, 6862021.526421773247421 ] ] ] } },
{ "type": "Feature", "properties": { "gid": 12585, "streetname": "R DE BEARN", "note": null }, "geometry": { "type": "MultiLineString", "coordinates": [ [ [ 653482.526190593722276, 6862052.331187028437853 ], [ 653491.844989671604708, 6862090.252105740830302 ] ] ] } },
{ "type": "Feature", "properties": { "gid": 12586, "streetname": "R DES TOURNELLES", "note": null }, "geometry": { "type": "MultiLineString", "coordinates": [ [ [ 653578.26528297434561, 6862021.526421773247421 ], [ 653574.693584642955102, 6861953.557762547396123 ] ] ] } },
{ "type": "Feature", "properties": { "gid": 12588, "streetname": "IMP GUEMENEE", "note": null }, "geometry": { "type": "MultiLineString", "coordinates": [ [ [ 653472.348601509700529, 6861793.421869475394487 ], [ 653469.231130062835291, 6861779.448381322436035 ] ] ] } },
{ "type": "Feature", "properties": { "gid": 12591, "streetname": "R DE BIRAGUE", "note": null }, "geometry": { "type": "MultiLineString", "coordinates": [ [ [ 653421.647612750297412, 6861828.847596228122711 ], [ 653427.882547781220637, 6861856.794587887823582 ] ] ] } },
{ "type": "Feature", "properties": { "gid": 12892, "streetname": "R DES VOSGES", "note": null }, "geometry": { "type": "MultiLineString", "coordinates": [ [ [ 653357.200967399170622, 6862013.386013510636985 ], [ 653371.140846232068725, 6862006.26890741288662 ], [ 653400.070968225714751, 6861998.025743311271071 ] ] ] } },
{ "type": "Feature", "properties": { "gid": 12897, "streetname": "R DU FOIN", "note": null }, "geometry": { "type": "MultiLineString", "coordinates": [ [ [ 653366.772010748041794, 6862081.304254660382867 ], [ 653482.526190593722276, 6862052.331187028437853 ] ] ] } },
{ "type": "Feature", "properties": { "gid": 12910, "streetname": "IMP DE LA POISSONNERIE", "note": null }, "geometry": { "type": "MultiLineString", "coordinates": [ [ [ 653285.374847453203984, 6861914.991975137032568 ], [ 653292.517166694393381, 6861931.931577035225928 ] ] ] } },
{ "type": "Feature", "properties": { "gid": 12914, "streetname": "R DE TURENNE", "note": null }, "geometry": { "type": "MultiLineString", "coordinates": [ [ [ 653357.200967399170622, 6862013.386013510636985 ], [ 653307.313995473785326, 6861907.807610834017396 ] ] ] } },
{ "type": "Feature", "properties": { "gid": 12918, "streetname": "R DE TURENNE", "note": null }, "geometry": { "type": "MultiLineString", "coordinates": [ [ [ 653281.895813981420361, 6861858.02236839197576 ], [ 653254.427384110516869, 6861802.254506450146437 ] ] ] } },
{ "type": "Feature", "properties": { "gid": 12960, "streetname": "R DE TURENNE", "note": null }, "geometry": { "type": "MultiLineString", "coordinates": [ [ [ 653368.125123418401927, 6862123.292113099247217 ], [ 653366.772010748041794, 6862081.304254660382867 ] ] ] } },
{ "type": "Feature", "properties": { "gid": 12961, "streetname": "R DES FRANCS BOURGEOIS", "note": null }, "geometry": { "type": "MultiLineString", "coordinates": [ [ [ 653248.614342045970261, 6862062.298306548967957 ], [ 653357.200967399170622, 6862013.386013510636985 ] ] ] } },
{ "type": "Feature", "properties": { "gid": 12975, "streetname": "R D'ORMESSON", "note": null }, "geometry": { "type": "MultiLineString", "coordinates": [ [ [ 653263.973127758363262, 6861867.172908812761307 ], [ 653281.895813981420361, 6861858.02236839197576 ] ] ] } },
{ "type": "Feature", "properties": { "gid": 12983, "streetname": "R D'ORMESSON", "note": null }, "geometry": { "type": "MultiLineString", "coordinates": [ [ [ 653238.059572983998805, 6861877.390624699182808 ], [ 653263.973127758363262, 6861867.172908812761307 ] ] ] } },
{ "type": "Feature", "properties": { "gid": 12985, "streetname": "R DE JARENTE", "note": null }, "geometry": { "type": "MultiLineString", "coordinates": [ [ [ 653285.374847453203984, 6861914.991975137032568 ], [ 653307.313995473785326, 6861907.807610834017396 ] ] ] } },
{ "type": "Feature", "properties": { "gid": 13975, "streetname": "PAS JEAN BEAUSIRE", "note": null }, "geometry": { "type": "MultiLineString", "coordinates": [ [ [ 653636.089670177432708, 6861763.04510288964957 ], [ 653626.073763233725913, 6861761.129403646104038 ], [ 653611.117196030449122, 6861766.255119913257658 ], [ 653574.196287325466983, 6861775.565518169663846 ] ] ] } },
{ "type": "Feature", "properties": { "gid": 13978, "streetname": "R DES TOURNELLES", "note": null }, "geometry": { "type": "MultiLineString", "coordinates": [ [ [ 653574.196287325466983, 6861775.565518169663846 ], [ 653577.766944775590673, 6861724.536553451791406 ] ] ] } },
{ "type": "Feature", "properties": { "gid": 13979, "streetname": "R DES TOURNELLES", "note": null }, "geometry": { "type": "MultiLineString", "coordinates": [ [ [ 653571.768526809406467, 6861843.584544885903597 ], [ 653572.457219310337678, 6861806.579506261274219 ], [ 653574.196287325466983, 6861775.565518169663846 ] ] ] } },
{ "type": "Feature", "properties": { "gid": 13981, "streetname": "R DES TOURNELLES", "note": null }, "geometry": { "type": "MultiLineString", "coordinates": [ [ [ 653574.693584642955102, 6861953.557762547396123 ], [ 653571.844228065339848, 6861852.583726231008768 ], [ 653571.768526809406467, 6861843.584544885903597 ] ] ] } }
]
}
