{
"type": "FeatureCollection",
"name": "atlas_jacoubet_1836_voies",
"crs": { "type": "name", "properties": { "name": "urn:ogc:def:crs:EPSG::2154" } },
"features": [
{ "type": "Feature", "properties": { "gid": 350, "nom_entier": "Impasse des Hospitalières" }, "geometry": { "type": "MultiLineString", "coordinates": [ [ [ 653481.203964356915094, 6862058.322220636531711 ], [ 653535.565838352427818, 6862043.469884688034654 ] ] ] } },
{ "type": "Feature", "properties": { "gid": 352, "nom_entier": "Rue du Foin" }, "geometry": { "type": "MultiLineString", "coordinates": [ [ [ 653369.198802120168693, 6862089.50602775812149 ], [ 653481.203964356915094, 6862058.322220636531711 ] ] ] } },
{ "type": "Feature", "properties": { "gid": 2417, "nom_entier": "Place Royale" }, "geometry": { "type": "MultiLineString", "coordinates": [ [ [ 653402.277986989705823, 6862005.104115143418312 ], [ 653462.851743590203114, 6861988.28674226347357 ] ] ] } },
{ "type": "Feature", "properties": { "gid": 2419, "nom_entier": "Place Royale" }, "geometry": { "type": "MultiLineString", "coordinates": [ [ [ 653462.851743590203114, 6861988.28674226347357 ], [ 653527.394841409754008, 6861970.367306700907648 ] ] ] } },
{ "type": "Feature", "properties": { "gid": 2420, "nom_entier": "Place Royale" }, "geometry": { "type": "MultiLineString", "coordinates": [ [ [ 653527.394841409754008, 6861970.367306700907648 ], [ 653494.754868059768341, 6861845.557685387320817 ], [ 653431.749055361840874, 6861862.638261239975691 ] ] ] } },
{ "type": "Feature", "properties": { "gid": 2421, "nom_entier": "Place Royale" }, "geometry": { "type": "MultiLineString", "coordinates": [ [ [ 653431.749055361840874, 6861862.638261239975691 ], [ 653369.636935693561099, 6861879.476526563055813 ], [ 653402.277986989705823, 6862005.104115143418312 ] ] ] } },
{ "type": "Feature", "properties": { "gid": 3928, "nom_entier": "Rue des Tournelles" }, "geometry": { "type": "MultiLineString", "coordinates": [ [ [ 653581.751980414846912, 6861723.018539541400969 ], [ 653578.918325315928087, 6861743.437900924123824 ], [ 653573.94479948701337, 6861794.357589808292687 ], [ 653577.904644380440004, 6861929.734547014348209 ], [ 653577.92180234240368, 6861955.728355348110199 ] ] ] } },
{ "type": "Feature", "properties": { "gid": 3929, "nom_entier": "Rue des Tournelles" }, "geometry": { "type": "MultiLineString", "coordinates": [ [ [ 653577.92180234240368, 6861955.728355348110199 ], [ 653582.101580249262042, 6862069.341239543631673 ] ] ] } },
{ "type": "Feature", "properties": { "gid": 4207, "nom_entier": "Impasse de la Poissonerie" }, "geometry": { "type": "MultiLineString", "coordinates": [ [ [ 653285.556934636319056, 6861915.686279816552997 ], [ 653295.459003594354726, 6861936.004960473626852 ] ] ] } },
{ "type": "Feature", "properties": { "gid": 4209, "nom_entier": "Rue Jarente" }, "geometry": { "type": "MultiLineString", "coordinates": [ [ [ 653259.684178012888879, 6861927.514179673045874 ], [ 653285.556934636319056, 6861915.686279816552997 ] ] ] } },
{ "type": "Feature", "properties": { "gid": 4211, "nom_entier": "Rue Jarente" }, "geometry": { "type": "MultiLineString", "coordinates": [ [ [ 653285.556934636319056, 6861915.686279816552997 ], [ 653305.461137996520847, 6861906.007314644753933 ] ] ] } },
{ "type": "Feature", "properties": { "gid": 4213, "nom_entier": "Rue Necker" }, "geometry": { "type": "MultiLineString", "coordinates": [ [ [ 653264.051069919485599, 6861868.351533459499478 ], [ 653285.556934636319056, 6861915.686279816552997 ] ] ] } },
{ "type": "Feature", "properties": { "gid": 4215, "nom_entier": "Rue d'Ormesson" }, "geometry": { "type": "MultiLineString", "coordinates": [ [ [ 653237.615303992643021, 6861880.922924646176398 ], [ 653264.051069919485599, 6861868.351533459499478 ] ] ] } },
{ "type": "Feature", "properties": { "gid": 4216, "nom_entier": "Rue d'Ormesson" }, "geometry": { "type": "MultiLineString", "coordinates": [ [ [ 653264.051069919485599, 6861868.351533459499478 ], [ 653279.771610020543449, 6861860.875708884559572 ] ] ] } },
{ "type": "Feature", "properties": { "gid": 4220, "nom_entier": "Rue de l'Égout" }, "geometry": { "type": "MultiLineString", "coordinates": [ [ [ 653249.909195954212919, 6861807.121731575578451 ], [ 653262.823512141476385, 6861829.974531747400761 ], [ 653279.771610020543449, 6861860.875708884559572 ] ] ] } },
{ "type": "Feature", "properties": { "gid": 4222, "nom_entier": "Rue de l'Égout" }, "geometry": { "type": "MultiLineString", "coordinates": [ [ [ 653279.771610020543449, 6861860.875708884559572 ], [ 653288.177804045611992, 6861876.202574991621077 ], [ 653305.461137996520847, 6861906.007314644753933 ] ] ] } },
{ "type": "Feature", "properties": { "gid": 4223, "nom_entier": "Rue de l'Égout" }, "geometry": { "type": "MultiLineString", "coordinates": [ [ [ 653305.461137996520847, 6861906.007314644753933 ], [ 653308.471389242331497, 6861911.198427530936897 ], [ 653333.08251280838158, 6861964.815031069330871 ], [ 653353.889386787312105, 6862012.960485557094216 ], [ 653361.741524628829211, 6862020.947856250219047 ] ] ] } },
{ "type": "Feature", "properties": { "gid": 4224, "nom_entier": "Impasse Guémenée" }, "geometry": { "type": "MultiLineString", "coordinates": [ [ [ 653453.705183374346234, 6861708.804621909745038 ], [ 653471.808799637714401, 6861798.016664369963109 ] ] ] } },
{ "type": "Feature", "properties": { "gid": 4225, "nom_entier": "Rue Royale" }, "geometry": { "type": "MultiLineString", "coordinates": [ [ [ 653395.890284678083844, 6861731.756464089266956 ], [ 653431.749055361840874, 6861862.638261239975691 ] ] ] } },
{ "type": "Feature", "properties": { "gid": 4236, "nom_entier": "Rue Neuve Sainte-Catherine" }, "geometry": { "type": "MultiLineString", "coordinates": [ [ [ 653250.091518260887824, 6862063.697434235364199 ], [ 653322.264090342563577, 6862035.037773760966957 ], [ 653361.741524628829211, 6862020.947856250219047 ] ] ] } },
{ "type": "Feature", "properties": { "gid": 4237, "nom_entier": "Rue du Pas de la Mule" }, "geometry": { "type": "MultiLineString", "coordinates": [ [ [ 653527.394841409754008, 6861970.367306700907648 ], [ 653577.92180234240368, 6861955.728355348110199 ] ] ] } },
{ "type": "Feature", "properties": { "gid": 4238, "nom_entier": "Rue du Pas de la Mule" }, "geometry": { "type": "MultiLineString", "coordinates": [ [ [ 653577.92180234240368, 6861955.728355348110199 ], [ 653642.364752224064432, 6861936.644001345150173 ], [ 653664.241045118076727, 6861939.467742413282394 ] ] ] } },
{ "type": "Feature", "properties": { "gid": 4239, "nom_entier": "Rue de la Chaussée des Minimes" }, "geometry": { "type": "MultiLineString", "coordinates": [ [ [ 653462.851743590203114, 6861988.28674226347357 ], [ 653481.203964356915094, 6862058.322220636531711 ] ] ] } },
{ "type": "Feature", "properties": { "gid": 4240, "nom_entier": "Rue de la Chaussée des Minimes" }, "geometry": { "type": "MultiLineString", "coordinates": [ [ [ 653481.203964356915094, 6862058.322220636531711 ], [ 653490.650590036064386, 6862095.356737300753593 ] ] ] } },
{ "type": "Feature", "properties": { "gid": 4249, "nom_entier": "Rue Saint-Louis" }, "geometry": { "type": "MultiLineString", "coordinates": [ [ [ 653361.741524628829211, 6862020.947856250219047 ], [ 653368.035694882972166, 6862051.16232078243047 ], [ 653369.198802120168693, 6862089.50602775812149 ] ] ] } },
{ "type": "Feature", "properties": { "gid": 4250, "nom_entier": "Rue Saint-Louis" }, "geometry": { "type": "MultiLineString", "coordinates": [ [ [ 653369.198802120168693, 6862089.50602775812149 ], [ 653369.521413191454485, 6862100.141420740634203 ], [ 653370.388871763600037, 6862128.104846308939159 ] ] ] } },
{ "type": "Feature", "properties": { "gid": 4261, "nom_entier": "Rue de l'Écharpe" }, "geometry": { "type": "MultiLineString", "coordinates": [ [ [ 653361.741524628829211, 6862020.947856250219047 ], [ 653402.277986989705823, 6862005.104115143418312 ] ] ] } }
]
}
