{
"type": "FeatureCollection",
"name": "atlas_vasserot_1810_adresses",
"crs": { "type": "name", "properties": { "name": "urn:ogc:def:crs:OGC:1.3:CRS84" } },
"features": [
{ "type": "Feature", "properties": { "id": "9674", "geo_fid": 9674, "geo_creati": 1530006283897, "geo_modifi": 1530006283897, "id_alpage": 9674, "id_num_sca": "ADO75CA_ANO513", "quartier": "Marais", "nom_entier": "Rue Neuve Sainte Catherine", "id_parc": "PA10540", "num_voies": "6", "geox": 602017, "geoy": 128458, "oid": 1142727, "arrondissement": "Paris 4e Arrondissement" }, "geometry": { "type": "MultiPoint", "coordinates": [ [ 2.363992109790859, 48.856578895262217 ] ] } },
{ "type": "Feature", "properties": { "id": "9678", "geo_fid": 9678, "geo_creati": 1530006283897, "geo_modifi": 1530006283897, "id_alpage": 9678, "id_num_sca": "ADO75CA_ANO513", "quartier": "Marais", "nom_entier": "Rue Saint Louis", "id_parc": "PA10535", "num_voies": "3", "geox": 602042, "geoy": 128466, "oid": 1142731, "arrondissement": "Paris 3e Arrondissement" }, "geometry": { "type": "MultiPoint", "coordinates": [ [ 2.364327401001654, 48.856651657221654 ] ] } },
{ "type": "Feature", "properties": { "id": "10019", "geo_fid": 10019, "geo_creati": 1530006283924, "geo_modifi": 1530006283924, "id_alpage": 10019, "id_num_sca": "ADO75CA_ANO524", "quartier": "Marais", "nom_entier": "Rue du Foin", "id_parc": "PA10500", "num_voies": "6", "geox": 602084, "geoy": 128507, "oid": 1143072, "arrondissement": "Paris 3e Arrondissement" }, "geometry": { "type": "MultiPoint", "coordinates": [ [ 2.36491361342178, 48.857015721850026 ] ] } },
{ "type": "Feature", "properties": { "id": "9677", "geo_fid": 9677, "geo_creati": 1530006283897, "geo_modifi": 1530006283897, "id_alpage": 9677, "id_num_sca": "ADO75CA_ANO513", "quartier": "Marais", "nom_entier": "Rue Saint Louis", "id_parc": "PA10532", "num_voies": "1", "geox": 602038, "geoy": 128458, "oid": 1142730, "arrondissement": "Paris 3e Arrondissement" }, "geometry": { "type": "MultiPoint", "coordinates": [ [ 2.36427966339712, 48.85657972675935 ] ] } },
{ "type": "Feature", "properties": { "id": "9701", "geo_fid": 9701, "geo_creati": 1530006283897, "geo_modifi": 1530006283897, "id_alpage": 9701, "id_num_sca": "ADO75CA_ANO514", "quartier": "Marais", "nom_entier": "Rue Neuve Sainte Catherine", "id_parc": "PA10734", "num_voies": "3", "geox": 602017, "geoy": 128451, "oid": 1142754, "arrondissement": "Paris 4e Arrondissement" }, "geometry": { "type": "MultiPoint", "coordinates": [ [ 2.363992074445871, 48.856513248392844 ] ] } },
{ "type": "Feature", "properties": { "id": "9826", "geo_fid": 9826, "geo_creati": 1530006283910, "geo_modifi": 1530006283910, "id_alpage": 9826, "id_num_sca": "ADO75CA_ANO517", "quartier": "Marais", "nom_entier": "Rue Royale", "id_parc": "PA10802", "num_voies": "11bis", "geox": 602099, "geoy": 128254, "oid": 1142879, "arrondissement": "Paris 4e Arrondissement" }, "geometry": { "type": "MultiPoint", "coordinates": [ [ 2.365104496076554, 48.854741415780474 ] ] } },
{ "type": "Feature", "properties": { "id": "9862", "geo_fid": 9862, "geo_creati": 1530006283911, "geo_modifi": 1530006283911, "id_alpage": 9862, "id_num_sca": "ADO75CA_ANO518", "quartier": "Marais", "nom_entier": "Rue des Tournelles", "id_parc": "PA10836", "num_voies": "23", "geox": 602255, "geoy": 128313, "oid": 1142915, "arrondissement": "Paris 4e Arrondissement" }, "geometry": { "type": "MultiPoint", "coordinates": [ [ 2.367233448373007, 48.855271446717232 ] ] } },
{ "type": "Feature", "properties": { "id": "9864", "geo_fid": 9864, "geo_creati": 1530006283911, "geo_modifi": 1530006283911, "id_alpage": 9864, "id_num_sca": "ADO75CA_ANO518", "quartier": "Marais", "nom_entier": "Rue des Tournelles", "id_parc": "PA10837", "num_voies": "19", "geox": 602255, "geoy": 128267, "oid": 1142917, "arrondissement": "Paris 4e Arrondissement" }, "geometry": { "type": "MultiPoint", "coordinates": [ [ 2.367234562541281, 48.85485957971796 ] ] } },
{ "type": "Feature", "properties": { "id": "9868", "geo_fid": 9868, "geo_creati": 1530006283911, "geo_modifi": 1530006283911, "id_alpage": 9868, "id_num_sca": "ADO75CA_ANO518", "quartier": "Marais", "nom_entier": "Rue des Tournelles", "id_parc": "PA10842", "num_voies": "13", "geox": 602256, "geoy": 128213, "oid": 1142921, "arrondissement": "Paris 4e Arrondissement" }, "geometry": { "type": "MultiPoint", "coordinates": [ [ 2.367242443217729, 48.854369474255606 ] ] } },
{ "type": "Feature", "properties": { "id": "9845", "geo_fid": 9845, "geo_creati": 1530006283910, "geo_modifi": 1530006283910, "id_alpage": 9845, "id_num_sca": "ADO75CA_ANO518", "quartier": "Marais", "nom_entier": null, "id_parc": "PA10838", "num_voies": "8", "geox": 602179, "geoy": 128272, "oid": 1142898, "arrondissement": "Paris 4e Arrondissement" }, "geometry": { "type": "MultiPoint", "coordinates": [ [ 2.366200250988767, 48.854904810507307 ] ] } },
{ "type": "Feature", "properties": { "id": "9672", "geo_fid": 9672, "geo_creati": 1530006283897, "geo_modifi": 1530006283897, "id_alpage": 9672, "id_num_sca": "ADO75CA_ANO513", "quartier": "Marais", "nom_entier": "Rue Neuve Sainte Catherine", "id_parc": "PA10539", "num_voies": "10", "geox": 602007, "geoy": 128463, "oid": 1142725, "arrondissement": "Paris 4e Arrondissement" }, "geometry": { "type": "MultiPoint", "coordinates": [ [ 2.363853124263823, 48.856618495741998 ] ] } },
{ "type": "Feature", "properties": { "id": "9699", "geo_fid": 9699, "geo_creati": 1530006283897, "geo_modifi": 1530006283897, "id_alpage": 9699, "id_num_sca": "ADO75CA_ANO514", "quartier": "Marais", "nom_entier": "Rue Neuve Sainte Catherine", "id_parc": "PA10732", "num_voies": "7", "geox": 602003, "geoy": 128458, "oid": 1142752, "arrondissement": "Paris 4e Arrondissement" }, "geometry": { "type": "MultiPoint", "coordinates": [ [ 2.363805401320506, 48.856572643974808 ] ] } },
{ "type": "Feature", "properties": { "id": "9707", "geo_fid": 9707, "geo_creati": 1530006283897, "geo_modifi": 1530006283897, "id_alpage": 9707, "id_num_sca": "ADO75CA_ANO514", "quartier": "Marais", "nom_entier": "Rue de l' Egout", "id_parc": "PA10748", "num_voies": "13", "geox": 601990, "geoy": 128352, "oid": 1142760, "arrondissement": "Paris 4e Arrondissement" }, "geometry": { "type": "MultiPoint", "coordinates": [ [ 2.363630457151206, 48.855623053032971 ] ] } },
{ "type": "Feature", "properties": { "id": "9757", "geo_fid": 9757, "geo_creati": 1530006283898, "geo_modifi": 1530006283898, "id_alpage": 9757, "id_num_sca": "ADO75CA_ANO515", "quartier": "Marais", "nom_entier": "Rue de l' Egout", "id_parc": "PA10753", "num_voies": "3", "geox": 601966, "geoy": 128302, "oid": 1142810, "arrondissement": "Paris 4e Arrondissement" }, "geometry": { "type": "MultiPoint", "coordinates": [ [ 2.363299062743799, 48.855169895969432 ] ] } },
{ "type": "Feature", "properties": { "id": "9817", "geo_fid": 9817, "geo_creati": 1530006283910, "geo_modifi": 1530006283910, "id_alpage": 9817, "id_num_sca": "ADO75CA_ANO517", "quartier": "Marais", "nom_entier": null, "id_parc": "PA10796", "num_voies": "19", "geox": 602074, "geoy": 128415, "oid": 1142870, "arrondissement": "Paris 4e Arrondissement" }, "geometry": { "type": "MultiPoint", "coordinates": [ [ 2.364776871125072, 48.856185726594951 ] ] } },
{ "type": "Feature", "properties": { "id": "9822", "geo_fid": 9822, "geo_creati": 1530006283910, "geo_modifi": 1530006283910, "id_alpage": 9822, "id_num_sca": "ADO75CA_ANO517", "quartier": "Marais", "nom_entier": null, "id_parc": "PA10799", "num_voies": "9", "geox": 602051, "geoy": 128318, "oid": 1142875, "arrondissement": "Paris 4e Arrondissement" }, "geometry": { "type": "MultiPoint", "coordinates": [ [ 2.364452047450517, 48.855314409672999 ] ] } },
{ "type": "Feature", "properties": { "id": "9842", "geo_fid": 9842, "geo_creati": 1530006283910, "geo_modifi": 1530006283910, "id_alpage": 9842, "id_num_sca": "ADO75CA_ANO518", "quartier": "Marais", "nom_entier": null, "id_parc": "PA10865", "num_voies": "2", "geox": 602142, "geoy": 128277, "oid": 1142895, "arrondissement": "Paris 4e Arrondissement" }, "geometry": { "type": "MultiPoint", "coordinates": [ [ 2.365693327608077, 48.854949002372081 ] ] } },
{ "type": "Feature", "properties": { "id": "9934", "geo_fid": 9934, "geo_creati": 1530006283912, "geo_modifi": 1530006283912, "id_alpage": 9934, "id_num_sca": "ADO75CA_ANO520", "quartier": "Marais", "nom_entier": "Rue des Tournelles", "id_parc": "PA10892", "num_voies": "30", "geox": 602260, "geoy": 128296, "oid": 1142987, "arrondissement": "Paris 4e Arrondissement" }, "geometry": { "type": "MultiPoint", "coordinates": [ [ 2.367304219643587, 48.855117652533352 ] ] } },
{ "type": "Feature", "properties": { "id": "9964", "geo_fid": 9964, "geo_creati": 1530006283913, "geo_modifi": 1530006283913, "id_alpage": 9964, "id_num_sca": "ADO75CA_ANO521", "quartier": "Marais", "nom_entier": "Rue des Tournelles", "id_parc": "PA10489", "num_voies": "50", "geox": 602262, "geoy": 128401, "oid": 1143017, "arrondissement": "Paris 3e Arrondissement" }, "geometry": { "type": "MultiPoint", "coordinates": [ [ 2.367325232877424, 48.85606188290491 ] ] } },
{ "type": "Feature", "properties": { "id": "9965", "geo_fid": 9965, "geo_creati": 1530006283913, "geo_modifi": 1530006283913, "id_alpage": 9965, "id_num_sca": "ADO75CA_ANO521", "quartier": "Marais", "nom_entier": "Rue des Tournelles", "id_parc": "PA10492", "num_voies": "52", "geox": 602262, "geoy": 128417, "oid": 1143018, "arrondissement": "Paris 3e Arrondissement" }, "geometry": { "type": "MultiPoint", "coordinates": [ [ 2.367333499518404, 48.856210260655537 ] ] } },
{ "type": "Feature", "properties": { "id": "9993", "geo_fid": 9993, "geo_creati": 1530006283914, "geo_modifi": 1530006283914, "id_alpage": 9993, "id_num_sca": "ADO75CA_ANO522", "quartier": "Marais", "nom_entier": "Rue Saint Louis", "id_parc": "PA10509", "num_voies": "6", "geox": 602053, "geoy": 128487, "oid": 1143046, "arrondissement": "Paris 3e Arrondissement" }, "geometry": { "type": "MultiPoint", "coordinates": [ [ 2.364484227547336, 48.856839567798822 ] ] } },
{ "type": "Feature", "properties": { "id": "9997", "geo_fid": 9997, "geo_creati": 1530006283914, "geo_modifi": 1530006283914, "id_alpage": 9997, "id_num_sca": "ADO75CA_ANO522", "quartier": "Marais", "nom_entier": null, "id_parc": "PA10513", "num_voies": "23", "geox": 602107, "geoy": 128427, "oid": 1143050, "arrondissement": "Paris 3e Arrondissement" }, "geometry": { "type": "MultiPoint", "coordinates": [ [ 2.365222567561309, 48.8562935308492 ] ] } },
{ "type": "Feature", "properties": { "id": "10007", "geo_fid": 10007, "geo_creati": 1530006283924, "geo_modifi": 1530006283924, "id_alpage": 10007, "id_num_sca": "ADO75CA_ANO523", "quartier": "Marais", "nom_entier": "Rue des Tournelles", "id_parc": "PA10307", "num_voies": "41", "geox": 602258, "geoy": 128477, "oid": 1143060, "arrondissement": "Paris 3e Arrondissement" }, "geometry": { "type": "MultiPoint", "coordinates": [ [ 2.367279310943429, 48.856745341956973 ] ] } },
{ "type": "Feature", "properties": { "id": "10002", "geo_fid": 10002, "geo_creati": 1530006283924, "geo_modifi": 1530006283924, "id_alpage": 10002, "id_num_sca": "ADO75CA_ANO523", "quartier": "Marais", "nom_entier": null, "id_parc": "PA10495", "num_voies": "24", "geox": 602212, "geoy": 128402, "oid": 1143055, "arrondissement": "Paris 3e Arrondissement" }, "geometry": { "type": "MultiPoint", "coordinates": [ [ 2.366646565395915, 48.856071052527604 ] ] } },
{ "type": "Feature", "properties": { "id": "9729", "geo_fid": 9729, "geo_creati": 1530006283898, "geo_modifi": 1530006283898, "id_alpage": 9729, "id_num_sca": "ADO75CA_ANO515", "quartier": "Marais", "nom_entier": "Rue Necker", "id_parc": "PA10756", "num_voies": "7", "geox": 601958, "geoy": 128327, "oid": 1142782, "arrondissement": "Paris 4e Arrondissement" }, "geometry": { "type": "MultiPoint", "coordinates": [ [ 2.363184707255433, 48.855394740095598 ] ] } },
{ "type": "Feature", "properties": { "id": "9751", "geo_fid": 9751, "geo_creati": 1530006283898, "geo_modifi": 1530006283898, "id_alpage": 9751, "id_num_sca": "ADO75CA_ANO515", "quartier": "Marais", "nom_entier": "Rue Jarente", "id_parc": "PA10286", "num_voies": "3", "geox": 601976, "geoy": 128342, "oid": 1142804, "arrondissement": "Paris 4e Arrondissement" }, "geometry": { "type": "MultiPoint", "coordinates": [ [ 2.36342735719219, 48.855537668957801 ] ] } },
{ "type": "Feature", "properties": { "id": "9754", "geo_fid": 9754, "geo_creati": 1530006283898, "geo_modifi": 1530006283898, "id_alpage": 9754, "id_num_sca": "ADO75CA_ANO515", "quartier": "Marais", "nom_entier": "Rue de l' Egout", "id_parc": "PA10752", "num_voies": "9", "geox": 601977, "geoy": 128324, "oid": 1142807, "arrondissement": "Paris 4e Arrondissement" }, "geometry": { "type": "MultiPoint", "coordinates": [ [ 2.363449076328844, 48.855375794961844 ] ] } },
{ "type": "Feature", "properties": { "id": "9756", "geo_fid": 9756, "geo_creati": 1530006283898, "geo_modifi": 1530006283898, "id_alpage": 9756, "id_num_sca": "ADO75CA_ANO515", "quartier": "Marais", "nom_entier": "Rue de l' Egout", "id_parc": "PA10751", "num_voies": "5", "geox": 601969, "geoy": 128308, "oid": 1142809, "arrondissement": "Paris 4e Arrondissement" }, "geometry": { "type": "MultiPoint", "coordinates": [ [ 2.363344066358147, 48.855231036197253 ] ] } },
{ "type": "Feature", "properties": { "id": "9768", "geo_fid": 9768, "geo_creati": 1530006283899, "geo_modifi": 1530006283899, "id_alpage": 9768, "id_num_sca": "ADO75CA_ANO516", "quartier": "Marais", "nom_entier": "Rue d' Ormesson", "id_parc": "PA10785", "num_voies": "9", "geox": 601932, "geoy": 128303, "oid": 1142821, "arrondissement": "Paris 4e Arrondissement" }, "geometry": { "type": "MultiPoint", "coordinates": [ [ 2.362834361534504, 48.855178094599864 ] ] } },
{ "type": "Feature", "properties": { "id": "9823", "geo_fid": 9823, "geo_creati": 1530006283910, "geo_modifi": 1530006283910, "id_alpage": 9823, "id_num_sca": "ADO75CA_ANO517", "quartier": "Marais", "nom_entier": null, "id_parc": "PA10801", "num_voies": "5", "geox": 602054, "geoy": 128301, "oid": 1142876, "arrondissement": "Paris 4e Arrondissement" }, "geometry": { "type": "MultiPoint", "coordinates": [ [ 2.364496939155002, 48.855168716850208 ] ] } },
{ "type": "Feature", "properties": { "id": "9925", "geo_fid": 9925, "geo_creati": 1530006283912, "geo_modifi": 1530006283912, "id_alpage": 9925, "id_num_sca": "ADO75CA_ANO520", "quartier": "Marais", "nom_entier": "Rue des Tournelles", "id_parc": "PA10902", "num_voies": "12", "geox": 602263, "geoy": 128204, "oid": 1142978, "arrondissement": "Paris 4e Arrondissement" }, "geometry": { "type": "MultiPoint", "coordinates": [ [ 2.367348688166544, 48.854287612496258 ] ] } },
{ "type": "Feature", "properties": { "id": "9927", "geo_fid": 9927, "geo_creati": 1530006283912, "geo_modifi": 1530006283912, "id_alpage": 9927, "id_num_sca": "ADO75CA_ANO520", "quartier": "Marais", "nom_entier": "Rue des Tournelles", "id_parc": "PA10901", "num_voies": "16", "geox": 602259, "geoy": 128229, "oid": 1142980, "arrondissement": "Paris 4e Arrondissement" }, "geometry": { "type": "MultiPoint", "coordinates": [ [ 2.367295678052222, 48.854514243083109 ] ] } },
{ "type": "Feature", "properties": { "id": "9935", "geo_fid": 9935, "geo_creati": 1530006283912, "geo_modifi": 1530006283912, "id_alpage": 9935, "id_num_sca": "ADO75CA_ANO520", "quartier": "Marais", "nom_entier": "Rue des Tournelles", "id_parc": "PA10886", "num_voies": "32", "geox": 602260, "geoy": 128309, "oid": 1142988, "arrondissement": "Paris 4e Arrondissement" }, "geometry": { "type": "MultiPoint", "coordinates": [ [ 2.367305650970307, 48.855230960464425 ] ] } },
{ "type": "Feature", "properties": { "id": "9938", "geo_fid": 9938, "geo_creati": 1530006283912, "geo_modifi": 1530006283912, "id_alpage": 9938, "id_num_sca": "ADO75CA_ANO520", "quartier": "Marais", "nom_entier": "Rue des Tournelles", "id_parc": "PA10888", "num_voies": "38", "geox": 602260, "geoy": 128340, "oid": 1142991, "arrondissement": "Paris 4e Arrondissement" }, "geometry": { "type": "MultiPoint", "coordinates": [ [ 2.367309907985649, 48.855509733752875 ] ] } },
{ "type": "Feature", "properties": { "id": "9968", "geo_fid": 9968, "geo_creati": 1530006283913, "geo_modifi": 1530006283913, "id_alpage": 9968, "id_num_sca": "ADO75CA_ANO521", "quartier": "Marais", "nom_entier": "Rue des Tournelles", "id_parc": "PA10487", "num_voies": "58", "geox": 602263, "geoy": 128460, "oid": 1143021, "arrondissement": "Paris 3e Arrondissement" }, "geometry": { "type": "MultiPoint", "coordinates": [ [ 2.367347360182107, 48.856594246275748 ] ] } },
{ "type": "Feature", "properties": { "id": "9676", "geo_fid": 9676, "geo_creati": 1530006283897, "geo_modifi": 1530006283897, "id_alpage": 9676, "id_num_sca": "ADO75CA_ANO513", "quartier": "Marais", "nom_entier": "Rue Neuve Sainte Catherine", "id_parc": "PA10532", "num_voies": "2", "geox": 602031, "geoy": 128452, "oid": 1142729, "arrondissement": "Paris 4e Arrondissement" }, "geometry": { "type": "MultiPoint", "coordinates": [ [ 2.36417878466687, 48.856523096463754 ] ] } },
{ "type": "Feature", "properties": { "id": "9706", "geo_fid": 9706, "geo_creati": 1530006283897, "geo_modifi": 1530006283897, "id_alpage": 9706, "id_num_sca": "ADO75CA_ANO514", "quartier": "Marais", "nom_entier": "Rue de l' Egout", "id_parc": "PA10746", "num_voies": "15", "geox": 602001, "geoy": 128371, "oid": 1142759, "arrondissement": "Paris 4e Arrondissement" }, "geometry": { "type": "MultiPoint", "coordinates": [ [ 2.363769550506082, 48.855790285423772 ] ] } },
{ "type": "Feature", "properties": { "id": "9820", "geo_fid": 9820, "geo_creati": 1530006283910, "geo_modifi": 1530006283910, "id_alpage": 9820, "id_num_sca": "ADO75CA_ANO517", "quartier": "Marais", "nom_entier": null, "id_parc": "PA10798", "num_voies": "13", "geox": 602060, "geoy": 128358, "oid": 1142873, "arrondissement": "Paris 4e Arrondissement" }, "geometry": { "type": "MultiPoint", "coordinates": [ [ 2.364585797491518, 48.855674086611309 ] ] } },
{ "type": "Feature", "properties": { "id": "9843", "geo_fid": 9843, "geo_creati": 1530006283910, "geo_modifi": 1530006283910, "id_alpage": 9843, "id_num_sca": "ADO75CA_ANO518", "quartier": "Marais", "nom_entier": null, "id_parc": "PA10864", "num_voies": "4", "geox": 602156, "geoy": 128273, "oid": 1142896, "arrondissement": "Paris 4e Arrondissement" }, "geometry": { "type": "MultiPoint", "coordinates": [ [ 2.365892270746209, 48.854912981702597 ] ] } },
{ "type": "Feature", "properties": { "id": "9856", "geo_fid": 9856, "geo_creati": 1530006283911, "geo_modifi": 1530006283911, "id_alpage": 9856, "id_num_sca": "ADO75CA_ANO518", "quartier": "Marais", "nom_entier": "Rue du Pas de la Mûle", "id_parc": "PA10831", "num_voies": "7", "geox": 602251, "geoy": 128387, "oid": 1142909, "arrondissement": "Paris 4e Arrondissement" }, "geometry": { "type": "MultiPoint", "coordinates": [ [ 2.367180700017675, 48.855935123522009 ] ] } },
{ "type": "Feature", "properties": { "id": "9860", "geo_fid": 9860, "geo_creati": 1530006283911, "geo_modifi": 1530006283911, "id_alpage": 9860, "id_num_sca": "ADO75CA_ANO518", "quartier": "Marais", "nom_entier": "Rue des Tournelles", "id_parc": "PA10833", "num_voies": "27", "geox": 602256, "geoy": 128345, "oid": 1142913, "arrondissement": "Paris 4e Arrondissement" }, "geometry": { "type": "MultiPoint", "coordinates": [ [ 2.367251337702689, 48.855558309874858 ] ] } },
{ "type": "Feature", "properties": { "id": "9861", "geo_fid": 9861, "geo_creati": 1530006283911, "geo_modifi": 1530006283911, "id_alpage": 9861, "id_num_sca": "ADO75CA_ANO518", "quartier": "Marais", "nom_entier": "Rue des Tournelles", "id_parc": "PA10834", "num_voies": "25", "geox": 602255, "geoy": 128331, "oid": 1142914, "arrondissement": "Paris 4e Arrondissement" }, "geometry": { "type": "MultiPoint", "coordinates": [ [ 2.36723354498985, 48.855431517159424 ] ] } },
{ "type": "Feature", "properties": { "id": "9930", "geo_fid": 9930, "geo_creati": 1530006283912, "geo_modifi": 1530006283912, "id_alpage": 9930, "id_num_sca": "ADO75CA_ANO520", "quartier": "Marais", "nom_entier": "Rue des Tournelles", "id_parc": "PA10898", "num_voies": "22", "geox": 602259, "geoy": 128253, "oid": 1142983, "arrondissement": "Paris 4e Arrondissement" }, "geometry": { "type": "MultiPoint", "coordinates": [ [ 2.367291723028765, 48.854734565832558 ] ] } },
{ "type": "Feature", "properties": { "id": "10005", "geo_fid": 10005, "geo_creati": 1530006283924, "geo_modifi": 1530006283924, "id_alpage": 10005, "id_num_sca": "ADO75CA_ANO523", "quartier": "Marais", "nom_entier": "Rue des Tournelles", "id_parc": "PA10497", "num_voies": "37", "geox": 602257, "geoy": 128440, "oid": 1143058, "arrondissement": "Paris 3e Arrondissement" }, "geometry": { "type": "MultiPoint", "coordinates": [ [ 2.367269570155058, 48.856412613765045 ] ] } },
{ "type": "Feature", "properties": { "id": "10018", "geo_fid": 10018, "geo_creati": 1530006283924, "geo_modifi": 1530006283924, "id_alpage": 10018, "id_num_sca": "ADO75CA_ANO524", "quartier": "Marais", "nom_entier": "Rue du Foin", "id_parc": "PA10295", "num_voies": "4", "geox": 602110, "geoy": 128501, "oid": 1143071, "arrondissement": "Paris 3e Arrondissement" }, "geometry": { "type": "MultiPoint", "coordinates": [ [ 2.365257012859717, 48.856958983902224 ] ] } },
{ "type": "Feature", "properties": { "id": "9848", "geo_fid": 9848, "geo_creati": 1530006283910, "geo_modifi": 1530006283910, "id_alpage": 9848, "id_num_sca": "ADO75CA_ANO518", "quartier": "Marais", "nom_entier": null, "id_parc": "PA10836", "num_voies": "14", "geox": 602194, "geoy": 128329, "oid": 1142901, "arrondissement": "Paris 4e Arrondissement" }, "geometry": { "type": "MultiPoint", "coordinates": [ [ 2.366410416130763, 48.855414644361723 ] ] } },
{ "type": "Feature", "properties": { "id": "9849", "geo_fid": 9849, "geo_creati": 1530006283910, "geo_modifi": 1530006283910, "id_alpage": 9849, "id_num_sca": "ADO75CA_ANO518", "quartier": "Marais", "nom_entier": null, "id_parc": "PA10835", "num_voies": "16", "geox": 602199, "geoy": 128345, "oid": 1142902, "arrondissement": "Paris 4e Arrondissement" }, "geometry": { "type": "MultiPoint", "coordinates": [ [ 2.366469098677923, 48.855555815095471 ] ] } },
{ "type": "Feature", "properties": { "id": "9770", "geo_fid": 9770, "geo_creati": 1530006283899, "geo_modifi": 1530006283899, "id_alpage": 9770, "id_num_sca": "ADO75CA_ANO516", "quartier": "Marais", "nom_entier": "Rue d' Ormesson", "id_parc": "PA10789", "num_voies": "5", "geox": 601949, "geoy": 128295, "oid": 1142823, "arrondissement": "Paris 4e Arrondissement" }, "geometry": { "type": "MultiPoint", "coordinates": [ [ 2.363064635048539, 48.85511059729631 ] ] } },
{ "type": "Feature", "properties": { "id": "10000", "geo_fid": 10000, "geo_creati": 1530006283914, "geo_modifi": 1530006283914, "id_alpage": 10000, "id_num_sca": "ADO75CA_ANO523", "quartier": "Marais", "nom_entier": null, "id_parc": "PA10499", "num_voies": "28", "geox": 602162, "geoy": 128414, "oid": 1143053, "arrondissement": "Paris 3e Arrondissement" }, "geometry": { "type": "MultiPoint", "coordinates": [ [ 2.365972043774288, 48.856180036297928 ] ] } },
{ "type": "Feature", "properties": { "id": "10001", "geo_fid": 10001, "geo_creati": 1530006283924, "geo_modifi": 1530006283924, "id_alpage": 10001, "id_num_sca": "ADO75CA_ANO523", "quartier": "Marais", "nom_entier": null, "id_parc": "PA10498", "num_voies": "26", "geox": 602190, "geoy": 128407, "oid": 1143054, "arrondissement": "Paris 3e Arrondissement" }, "geometry": { "type": "MultiPoint", "coordinates": [ [ 2.36634541569226, 48.856119690436586 ] ] } },
{ "type": "Feature", "properties": { "id": "9671", "geo_fid": 9671, "geo_creati": 1530006283897, "geo_modifi": 1530006283897, "id_alpage": 9671, "id_num_sca": "ADO75CA_ANO513", "quartier": "Marais", "nom_entier": "Rue Neuve Sainte Catherine", "id_parc": "PA10536", "num_voies": "12", "geox": 602003, "geoy": 128464, "oid": 1142724, "arrondissement": "Paris 4e Arrondissement" }, "geometry": { "type": "MultiPoint", "coordinates": [ [ 2.363798620433291, 48.85663469534169 ] ] } },
{ "type": "Feature", "properties": { "id": "9675", "geo_fid": 9675, "geo_creati": 1530006283897, "geo_modifi": 1530006283897, "id_alpage": 9675, "id_num_sca": "ADO75CA_ANO513", "quartier": "Marais", "nom_entier": "Rue Neuve Sainte Catherine", "id_parc": "PA10533", "num_voies": "4", "geox": 602025, "geoy": 128455, "oid": 1142728, "arrondissement": "Paris 4e Arrondissement" }, "geometry": { "type": "MultiPoint", "coordinates": [ [ 2.364101117167984, 48.85654649585215 ] ] } },
{ "type": "Feature", "properties": { "id": "9731", "geo_fid": 9731, "geo_creati": 1530006283898, "geo_modifi": 1530006283898, "id_alpage": 9731, "id_num_sca": "ADO75CA_ANO515", "quartier": "Marais", "nom_entier": "Rue Necker", "id_parc": "PA10755", "num_voies": "3", "geox": 601952, "geoy": 128314, "oid": 1142784, "arrondissement": "Paris 4e Arrondissement" }, "geometry": { "type": "MultiPoint", "coordinates": [ [ 2.363108330793884, 48.855277852040622 ] ] } },
{ "type": "Feature", "properties": { "id": "9734", "geo_fid": 9734, "geo_creati": 1530006283898, "geo_modifi": 1530006283898, "id_alpage": 9734, "id_num_sca": "ADO75CA_ANO515", "quartier": "Marais", "nom_entier": null, "id_parc": "PA10755", "num_voies": "2", "geox": 601938, "geoy": 128311, "oid": 1142787, "arrondissement": "Paris 4e Arrondissement" }, "geometry": { "type": "MultiPoint", "coordinates": [ [ 2.362910714432965, 48.855250918501781 ] ] } },
{ "type": "Feature", "properties": { "id": "9737", "geo_fid": 9737, "geo_creati": 1530006283898, "geo_modifi": 1530006283898, "id_alpage": 9737, "id_num_sca": "ADO75CA_ANO515", "quartier": "Marais", "nom_entier": null, "id_parc": "PA10758", "num_voies": "8", "geox": 601944, "geoy": 128338, "oid": 1142790, "arrondissement": "Paris 4e Arrondissement" }, "geometry": { "type": "MultiPoint", "coordinates": [ [ 2.363000784838498, 48.85549639953296 ] ] } },
{ "type": "Feature", "properties": { "id": "9752", "geo_fid": 9752, "geo_creati": 1530006283898, "geo_modifi": 1530006283898, "id_alpage": 9752, "id_num_sca": "ADO75CA_ANO515", "quartier": "Marais", "nom_entier": "Rue Jarente", "id_parc": "PA10286", "num_voies": "1", "geox": 601981, "geoy": 128340, "oid": 1142805, "arrondissement": "Paris 4e Arrondissement" }, "geometry": { "type": "MultiPoint", "coordinates": [ [ 2.363496848642309, 48.855517868998596 ] ] } },
{ "type": "Feature", "properties": { "id": "9755", "geo_fid": 9755, "geo_creati": 1530006283898, "geo_modifi": 1530006283898, "id_alpage": 9755, "id_num_sca": "ADO75CA_ANO515", "quartier": "Marais", "nom_entier": "Rue de l' Egout", "id_parc": "PA10754", "num_voies": "7", "geox": 601973, "geoy": 128316, "oid": 1142808, "arrondissement": "Paris 4e Arrondissement" }, "geometry": { "type": "MultiPoint", "coordinates": [ [ 2.363397251944968, 48.855302066527145 ] ] } },
{ "type": "Feature", "properties": { "id": "9761", "geo_fid": 9761, "geo_creati": 1530006283899, "geo_modifi": 1530006283899, "id_alpage": 9761, "id_num_sca": "ADO75CA_ANO515", "quartier": "Marais", "nom_entier": "Rue Necker", "id_parc": "PA10754", "num_voies": "6", "geox": 601961, "geoy": 128323, "oid": 1142814, "arrondissement": "Paris 4e Arrondissement" }, "geometry": { "type": "MultiPoint", "coordinates": [ [ 2.363231025731802, 48.855364154297426 ] ] } },
{ "type": "Feature", "properties": { "id": "9825", "geo_fid": 9825, "geo_creati": 1530006283910, "geo_modifi": 1530006283910, "id_alpage": 9825, "id_num_sca": "ADO75CA_ANO517", "quartier": "Marais", "nom_entier": null, "id_parc": "PA10802", "num_voies": "1", "geox": 602093, "geoy": 128290, "oid": 1142878, "arrondissement": "Paris 4e Arrondissement" }, "geometry": { "type": "MultiPoint", "coordinates": [ [ 2.365032452344583, 48.855067869184474 ] ] } },
{ "type": "Feature", "properties": { "id": "9841", "geo_fid": 9841, "geo_creati": 1530006283910, "geo_modifi": 1530006283910, "id_alpage": 9841, "id_num_sca": "ADO75CA_ANO518", "quartier": "Marais", "nom_entier": "Rue Royale", "id_parc": "PA10866", "num_voies": "18", "geox": 602109, "geoy": 128256, "oid": 1142894, "arrondissement": "Paris 4e Arrondissement" }, "geometry": { "type": "MultiPoint", "coordinates": [ [ 2.365246234837543, 48.854762064343866 ] ] } },
{ "type": "Feature", "properties": { "id": "9853", "geo_fid": 9853, "geo_creati": 1530006283910, "geo_modifi": 1530006283910, "id_alpage": 9853, "id_num_sca": "ADO75CA_ANO518", "quartier": "Marais", "nom_entier": "Rue du Pas de la Mûle", "id_parc": "PA10828", "num_voies": "13", "geox": 602228, "geoy": 128393, "oid": 1142906, "arrondissement": "Paris 4e Arrondissement" }, "geometry": { "type": "MultiPoint", "coordinates": [ [ 2.366871377036897, 48.855987362051657 ] ] } },
{ "type": "Feature", "properties": { "id": "9855", "geo_fid": 9855, "geo_creati": 1530006283910, "geo_modifi": 1530006283910, "id_alpage": 9855, "id_num_sca": "ADO75CA_ANO518", "quartier": "Marais", "nom_entier": "Rue du Pas de la Mûle", "id_parc": "PA10830", "num_voies": "9", "geox": 602245, "geoy": 128388, "oid": 1142908, "arrondissement": "Paris 4e Arrondissement" }, "geometry": { "type": "MultiPoint", "coordinates": [ [ 2.367094852683386, 48.855949534369806 ] ] } },
{ "type": "Feature", "properties": { "id": "9942", "geo_fid": 9942, "geo_creati": 1530006283912, "geo_modifi": 1530006283912, "id_alpage": 9942, "id_num_sca": "ADO75CA_ANO520", "quartier": "Marais", "nom_entier": "Rue des Tournelles", "id_parc": "PA10883", "num_voies": "46", "geox": 602261, "geoy": 128361, "oid": 1142995, "arrondissement": "Paris 4e Arrondissement" }, "geometry": { "type": "MultiPoint", "coordinates": [ [ 2.367312752190307, 48.85570577436372 ] ] } },
{ "type": "Feature", "properties": { "id": "9943", "geo_fid": 9943, "geo_creati": 1530006283912, "geo_modifi": 1530006283912, "id_alpage": 9943, "id_num_sca": "ADO75CA_ANO520", "quartier": "Marais", "nom_entier": "Rue des Tournelles", "id_parc": "PA10881", "num_voies": "48", "geox": 602260, "geoy": 128369, "oid": 1142996, "arrondissement": "Paris 4e Arrondissement" }, "geometry": { "type": "MultiPoint", "coordinates": [ [ 2.36731143293965, 48.85577771649514 ] ] } },
{ "type": "Feature", "properties": { "id": "9844", "geo_fid": 9844, "geo_creati": 1530006283910, "geo_modifi": 1530006283910, "id_alpage": 9844, "id_num_sca": "ADO75CA_ANO518", "quartier": "Marais", "nom_entier": null, "id_parc": "PA10840", "num_voies": "6", "geox": 602171, "geoy": 128269, "oid": 1142897, "arrondissement": "Paris 4e Arrondissement" }, "geometry": { "type": "MultiPoint", "coordinates": [ [ 2.366089850831777, 48.85487696103106 ] ] } },
{ "type": "Feature", "properties": { "id": "9850", "geo_fid": 9850, "geo_creati": 1530006283910, "geo_modifi": 1530006283910, "id_alpage": 9850, "id_num_sca": "ADO75CA_ANO518", "quartier": "Marais", "nom_entier": null, "id_parc": "PA10833", "num_voies": "18", "geox": 602203, "geoy": 128360, "oid": 1142903, "arrondissement": "Paris 4e Arrondissement" }, "geometry": { "type": "MultiPoint", "coordinates": [ [ 2.366525054924761, 48.855695187954659 ] ] } },
{ "type": "Feature", "properties": { "id": "9679", "geo_fid": 9679, "geo_creati": 1530006283897, "geo_modifi": 1530006283897, "id_alpage": 9679, "id_num_sca": "ADO75CA_ANO513", "quartier": "Marais", "nom_entier": "Rue Saint Louis", "id_parc": "PA10534", "num_voies": "5", "geox": 602041, "geoy": 128473, "oid": 1142732, "arrondissement": "Paris 3e Arrondissement" }, "geometry": { "type": "MultiPoint", "coordinates": [ [ 2.364324708218759, 48.856711909104959 ] ] } },
{ "type": "Feature", "properties": { "id": "9680", "geo_fid": 9680, "geo_creati": 1530006283897, "geo_modifi": 1530006283897, "id_alpage": 9680, "id_num_sca": "ADO75CA_ANO513", "quartier": "Marais", "nom_entier": "Rue Saint Louis", "id_parc": "PA10531", "num_voies": "7", "geox": 602042, "geoy": 128484, "oid": 1142733, "arrondissement": "Paris 3e Arrondissement" }, "geometry": { "type": "MultiPoint", "coordinates": [ [ 2.364334301371355, 48.856809927508529 ] ] } },
{ "type": "Feature", "properties": { "id": "9705", "geo_fid": 9705, "geo_creati": 1530006283897, "geo_modifi": 1530006283897, "id_alpage": 9705, "id_num_sca": "ADO75CA_ANO514", "quartier": "Marais", "nom_entier": "Rue de l' Egout", "id_parc": "PA10750", "num_voies": "17", "geox": 602010, "geoy": 128390, "oid": 1142758, "arrondissement": "Paris 4e Arrondissement" }, "geometry": { "type": "MultiPoint", "coordinates": [ [ 2.363901836617338, 48.855968310504068 ] ] } },
{ "type": "Feature", "properties": { "id": "9728", "geo_fid": 9728, "geo_creati": 1530006283898, "geo_modifi": 1530006283898, "id_alpage": 9728, "id_num_sca": "ADO75CA_ANO515", "quartier": "Marais", "nom_entier": "Rue Necker", "id_parc": "PA10285", "num_voies": "9", "geox": 601962, "geoy": 128338, "oid": 1142781, "arrondissement": "Paris 4e Arrondissement" }, "geometry": { "type": "MultiPoint", "coordinates": [ [ 2.363248811979603, 48.855498141813477 ] ] } },
{ "type": "Feature", "properties": { "id": "9730", "geo_fid": 9730, "geo_creati": 1530006283898, "geo_modifi": 1530006283898, "id_alpage": 9730, "id_num_sca": "ADO75CA_ANO515", "quartier": "Marais", "nom_entier": "Rue Necker", "id_parc": "PA10756", "num_voies": "5", "geox": 601955, "geoy": 128322, "oid": 1142783, "arrondissement": "Paris 4e Arrondissement" }, "geometry": { "type": "MultiPoint", "coordinates": [ [ 2.363154703614708, 48.855351581844559 ] ] } },
{ "type": "Feature", "properties": { "id": "9759", "geo_fid": 9759, "geo_creati": 1530006283899, "geo_modifi": 1530006283899, "id_alpage": 9759, "id_num_sca": "ADO75CA_ANO515", "quartier": "Marais", "nom_entier": "Rue Necker", "id_parc": "PA10753", "num_voies": "2", "geox": 601954, "geoy": 128305, "oid": 1142812, "arrondissement": "Paris 4e Arrondissement" }, "geometry": { "type": "MultiPoint", "coordinates": [ [ 2.363128734002615, 48.855204107087232 ] ] } },
{ "type": "Feature", "properties": { "id": "9762", "geo_fid": 9762, "geo_creati": 1530006283899, "geo_modifi": 1530006283899, "id_alpage": 9762, "id_num_sca": "ADO75CA_ANO515", "quartier": "Marais", "nom_entier": "Rue Necker", "id_parc": "PA10752", "num_voies": "8", "geox": 601964, "geoy": 128331, "oid": 1142815, "arrondissement": "Paris 4e Arrondissement" }, "geometry": { "type": "MultiPoint", "coordinates": [ [ 2.363276032265609, 48.855430690185294 ] ] } },
{ "type": "Feature", "properties": { "id": "9824", "geo_fid": 9824, "geo_creati": 1530006283910, "geo_modifi": 1530006283910, "id_alpage": 9824, "id_num_sca": "ADO75CA_ANO517", "quartier": "Marais", "nom_entier": null, "id_parc": "PA10803", "num_voies": "3", "geox": 602071, "geoy": 128296, "oid": 1142877, "arrondissement": "Paris 4e Arrondissement" }, "geometry": { "type": "MultiPoint", "coordinates": [ [ 2.364731309625795, 48.855120999196338 ] ] } },
{ "type": "Feature", "properties": { "id": "9854", "geo_fid": 9854, "geo_creati": 1530006283910, "geo_modifi": 1530006283910, "id_alpage": 9854, "id_num_sca": "ADO75CA_ANO518", "quartier": "Marais", "nom_entier": "Rue du Pas de la Mûle", "id_parc": "PA10829", "num_voies": "11", "geox": 602236, "geoy": 128391, "oid": 1142907, "arrondissement": "Paris 4e Arrondissement" }, "geometry": { "type": "MultiPoint", "coordinates": [ [ 2.366979027596346, 48.855970247875199 ] ] } },
{ "type": "Feature", "properties": { "id": "9863", "geo_fid": 9863, "geo_creati": 1530006283911, "geo_modifi": 1530006283911, "id_alpage": 9863, "id_num_sca": "ADO75CA_ANO518", "quartier": "Marais", "nom_entier": "Rue des Tournelles", "id_parc": "PA10839", "num_voies": "21", "geox": 602254, "geoy": 128289, "oid": 1142916, "arrondissement": "Paris 4e Arrondissement" }, "geometry": { "type": "MultiPoint", "coordinates": [ [ 2.367223778176999, 48.855054724637377 ] ] } },
{ "type": "Feature", "properties": { "id": "9928", "geo_fid": 9928, "geo_creati": 1530006283912, "geo_modifi": 1530006283912, "id_alpage": 9928, "id_num_sca": "ADO75CA_ANO520", "quartier": "Marais", "nom_entier": "Rue des Tournelles", "id_parc": "PA10900", "num_voies": "18", "geox": 602259, "geoy": 128236, "oid": 1142981, "arrondissement": "Paris 4e Arrondissement" }, "geometry": { "type": "MultiPoint", "coordinates": [ [ 2.367290263469937, 48.854574495751507 ] ] } },
{ "type": "Feature", "properties": { "id": "9932", "geo_fid": 9932, "geo_creati": 1530006283912, "geo_modifi": 1530006283912, "id_alpage": 9932, "id_num_sca": "ADO75CA_ANO520", "quartier": "Marais", "nom_entier": "Rue des Tournelles", "id_parc": "PA10889", "num_voies": "26", "geox": 602260, "geoy": 128282, "oid": 1142985, "arrondissement": "Paris 4e Arrondissement" }, "geometry": { "type": "MultiPoint", "coordinates": [ [ 2.367300052995939, 48.854988158421961 ] ] } },
{ "type": "Feature", "properties": { "id": "9936", "geo_fid": 9936, "geo_creati": 1530006283912, "geo_modifi": 1530006283912, "id_alpage": 9936, "id_num_sca": "ADO75CA_ANO520", "quartier": "Marais", "nom_entier": "Rue des Tournelles", "id_parc": "PA10885", "num_voies": "34", "geox": 602260, "geoy": 128327, "oid": 1142989, "arrondissement": "Paris 4e Arrondissement" }, "geometry": { "type": "MultiPoint", "coordinates": [ [ 2.367308478817801, 48.855400022909805 ] ] } },
{ "type": "Feature", "properties": { "id": "9967", "geo_fid": 9967, "geo_creati": 1530006283913, "geo_modifi": 1530006283913, "id_alpage": 9967, "id_num_sca": "ADO75CA_ANO521", "quartier": "Marais", "nom_entier": "Rue des Tournelles", "id_parc": "PA10293", "num_voies": "56", "geox": 602263, "geoy": 128438, "oid": 1143020, "arrondissement": "Paris 3e Arrondissement" }, "geometry": { "type": "MultiPoint", "coordinates": [ [ 2.367341787999147, 48.856394609292614 ] ] } },
{ "type": "Feature", "properties": { "id": "10020", "geo_fid": 10020, "geo_creati": 1530006283924, "geo_modifi": 1530006283924, "id_alpage": 10020, "id_num_sca": "ADO75CA_ANO524", "quartier": "Marais", "nom_entier": "Rue du Foin", "id_parc": "PA10501", "num_voies": "8", "geox": 602064, "geoy": 128512, "oid": 1143073, "arrondissement": "Paris 3e Arrondissement" }, "geometry": { "type": "MultiPoint", "coordinates": [ [ 2.364638349466735, 48.857063449703347 ] ] } },
{ "type": "Feature", "properties": { "id": "9998", "geo_fid": 9998, "geo_creati": 1530006283914, "geo_modifi": 1530006283914, "id_alpage": 9998, "id_num_sca": "ADO75CA_ANO522", "quartier": "Marais", "nom_entier": null, "id_parc": "PA10294", "num_voies": "21", "geox": 602082, "geoy": 128433, "oid": 1143051, "arrondissement": "Paris 3e Arrondissement" }, "geometry": { "type": "MultiPoint", "coordinates": [ [ 2.364884624399256, 48.856351166644416 ] ] } },
{ "type": "Feature", "properties": { "id": "10003", "geo_fid": 10003, "geo_creati": 1530006283924, "geo_modifi": 1530006283924, "id_alpage": 10003, "id_num_sca": "ADO75CA_ANO523", "quartier": "Marais", "nom_entier": "Rue du Pas de la Mûle", "id_parc": "PA10496", "num_voies": "6", "geox": 602238, "geoy": 128396, "oid": 1143056, "arrondissement": "Paris 3e Arrondissement" }, "geometry": { "type": "MultiPoint", "coordinates": [ [ 2.367000859772926, 48.856016105071028 ] ] } },
{ "type": "Feature", "properties": { "id": "10008", "geo_fid": 10008, "geo_creati": 1530006283924, "geo_modifi": 1530006283924, "id_alpage": 10008, "id_num_sca": "ADO75CA_ANO523", "quartier": "Marais", "nom_entier": "Rue de la Chaussée des Minimes", "id_parc": "PA10499", "num_voies": "6", "geox": 602163, "geoy": 128465, "oid": 1143061, "arrondissement": "Paris 3e Arrondissement" }, "geometry": { "type": "MultiPoint", "coordinates": [ [ 2.365979123032027, 48.856638663389859 ] ] } },
{ "type": "Feature", "properties": { "id": "10004", "geo_fid": 10004, "geo_creati": 1530006283924, "geo_modifi": 1530006283924, "id_alpage": 10004, "id_num_sca": "ADO75CA_ANO523", "quartier": "Marais", "nom_entier": "Rue des Tournelles", "id_parc": "PA10496", "num_voies": "35", "geox": 602257, "geoy": 128415, "oid": 1143057, "arrondissement": "Paris 3e Arrondissement" }, "geometry": { "type": "MultiPoint", "coordinates": [ [ 2.367265345347798, 48.856186897527571 ] ] } },
{ "type": "Feature", "properties": { "id": "9846", "geo_fid": 9846, "geo_creati": 1530006283910, "geo_modifi": 1530006283910, "id_alpage": 9846, "id_num_sca": "ADO75CA_ANO518", "quartier": "Marais", "nom_entier": null, "id_parc": "PA10837", "num_voies": "10", "geox": 602183, "geoy": 128287, "oid": 1142899, "arrondissement": "Paris 4e Arrondissement" }, "geometry": { "type": "MultiPoint", "coordinates": [ [ 2.366260290904983, 48.855038786823876 ] ] } },
{ "type": "Feature", "properties": { "id": "9847", "geo_fid": 9847, "geo_creati": 1530006283910, "geo_modifi": 1530006283910, "id_alpage": 9847, "id_num_sca": "ADO75CA_ANO518", "quartier": "Marais", "nom_entier": null, "id_parc": "PA10839", "num_voies": "12", "geox": 602188, "geoy": 128307, "oid": 1142900, "arrondissement": "Paris 4e Arrondissement" }, "geometry": { "type": "MultiPoint", "coordinates": [ [ 2.366324444200394, 48.855215027858335 ] ] } },
{ "type": "Feature", "properties": { "id": "9682", "geo_fid": 9682, "geo_creati": 1530006283897, "geo_modifi": 1530006283897, "id_alpage": 9682, "id_num_sca": "ADO75CA_ANO513", "quartier": "Marais", "nom_entier": "Rue Saint Louis", "id_parc": "PA10283", "num_voies": "11", "geox": 602044, "geoy": 128525, "oid": 1142735, "arrondissement": "Paris 3e Arrondissement" }, "geometry": { "type": "MultiPoint", "coordinates": [ [ 2.364357668527421, 48.857175026514327 ] ] } },
{ "type": "Feature", "properties": { "id": "9703", "geo_fid": 9703, "geo_creati": 1530006283897, "geo_modifi": 1530006283897, "id_alpage": 9703, "id_num_sca": "ADO75CA_ANO514", "quartier": "Marais", "nom_entier": "Rue de l' Egout", "id_parc": "PA10721", "num_voies": "21", "geox": 602024, "geoy": 128425, "oid": 1142756, "arrondissement": "Paris 4e Arrondissement" }, "geometry": { "type": "MultiPoint", "coordinates": [ [ 2.36408870998691, 48.85628391126199 ] ] } },
{ "type": "Feature", "properties": { "id": "9732", "geo_fid": 9732, "geo_creati": 1530006283898, "geo_modifi": 1530006283898, "id_alpage": 9732, "id_num_sca": "ADO75CA_ANO515", "quartier": "Marais", "nom_entier": "Rue Necker", "id_parc": "PA10755", "num_voies": "1", "geox": 601949, "geoy": 128308, "oid": 1142785, "arrondissement": "Paris 4e Arrondissement" }, "geometry": { "type": "MultiPoint", "coordinates": [ [ 2.363072870582923, 48.855223903737873 ] ] } },
{ "type": "Feature", "properties": { "id": "9771", "geo_fid": 9771, "geo_creati": 1530006283899, "geo_modifi": 1530006283899, "id_alpage": 9771, "id_num_sca": "ADO75CA_ANO516", "quartier": "Marais", "nom_entier": "Rue d' Ormesson", "id_parc": "PA10789", "num_voies": "3", "geox": 601953, "geoy": 128293, "oid": 1142824, "arrondissement": "Paris 4e Arrondissement" }, "geometry": { "type": "MultiPoint", "coordinates": [ [ 2.363125950362008, 48.855092597957572 ] ] } },
{ "type": "Feature", "properties": { "id": "9772", "geo_fid": 9772, "geo_creati": 1530006283899, "geo_modifi": 1530006283899, "id_alpage": 9772, "id_num_sca": "ADO75CA_ANO516", "quartier": "Marais", "nom_entier": "Rue d' Ormesson", "id_parc": "PA10789", "num_voies": "1", "geox": 601959, "geoy": 128291, "oid": 1142825, "arrondissement": "Paris 4e Arrondissement" }, "geometry": { "type": "MultiPoint", "coordinates": [ [ 2.363207705297523, 48.855070996847125 ] ] } },
{ "type": "Feature", "properties": { "id": "9857", "geo_fid": 9857, "geo_creati": 1530006283911, "geo_modifi": 1530006283911, "id_alpage": 9857, "id_num_sca": "ADO75CA_ANO518", "quartier": "Marais", "nom_entier": "Rue des Tournelles", "id_parc": "PA10831", "num_voies": "33", "geox": 602257, "geoy": 128379, "oid": 1142910, "arrondissement": "Paris 4e Arrondissement" }, "geometry": { "type": "MultiPoint", "coordinates": [ [ 2.367258335776898, 48.85586316134281 ] ] } },
{ "type": "Feature", "properties": { "id": "9858", "geo_fid": 9858, "geo_creati": 1530006283911, "geo_modifi": 1530006283911, "id_alpage": 9858, "id_num_sca": "ADO75CA_ANO518", "quartier": "Marais", "nom_entier": "Rue des Tournelles", "id_parc": "PA10828", "num_voies": "31", "geox": 602256, "geoy": 128371, "oid": 1142911, "arrondissement": "Paris 4e Arrondissement" }, "geometry": { "type": "MultiPoint", "coordinates": [ [ 2.36725693061435, 48.855793018473094 ] ] } },
{ "type": "Feature", "properties": { "id": "9866", "geo_fid": 9866, "geo_creati": 1530006283911, "geo_modifi": 1530006283911, "id_alpage": 9866, "id_num_sca": "ADO75CA_ANO518", "quartier": "Marais", "nom_entier": "Rue des Tournelles", "id_parc": "PA10841", "num_voies": "15bis", "geox": 602253, "geoy": 128239, "oid": 1142919, "arrondissement": "Paris 4e Arrondissement" }, "geometry": { "type": "MultiPoint", "coordinates": [ [ 2.367208518717127, 48.854608689594663 ] ] } },
{ "type": "Feature", "properties": { "id": "9924", "geo_fid": 9924, "geo_creati": 1530006283912, "geo_modifi": 1530006283912, "id_alpage": 9924, "id_num_sca": "ADO75CA_ANO520", "quartier": "Marais", "nom_entier": "Rue des Tournelles", "id_parc": "PA10907", "num_voies": "10", "geox": 602264, "geoy": 128198, "oid": 1142977, "arrondissement": "Paris 4e Arrondissement" }, "geometry": { "type": "MultiPoint", "coordinates": [ [ 2.36736500952527, 48.854235450397091 ] ] } },
{ "type": "Feature", "properties": { "id": "9944", "geo_fid": 9944, "geo_creati": 1530006283912, "geo_modifi": 1530006283912, "id_alpage": 9944, "id_num_sca": "ADO75CA_ANO520", "quartier": "Marais", "nom_entier": "Rue du Pas de la Mule", "id_parc": "PA10881", "num_voies": "5", "geox": 602269, "geoy": 128381, "oid": 1142997, "arrondissement": "Paris 4e Arrondissement" }, "geometry": { "type": "MultiPoint", "coordinates": [ [ 2.367420520508674, 48.855883801828746 ] ] } },
{ "type": "Feature", "properties": { "id": "9994", "geo_fid": 9994, "geo_creati": 1530006283914, "geo_modifi": 1530006283914, "id_alpage": 9994, "id_num_sca": "ADO75CA_ANO522", "quartier": "Marais", "nom_entier": "Rue Saint Louis", "id_parc": "PA10509", "num_voies": "8", "geox": 602053, "geoy": 128502, "oid": 1143047, "arrondissement": "Paris 3e Arrondissement" }, "geometry": { "type": "MultiPoint", "coordinates": [ [ 2.364485660879871, 48.856968163396253 ] ] } },
{ "type": "Feature", "properties": { "id": "9995", "geo_fid": 9995, "geo_creati": 1530006283914, "geo_modifi": 1530006283914, "id_alpage": 9995, "id_num_sca": "ADO75CA_ANO522", "quartier": "Marais", "nom_entier": "Rue de la Chaussée des Minimes", "id_parc": "PA10514", "num_voies": "1", "geox": 602156, "geoy": 128476, "oid": 1143048, "arrondissement": "Paris 3e Arrondissement" }, "geometry": { "type": "MultiPoint", "coordinates": [ [ 2.365881055468685, 48.856734010909435 ] ] } },
{ "type": "Feature", "properties": { "id": "10009", "geo_fid": 10009, "geo_creati": 1530006283924, "geo_modifi": 1530006283924, "id_alpage": 10009, "id_num_sca": "ADO75CA_ANO523", "quartier": "Marais", "nom_entier": "Rue de la Chaussée des Minimes", "id_parc": "PA10499", "num_voies": "4", "geox": 602157, "geoy": 128443, "oid": 1143062, "arrondissement": "Paris 3e Arrondissement" }, "geometry": { "type": "MultiPoint", "coordinates": [ [ 2.36590814003881, 48.856436344975357 ] ] } },
{ "type": "Feature", "properties": { "id": "10017", "geo_fid": 10017, "geo_creati": 1530006283924, "geo_modifi": 1530006283924, "id_alpage": 10017, "id_num_sca": "ADO75CA_ANO524", "quartier": "Marais", "nom_entier": "Rue du Foin", "id_parc": "PA10505", "num_voies": "2", "geox": 602131, "geoy": 128495, "oid": 1143070, "arrondissement": "Paris 3e Arrondissement" }, "geometry": { "type": "MultiPoint", "coordinates": [ [ 2.365551356148452, 48.85691304837021 ] ] } },
{ "type": "Feature", "properties": { "id": "9736", "geo_fid": 9736, "geo_creati": 1530006283898, "geo_modifi": 1530006283898, "id_alpage": 9736, "id_num_sca": "ADO75CA_ANO515", "quartier": "Marais", "nom_entier": null, "id_parc": "PA10756", "num_voies": "6", "geox": 601945, "geoy": 128329, "oid": 1142789, "arrondissement": "Paris 4e Arrondissement" }, "geometry": { "type": "MultiPoint", "coordinates": [ [ 2.363018460405041, 48.855418158853425 ] ] } },
{ "type": "Feature", "properties": { "id": "9818", "geo_fid": 9818, "geo_creati": 1530006283910, "geo_modifi": 1530006283910, "id_alpage": 9818, "id_num_sca": "ADO75CA_ANO517", "quartier": "Marais", "nom_entier": null, "id_parc": "PA10797", "num_voies": "17", "geox": 602070, "geoy": 128396, "oid": 1142871, "arrondissement": "Paris 4e Arrondissement" }, "geometry": { "type": "MultiPoint", "coordinates": [ [ 2.364716813929885, 48.856015778608466 ] ] } },
{ "type": "Feature", "properties": { "id": "9923", "geo_fid": 9923, "geo_creati": 1530006283912, "geo_modifi": 1530006283912, "id_alpage": 9923, "id_num_sca": "ADO75CA_ANO520", "quartier": "Marais", "nom_entier": "Rue des Tournelles", "id_parc": "PA10906", "num_voies": "8", "geox": 602265, "geoy": 128193, "oid": 1142976, "arrondissement": "Paris 4e Arrondissement" }, "geometry": { "type": "MultiPoint", "coordinates": [ [ 2.367369072139591, 48.854193183527862 ] ] } },
{ "type": "Feature", "properties": { "id": "9991", "geo_fid": 9991, "geo_creati": 1530006283913, "geo_modifi": 1530006283913, "id_alpage": 9991, "id_num_sca": "ADO75CA_ANO522", "quartier": "Marais", "nom_entier": "Rue Saint Louis", "id_parc": "PA10508", "num_voies": "2", "geox": 602051, "geoy": 128452, "oid": 1143044, "arrondissement": "Paris 3e Arrondissement" }, "geometry": { "type": "MultiPoint", "coordinates": [ [ 2.364456798287238, 48.85652392976646 ] ] } },
{ "type": "Feature", "properties": { "id": "9996", "geo_fid": 9996, "geo_creati": 1530006283914, "geo_modifi": 1530006283914, "id_alpage": 9996, "id_num_sca": "ADO75CA_ANO522", "quartier": "Marais", "nom_entier": null, "id_parc": "PA10515", "num_voies": "25", "geox": 602127, "geoy": 128422, "oid": 1143049, "arrondissement": "Paris 3e Arrondissement" }, "geometry": { "type": "MultiPoint", "coordinates": [ [ 2.365488290147621, 48.856251199583163 ] ] } },
{ "type": "Feature", "properties": { "id": "9758", "geo_fid": 9758, "geo_creati": 1530006283899, "geo_modifi": 1530006283899, "id_alpage": 9758, "id_num_sca": "ADO75CA_ANO515", "quartier": "Marais", "nom_entier": "Rue d' Ormesson", "id_parc": "PA10753", "num_voies": "2", "geox": 601958, "geoy": 128297, "oid": 1142811, "arrondissement": "Paris 4e Arrondissement" }, "geometry": { "type": "MultiPoint", "coordinates": [ [ 2.363187293337972, 48.855127655643365 ] ] } },
{ "type": "Feature", "properties": { "id": "9760", "geo_fid": 9760, "geo_creati": 1530006283899, "geo_modifi": 1530006283899, "id_alpage": 9760, "id_num_sca": "ADO75CA_ANO515", "quartier": "Marais", "nom_entier": "Rue Necker", "id_parc": "PA10751", "num_voies": "4", "geox": 601957, "geoy": 128315, "oid": 1142813, "arrondissement": "Paris 4e Arrondissement" }, "geometry": { "type": "MultiPoint", "coordinates": [ [ 2.363181926295707, 48.855288626599844 ] ] } },
{ "type": "Feature", "properties": { "id": "9769", "geo_fid": 9769, "geo_creati": 1530006283899, "geo_modifi": 1530006283899, "id_alpage": 9769, "id_num_sca": "ADO75CA_ANO516", "quartier": "Marais", "nom_entier": "Rue d' Ormesson", "id_parc": "PA10787", "num_voies": "7", "geox": 601941, "geoy": 128298, "oid": 1142822, "arrondissement": "Paris 4e Arrondissement" }, "geometry": { "type": "MultiPoint", "coordinates": [ [ 2.362963804911582, 48.855139396784331 ] ] } },
{ "type": "Feature", "properties": { "id": "9819", "geo_fid": 9819, "geo_creati": 1530006283910, "geo_modifi": 1530006283910, "id_alpage": 9819, "id_num_sca": "ADO75CA_ANO517", "quartier": "Marais", "nom_entier": null, "id_parc": "PA10794", "num_voies": "15", "geox": 602066, "geoy": 128378, "oid": 1142872, "arrondissement": "Paris 4e Arrondissement" }, "geometry": { "type": "MultiPoint", "coordinates": [ [ 2.364659490666891, 48.855860218290772 ] ] } },
{ "type": "Feature", "properties": { "id": "9859", "geo_fid": 9859, "geo_creati": 1530006283911, "geo_modifi": 1530006283911, "id_alpage": 9859, "id_num_sca": "ADO75CA_ANO518", "quartier": "Marais", "nom_entier": "Rue des Tournelles", "id_parc": "PA10832", "num_voies": "29", "geox": 602256, "geoy": 128359, "oid": 1142912, "arrondissement": "Paris 4e Arrondissement" }, "geometry": { "type": "MultiPoint", "coordinates": [ [ 2.367256865428111, 48.855685105814601 ] ] } },
{ "type": "Feature", "properties": { "id": "9865", "geo_fid": 9865, "geo_creati": 1530006283911, "geo_modifi": 1530006283911, "id_alpage": 9865, "id_num_sca": "ADO75CA_ANO518", "quartier": "Marais", "nom_entier": "Rue des Tournelles", "id_parc": "PA10838", "num_voies": "17", "geox": 602254, "geoy": 128254, "oid": 1142918, "arrondissement": "Paris 4e Arrondissement" }, "geometry": { "type": "MultiPoint", "coordinates": [ [ 2.36722222767365, 48.854743576835311 ] ] } },
{ "type": "Feature", "properties": { "id": "9867", "geo_fid": 9867, "geo_creati": 1530006283911, "geo_modifi": 1530006283911, "id_alpage": 9867, "id_num_sca": "ADO75CA_ANO518", "quartier": "Marais", "nom_entier": "Rue des Tournelles", "id_parc": "PA10843", "num_voies": "15", "geox": 602254, "geoy": 128225, "oid": 1142920, "arrondissement": "Paris 4e Arrondissement" }, "geometry": { "type": "MultiPoint", "coordinates": [ [ 2.367223431994309, 48.854480989014171 ] ] } },
{ "type": "Feature", "properties": { "id": "9869", "geo_fid": 9869, "geo_creati": 1530006283911, "geo_modifi": 1530006283911, "id_alpage": 9869, "id_num_sca": "ADO75CA_ANO518", "quartier": "Marais", "nom_entier": "Rue des Tournelles", "id_parc": "PA10844", "num_voies": "11", "geox": 602257, "geoy": 128199, "oid": 1142922, "arrondissement": "Paris 4e Arrondissement" }, "geometry": { "type": "MultiPoint", "coordinates": [ [ 2.367260085089398, 48.854247168587101 ] ] } },
{ "type": "Feature", "properties": { "id": "9931", "geo_fid": 9931, "geo_creati": 1530006283912, "geo_modifi": 1530006283912, "id_alpage": 9931, "id_num_sca": "ADO75CA_ANO520", "quartier": "Marais", "nom_entier": "Rue des Tournelles", "id_parc": "PA10890", "num_voies": "24", "geox": 602259, "geoy": 128267, "oid": 1142984, "arrondissement": "Paris 4e Arrondissement" }, "geometry": { "type": "MultiPoint", "coordinates": [ [ 2.367294520342841, 48.854853269036852 ] ] } },
{ "type": "Feature", "properties": { "id": "9941", "geo_fid": 9941, "geo_creati": 1530006283912, "geo_modifi": 1530006283912, "id_alpage": 9941, "id_num_sca": "ADO75CA_ANO520", "quartier": "Marais", "nom_entier": "Rue des Tournelles", "id_parc": "PA10882", "num_voies": "44", "geox": 602261, "geoy": 128352, "oid": 1142994, "arrondissement": "Paris 4e Arrondissement" }, "geometry": { "type": "MultiPoint", "coordinates": [ [ 2.367315426058063, 48.855620342790942 ] ] } },
{ "type": "Feature", "properties": { "id": "9969", "geo_fid": 9969, "geo_creati": 1530006283913, "geo_modifi": 1530006283913, "id_alpage": 9969, "id_num_sca": "ADO75CA_ANO521", "quartier": "Marais", "nom_entier": "Rue des Tournelles", "id_parc": "PA10485", "num_voies": "60", "geox": 602263, "geoy": 128474, "oid": 1143022, "arrondissement": "Paris 3e Arrondissement" }, "geometry": { "type": "MultiPoint", "coordinates": [ [ 2.36734879982298, 48.856721043292211 ] ] } },
{ "type": "Feature", "properties": { "id": "9727", "geo_fid": 9727, "geo_creati": 1530006283898, "geo_modifi": 1530006283898, "id_alpage": 9727, "id_num_sca": "ADO75CA_ANO515", "quartier": "Marais", "nom_entier": "Rue Jarente", "id_parc": "PA10285", "num_voies": "5", "geox": 601960, "geoy": 128348, "oid": 1142780, "arrondissement": "Paris 4e Arrondissement" }, "geometry": { "type": "MultiPoint", "coordinates": [ [ 2.363218879688651, 48.855591672948719 ] ] } },
{ "type": "Feature", "properties": { "id": "9733", "geo_fid": 9733, "geo_creati": 1530006283898, "geo_modifi": 1530006283898, "id_alpage": 9733, "id_num_sca": "ADO75CA_ANO515", "quartier": "Marais", "nom_entier": "Rue d' Ormesson", "id_parc": "PA10755", "num_voies": "4", "geox": 601942, "geoy": 128304, "oid": 1142786, "arrondissement": "Paris 4e Arrondissement" }, "geometry": { "type": "MultiPoint", "coordinates": [ [ 2.362966557926025, 48.855192453227424 ] ] } },
{ "type": "Feature", "properties": { "id": "10006", "geo_fid": 10006, "geo_creati": 1530006283924, "geo_modifi": 1530006283924, "id_alpage": 10006, "id_num_sca": "ADO75CA_ANO523", "quartier": "Marais", "nom_entier": "Rue des Tournelles", "id_parc": "PA10307", "num_voies": "39", "geox": 602258, "geoy": 128460, "oid": 1143059, "arrondissement": "Paris 3e Arrondissement" }, "geometry": { "type": "MultiPoint", "coordinates": [ [ 2.367273770541658, 48.856597862755727 ] ] } },
{ "type": "Feature", "properties": { "id": "9851", "geo_fid": 9851, "geo_creati": 1530006283910, "geo_modifi": 1530006283910, "id_alpage": 9851, "id_num_sca": "ADO75CA_ANO518", "quartier": "Marais", "nom_entier": null, "id_parc": "PA10832", "num_voies": "20", "geox": 602207, "geoy": 128374, "oid": 1142904, "arrondissement": "Paris 4e Arrondissement" }, "geometry": { "type": "MultiPoint", "coordinates": [ [ 2.366578277409033, 48.855820173132997 ] ] } },
{ "type": "Feature", "properties": { "id": "9852", "geo_fid": 9852, "geo_creati": 1530006283910, "geo_modifi": 1530006283910, "id_alpage": 9852, "id_num_sca": "ADO75CA_ANO518", "quartier": "Marais", "nom_entier": null, "id_parc": "PA10828", "num_voies": "22", "geox": 602210, "geoy": 128386, "oid": 1142905, "arrondissement": "Paris 4e Arrondissement" }, "geometry": { "type": "MultiPoint", "coordinates": [ [ 2.366621952629663, 48.855931671661011 ] ] } },
{ "type": "Feature", "properties": { "id": "9673", "geo_fid": 9673, "geo_creati": 1530006283897, "geo_modifi": 1530006283897, "id_alpage": 9673, "id_num_sca": "ADO75CA_ANO513", "quartier": "Marais", "nom_entier": "Rue Neuve Sainte Catherine", "id_parc": "PA10538", "num_voies": "8", "geox": 602013, "geoy": 128460, "oid": 1142726, "arrondissement": "Paris 4e Arrondissement" }, "geometry": { "type": "MultiPoint", "coordinates": [ [ 2.36393760556583, 48.856594195656037 ] ] } },
{ "type": "Feature", "properties": { "id": "9681", "geo_fid": 9681, "geo_creati": 1530006283897, "geo_modifi": 1530006283897, "id_alpage": 9681, "id_num_sca": "ADO75CA_ANO513", "quartier": "Marais", "nom_entier": "Rue Saint Louis", "id_parc": "PA10283", "num_voies": "9", "geox": 602042, "geoy": 128500, "oid": 1142734, "arrondissement": "Paris 3e Arrondissement" }, "geometry": { "type": "MultiPoint", "coordinates": [ [ 2.364339831115789, 48.856953809764114 ] ] } },
{ "type": "Feature", "properties": { "id": "9704", "geo_fid": 9704, "geo_creati": 1530006283897, "geo_modifi": 1530006283897, "id_alpage": 9704, "id_num_sca": "ADO75CA_ANO514", "quartier": "Marais", "nom_entier": "Rue de l' Egout", "id_parc": "PA10745", "num_voies": "19", "geox": 602016, "geoy": 128407, "oid": 1142757, "arrondissement": "Paris 4e Arrondissement" }, "geometry": { "type": "MultiPoint", "coordinates": [ [ 2.363986408763976, 48.856114872095411 ] ] } },
{ "type": "Feature", "properties": { "id": "9726", "geo_fid": 9726, "geo_creati": 1530006283898, "geo_modifi": 1530006283898, "id_alpage": 9726, "id_num_sca": "ADO75CA_ANO515", "quartier": "Marais", "nom_entier": "Rue Jarente", "id_parc": "PA10757", "num_voies": "7", "geox": 601951, "geoy": 128353, "oid": 1142779, "arrondissement": "Paris 4e Arrondissement" }, "geometry": { "type": "MultiPoint", "coordinates": [ [ 2.36310033761256, 48.855630368583498 ] ] } },
{ "type": "Feature", "properties": { "id": "9735", "geo_fid": 9735, "geo_creati": 1530006283898, "geo_modifi": 1530006283898, "id_alpage": 9735, "id_num_sca": "ADO75CA_ANO515", "quartier": "Marais", "nom_entier": null, "id_parc": "PA10755", "num_voies": "4", "geox": 601941, "geoy": 128319, "oid": 1142788, "arrondissement": "Paris 4e Arrondissement" }, "geometry": { "type": "MultiPoint", "coordinates": [ [ 2.362959813419846, 48.855326446315956 ] ] } },
{ "type": "Feature", "properties": { "id": "9753", "geo_fid": 9753, "geo_creati": 1530006283898, "geo_modifi": 1530006283898, "id_alpage": 9753, "id_num_sca": "ADO75CA_ANO515", "quartier": "Marais", "nom_entier": "Rue de l' Egout", "id_parc": "PA10286", "num_voies": "11", "geox": 601982, "geoy": 128333, "oid": 1142806, "arrondissement": "Paris 4e Arrondissement" }, "geometry": { "type": "MultiPoint", "coordinates": [ [ 2.363510444130275, 48.855456715354684 ] ] } },
{ "type": "Feature", "properties": { "id": "9763", "geo_fid": 9763, "geo_creati": 1530006283899, "geo_modifi": 1530006283899, "id_alpage": 9763, "id_num_sca": "ADO75CA_ANO515", "quartier": "Marais", "nom_entier": "Rue Necker", "id_parc": "PA10286", "num_voies": "10", "geox": 601968, "geoy": 128339, "oid": 1142816, "arrondissement": "Paris 4e Arrondissement" }, "geometry": { "type": "MultiPoint", "coordinates": [ [ 2.363321042224086, 48.855503520960688 ] ] } },
{ "type": "Feature", "properties": { "id": "9821", "geo_fid": 9821, "geo_creati": 1530006283910, "geo_modifi": 1530006283910, "id_alpage": 9821, "id_num_sca": "ADO75CA_ANO517", "quartier": "Marais", "nom_entier": null, "id_parc": "PA10795", "num_voies": "11", "geox": 602055, "geoy": 128337, "oid": 1142874, "arrondissement": "Paris 4e Arrondissement" }, "geometry": { "type": "MultiPoint", "coordinates": [ [ 2.364512105855025, 48.855489753429303 ] ] } },
{ "type": "Feature", "properties": { "id": "9926", "geo_fid": 9926, "geo_creati": 1530006283912, "geo_modifi": 1530006283912, "id_alpage": 9926, "id_num_sca": "ADO75CA_ANO520", "quartier": "Marais", "nom_entier": "Rue des Tournelles", "id_parc": "PA10903", "num_voies": "14", "geox": 602262, "geoy": 128211, "oid": 1142979, "arrondissement": "Paris 4e Arrondissement" }, "geometry": { "type": "MultiPoint", "coordinates": [ [ 2.3673282894147, 48.85435776111369 ] ] } },
{ "type": "Feature", "properties": { "id": "9929", "geo_fid": 9929, "geo_creati": 1530006283912, "geo_modifi": 1530006283912, "id_alpage": 9929, "id_num_sca": "ADO75CA_ANO520", "quartier": "Marais", "nom_entier": "Rue des Tournelles", "id_parc": "PA10899", "num_voies": "20", "geox": 602259, "geoy": 128242, "oid": 1142982, "arrondissement": "Paris 4e Arrondissement" }, "geometry": { "type": "MultiPoint", "coordinates": [ [ 2.367284850505665, 48.854637446236161 ] ] } },
{ "type": "Feature", "properties": { "id": "9933", "geo_fid": 9933, "geo_creati": 1530006283912, "geo_modifi": 1530006283912, "id_alpage": 9933, "id_num_sca": "ADO75CA_ANO520", "quartier": "Marais", "nom_entier": "Rue des Tournelles", "id_parc": "PA10892", "num_voies": "28", "geox": 602260, "geoy": 128291, "oid": 1142986, "arrondissement": "Paris 4e Arrondissement" }, "geometry": { "type": "MultiPoint", "coordinates": [ [ 2.367302828038416, 48.855069991468845 ] ] } },
{ "type": "Feature", "properties": { "id": "9937", "geo_fid": 9937, "geo_creati": 1530006283912, "geo_modifi": 1530006283912, "id_alpage": 9937, "id_num_sca": "ADO75CA_ANO520", "quartier": "Marais", "nom_entier": "Rue des Tournelles", "id_parc": "PA10885", "num_voies": "36", "geox": 602261, "geoy": 128335, "oid": 1142990, "arrondissement": "Paris 4e Arrondissement" }, "geometry": { "type": "MultiPoint", "coordinates": [ [ 2.367312606881995, 48.85546566869936 ] ] } },
{ "type": "Feature", "properties": { "id": "9939", "geo_fid": 9939, "geo_creati": 1530006283912, "geo_modifi": 1530006283912, "id_alpage": 9939, "id_num_sca": "ADO75CA_ANO520", "quartier": "Marais", "nom_entier": "Rue des Tournelles", "id_parc": "PA10884", "num_voies": "40", "geox": 602261, "geoy": 128343, "oid": 1142992, "arrondissement": "Paris 4e Arrondissement" }, "geometry": { "type": "MultiPoint", "coordinates": [ [ 2.367312651508369, 48.855539409015641 ] ] } },
{ "type": "Feature", "properties": { "id": "9940", "geo_fid": 9940, "geo_creati": 1530006283912, "geo_modifi": 1530006283912, "id_alpage": 9940, "id_num_sca": "ADO75CA_ANO520", "quartier": "Marais", "nom_entier": "Rue des Tournelles", "id_parc": "PA10884", "num_voies": "42", "geox": 602261, "geoy": 128346, "oid": 1142993, "arrondissement": "Paris 4e Arrondissement" }, "geometry": { "type": "MultiPoint", "coordinates": [ [ 2.367312671100478, 48.855571782813065 ] ] } },
{ "type": "Feature", "properties": { "id": "9945", "geo_fid": 9945, "geo_creati": 1530006283912, "geo_modifi": 1530006283912, "id_alpage": 9945, "id_num_sca": "ADO75CA_ANO520", "quartier": "Marais", "nom_entier": "Rue du Pas de la Mule", "id_parc": "PA10883", "num_voies": "3", "geox": 602285, "geoy": 128377, "oid": 1142998, "arrondissement": "Paris 4e Arrondissement" }, "geometry": { "type": "MultiPoint", "coordinates": [ [ 2.367641271340692, 48.855848671614851 ] ] } },
{ "type": "Feature", "properties": { "id": "9966", "geo_fid": 9966, "geo_creati": 1530006283913, "geo_modifi": 1530006283913, "id_alpage": 9966, "id_num_sca": "ADO75CA_ANO521", "quartier": "Marais", "nom_entier": "Rue des Tournelles", "id_parc": "PA10293", "num_voies": "54", "geox": 602263, "geoy": 128434, "oid": 1143019, "arrondissement": "Paris 3e Arrondissement" }, "geometry": { "type": "MultiPoint", "coordinates": [ [ 2.367340406672212, 48.856364034398482 ] ] } },
{ "type": "Feature", "properties": { "id": "9992", "geo_fid": 9992, "geo_creati": 1530006283913, "geo_modifi": 1530006283913, "id_alpage": 9992, "id_num_sca": "ADO75CA_ANO522", "quartier": "Marais", "nom_entier": "Rue Saint Louis", "id_parc": "PA10507", "num_voies": "4", "geox": 602052, "geoy": 128470, "oid": 1143045, "arrondissement": "Paris 3e Arrondissement" }, "geometry": { "type": "MultiPoint", "coordinates": [ [ 2.364469151784787, 48.856684896561056 ] ] } },
{ "type": "Feature", "properties": { "id": "9700", "geo_fid": 9700, "geo_creati": 1530006283897, "geo_modifi": 1530006283897, "id_alpage": 9700, "id_num_sca": "ADO75CA_ANO514", "quartier": "Marais", "nom_entier": "Rue Neuve Sainte Catherine", "id_parc": "PA10733", "num_voies": "5", "geox": 602010, "geoy": 128454, "oid": 1142753, "arrondissement": "Paris 4e Arrondissement" }, "geometry": { "type": "MultiPoint", "coordinates": [ [ 2.363904869618727, 48.85654114624473 ] ] } },
{ "type": "Feature", "properties": { "id": "9702", "geo_fid": 9702, "geo_creati": 1530006283897, "geo_modifi": 1530006283897, "id_alpage": 9702, "id_num_sca": "ADO75CA_ANO514", "quartier": "Marais", "nom_entier": "Rue Neuve Sainte Catherine", "id_parc": "PA10720", "num_voies": "1", "geox": 602025, "geoy": 128447, "oid": 1142755, "arrondissement": "Paris 4e Arrondissement" }, "geometry": { "type": "MultiPoint", "coordinates": [ [ 2.364098355090305, 48.856479051080058 ] ] } },
{ "type": "Feature", "properties": { "id": "9999", "geo_fid": 9999, "geo_creati": 1530006283914, "geo_modifi": 1530006283914, "id_alpage": 9999, "id_num_sca": "ADO75CA_ANO522", "quartier": "Marais", "nom_entier": "Rue de l' Echarpe", "id_parc": "PA10511", "num_voies": "2", "geox": 602064, "geoy": 128438, "oid": 1143052, "arrondissement": "Paris 4e Arrondissement" }, "geometry": { "type": "MultiPoint", "coordinates": [ [ 2.364633891629621, 48.856393492908055 ] ] } }
]
}
