{
"type": "FeatureCollection",
"name": "atlas_municipal_1888_adresses",
"crs": { "type": "name", "properties": { "name": "urn:ogc:def:crs:EPSG::2154" } },
"features": [
{ "type": "Feature", "properties": { "gid": 64185, "normalised": "rue de birague", "numbers_va": 9, "is_left_si": "t", "approx_roa": 7.05, "quartier": "quartier marais" }, "geometry": { "type": "Point", "coordinates": [ 653408.200000000069849, 6861813.700000000186265 ] } },
{ "type": "Feature", "properties": { "gid": 64186, "normalised": "rue de birague", "numbers_va": 11, "is_left_si": "t", "approx_roa": 7.05, "quartier": "quartier marais" }, "geometry": { "type": "Point", "coordinates": [ 653413.100000000093132, 6861831.900000000372529 ] } },
{ "type": "Feature", "properties": { "gid": 64187, "normalised": "rue de birague", "numbers_va": 13, "is_left_si": "t", "approx_roa": 7.05, "quartier": "quartier marais" }, "geometry": { "type": "Point", "coordinates": [ 653417.200000000069849, 6861850.400000000372529 ] } },
{ "type": "Feature", "properties": { "gid": 64193, "normalised": "rue de birague", "numbers_va": 12, "is_left_si": "f", "approx_roa": 7.05, "quartier": "quartier marais" }, "geometry": { "type": "Point", "coordinates": [ 653427.200000000069849, 6861814.700000000186265 ] } },
{ "type": "Feature", "properties": { "gid": 64194, "normalised": "rue de birague", "numbers_va": 14, "is_left_si": "f", "approx_roa": 7.05, "quartier": "quartier marais" }, "geometry": { "type": "Point", "coordinates": [ 653431.300000000046566, 6861830.5 ] } },
{ "type": "Feature", "properties": { "gid": 64195, "normalised": "rue de birague", "numbers_va": 16, "is_left_si": "f", "approx_roa": 7.05, "quartier": "quartier marais" }, "geometry": { "type": "Point", "coordinates": [ 653434.800000000046566, 6861846.400000000372529 ] } },
{ "type": "Feature", "properties": { "gid": 66549, "normalised": "rue de turenne", "numbers_va": 24, "is_left_si": "t", "approx_roa": 6.37, "quartier": "quartier marais" }, "geometry": { "type": "Point", "coordinates": [ 653367.900000000023283, 6862017.400000000372529 ] } },
{ "type": "Feature", "properties": { "gid": 66550, "normalised": "rue de turenne", "numbers_va": 26, "is_left_si": "t", "approx_roa": 6.37, "quartier": "quartier marais" }, "geometry": { "type": "Point", "coordinates": [ 653372.200000000069849, 6862035.5 ] } },
{ "type": "Feature", "properties": { "gid": 66551, "normalised": "rue de turenne", "numbers_va": 28, "is_left_si": "t", "approx_roa": 6.37, "quartier": "quartier marais" }, "geometry": { "type": "Point", "coordinates": [ 653373.400000000023283, 6862054.300000000745058 ] } },
{ "type": "Feature", "properties": { "gid": 66552, "normalised": "rue de turenne", "numbers_va": 30, "is_left_si": "t", "approx_roa": 6.37, "quartier": "quartier marais" }, "geometry": { "type": "Point", "coordinates": [ 653374.600000000093132, 6862073.100000000558794 ] } },
{ "type": "Feature", "properties": { "gid": 66578, "normalised": "rue de turenne", "numbers_va": 8, "is_left_si": "t", "approx_roa": 5.82, "quartier": "quartier marais" }, "geometry": { "type": "Point", "coordinates": [ 653294.0, 6861864.5 ] } },
{ "type": "Feature", "properties": { "gid": 66579, "normalised": "rue de turenne", "numbers_va": 10, "is_left_si": "t", "approx_roa": 5.82, "quartier": "quartier marais" }, "geometry": { "type": "Point", "coordinates": [ 653304.0, 6861884.100000000558794 ] } },
{ "type": "Feature", "properties": { "gid": 66580, "normalised": "rue de turenne", "numbers_va": 12, "is_left_si": "t", "approx_roa": 5.82, "quartier": "quartier marais" }, "geometry": { "type": "Point", "coordinates": [ 653314.0, 6861903.800000000745058 ] } },
{ "type": "Feature", "properties": { "gid": 66581, "normalised": "rue de turenne", "numbers_va": 14, "is_left_si": "t", "approx_roa": 5.82, "quartier": "quartier marais" }, "geometry": { "type": "Point", "coordinates": [ 653323.5, 6861923.800000000745058 ] } },
{ "type": "Feature", "properties": { "gid": 66582, "normalised": "rue de turenne", "numbers_va": 16, "is_left_si": "t", "approx_roa": 5.82, "quartier": "quartier marais" }, "geometry": { "type": "Point", "coordinates": [ 653332.900000000023283, 6861943.700000000186265 ] } },
{ "type": "Feature", "properties": { "gid": 66583, "normalised": "rue de turenne", "numbers_va": 18, "is_left_si": "t", "approx_roa": 5.82, "quartier": "quartier marais" }, "geometry": { "type": "Point", "coordinates": [ 653342.400000000023283, 6861963.700000000186265 ] } },
{ "type": "Feature", "properties": { "gid": 66584, "normalised": "rue de turenne", "numbers_va": 20, "is_left_si": "t", "approx_roa": 5.82, "quartier": "quartier marais" }, "geometry": { "type": "Point", "coordinates": [ 653351.800000000046566, 6861983.700000000186265 ] } },
{ "type": "Feature", "properties": { "gid": 66585, "normalised": "rue de turenne", "numbers_va": 22, "is_left_si": "t", "approx_roa": 5.82, "quartier": "quartier marais" }, "geometry": { "type": "Point", "coordinates": [ 653361.200000000069849, 6862003.600000000558794 ] } },
{ "type": "Feature", "properties": { "gid": 66612, "normalised": "rue de turenne", "numbers_va": 32, "is_left_si": "t", "approx_roa": 5.89, "quartier": "quartier marais" }, "geometry": { "type": "Point", "coordinates": [ 653374.900000000023283, 6862088.200000000186265 ] } },
{ "type": "Feature", "properties": { "gid": 66614, "normalised": "rue de turenne", "numbers_va": 5, "is_left_si": "f", "approx_roa": 5.48, "quartier": "quartier marais" }, "geometry": { "type": "Point", "coordinates": [ 653278.200000000069849, 6861867.300000000745058 ] } },
{ "type": "Feature", "properties": { "gid": 66615, "normalised": "rue de turenne", "numbers_va": 7, "is_left_si": "f", "approx_roa": 5.48, "quartier": "quartier marais" }, "geometry": { "type": "Point", "coordinates": [ 653283.100000000093132, 6861876.800000000745058 ] } },
{ "type": "Feature", "properties": { "gid": 66616, "normalised": "rue de turenne", "numbers_va": 9, "is_left_si": "f", "approx_roa": 5.48, "quartier": "quartier marais" }, "geometry": { "type": "Point", "coordinates": [ 653287.900000000023283, 6861886.300000000745058 ] } },
{ "type": "Feature", "properties": { "gid": 66617, "normalised": "rue de turenne", "numbers_va": 11, "is_left_si": "f", "approx_roa": 5.48, "quartier": "quartier marais" }, "geometry": { "type": "Point", "coordinates": [ 653292.800000000046566, 6861895.800000000745058 ] } },
{ "type": "Feature", "properties": { "gid": 66618, "normalised": "rue de turenne", "numbers_va": 13, "is_left_si": "f", "approx_roa": 5.48, "quartier": "quartier marais" }, "geometry": { "type": "Point", "coordinates": [ 653297.600000000093132, 6861905.300000000745058 ] } },
{ "type": "Feature", "properties": { "gid": 66641, "normalised": "rue de turenne", "numbers_va": 15, "is_left_si": "f", "approx_roa": 5.82, "quartier": "quartier marais" }, "geometry": { "type": "Point", "coordinates": [ 653303.300000000046566, 6861917.600000000558794 ] } },
{ "type": "Feature", "properties": { "gid": 66642, "normalised": "rue de turenne", "numbers_va": 17, "is_left_si": "f", "approx_roa": 5.82, "quartier": "quartier marais" }, "geometry": { "type": "Point", "coordinates": [ 653310.600000000093132, 6861933.0 ] } },
{ "type": "Feature", "properties": { "gid": 66643, "normalised": "rue de turenne", "numbers_va": 19, "is_left_si": "f", "approx_roa": 5.82, "quartier": "quartier marais" }, "geometry": { "type": "Point", "coordinates": [ 653317.900000000023283, 6861948.5 ] } },
{ "type": "Feature", "properties": { "gid": 66644, "normalised": "rue de turenne", "numbers_va": 21, "is_left_si": "f", "approx_roa": 5.82, "quartier": "quartier marais" }, "geometry": { "type": "Point", "coordinates": [ 653325.200000000069849, 6861963.900000000372529 ] } },
{ "type": "Feature", "properties": { "gid": 66645, "normalised": "rue de turenne", "numbers_va": 23, "is_left_si": "f", "approx_roa": 5.82, "quartier": "quartier marais" }, "geometry": { "type": "Point", "coordinates": [ 653332.5, 6861979.400000000372529 ] } },
{ "type": "Feature", "properties": { "gid": 66646, "normalised": "rue de turenne", "numbers_va": 25, "is_left_si": "f", "approx_roa": 5.82, "quartier": "quartier marais" }, "geometry": { "type": "Point", "coordinates": [ 653339.800000000046566, 6861994.900000000372529 ] } },
{ "type": "Feature", "properties": { "gid": 66647, "normalised": "rue de turenne", "numbers_va": 27, "is_left_si": "f", "approx_roa": 5.82, "quartier": "quartier marais" }, "geometry": { "type": "Point", "coordinates": [ 653347.100000000093132, 6862010.300000000745058 ] } },
{ "type": "Feature", "properties": { "gid": 66649, "normalised": "rue de turenne", "numbers_va": 3, "is_left_si": "f", "approx_roa": 6.44, "quartier": "quartier marais" }, "geometry": { "type": "Point", "coordinates": [ 653270.900000000023283, 6861854.800000000745058 ] } },
{ "type": "Feature", "properties": { "gid": 66670, "normalised": "rue de turenne", "numbers_va": 29, "is_left_si": "f", "approx_roa": 6.05, "quartier": "quartier marais" }, "geometry": { "type": "Point", "coordinates": [ 653352.5, 6862023.200000000186265 ] } },
{ "type": "Feature", "properties": { "gid": 66671, "normalised": "rue de turenne", "numbers_va": 31, "is_left_si": "f", "approx_roa": 6.05, "quartier": "quartier marais" }, "geometry": { "type": "Point", "coordinates": [ 653356.0, 6862039.600000000558794 ] } },
{ "type": "Feature", "properties": { "gid": 66672, "normalised": "rue de turenne", "numbers_va": 33, "is_left_si": "f", "approx_roa": 6.05, "quartier": "quartier marais" }, "geometry": { "type": "Point", "coordinates": [ 653357.100000000093132, 6862056.5 ] } },
{ "type": "Feature", "properties": { "gid": 66673, "normalised": "rue de turenne", "numbers_va": 35, "is_left_si": "f", "approx_roa": 6.05, "quartier": "quartier marais" }, "geometry": { "type": "Point", "coordinates": [ 653358.200000000069849, 6862073.400000000372529 ] } },
{ "type": "Feature", "properties": { "gid": 66674, "normalised": "rue de turenne", "numbers_va": 37, "is_left_si": "f", "approx_roa": 6.05, "quartier": "quartier marais" }, "geometry": { "type": "Point", "coordinates": [ 653359.0, 6862090.400000000372529 ] } },
{ "type": "Feature", "properties": { "gid": 67989, "normalised": "rue caron", "numbers_va": 8, "is_left_si": "f", "approx_roa": 5.9, "quartier": "quartier marais" }, "geometry": { "type": "Point", "coordinates": [ 653265.0, 6861917.600000000558794 ] } },
{ "type": "Feature", "properties": { "gid": 70547, "normalised": "rue du foin", "numbers_va": 2, "is_left_si": "t", "approx_roa": 5.32, "quartier": "quartier marais" }, "geometry": { "type": "Point", "coordinates": [ 653478.0, 6862061.0 ] } },
{ "type": "Feature", "properties": { "gid": 70548, "normalised": "rue du foin", "numbers_va": 4, "is_left_si": "t", "approx_roa": 5.32, "quartier": "quartier marais" }, "geometry": { "type": "Point", "coordinates": [ 653452.200000000069849, 6862067.5 ] } },
{ "type": "Feature", "properties": { "gid": 70549, "normalised": "rue du foin", "numbers_va": 6, "is_left_si": "t", "approx_roa": 5.32, "quartier": "quartier marais" }, "geometry": { "type": "Point", "coordinates": [ 653426.400000000023283, 6862073.900000000372529 ] } },
{ "type": "Feature", "properties": { "gid": 70550, "normalised": "rue du foin", "numbers_va": 8, "is_left_si": "t", "approx_roa": 5.32, "quartier": "quartier marais" }, "geometry": { "type": "Point", "coordinates": [ 653400.600000000093132, 6862080.400000000372529 ] } },
{ "type": "Feature", "properties": { "gid": 70551, "normalised": "rue du foin", "numbers_va": 10, "is_left_si": "t", "approx_roa": 5.32, "quartier": "quartier marais" }, "geometry": { "type": "Point", "coordinates": [ 653374.900000000023283, 6862086.800000000745058 ] } },
{ "type": "Feature", "properties": { "gid": 70552, "normalised": "rue du foin", "numbers_va": 1, "is_left_si": "f", "approx_roa": 5.32, "quartier": "quartier marais" }, "geometry": { "type": "Point", "coordinates": [ 653474.400000000023283, 6862046.800000000745058 ] } },
{ "type": "Feature", "properties": { "gid": 70553, "normalised": "rue du foin", "numbers_va": 3, "is_left_si": "f", "approx_roa": 5.32, "quartier": "quartier marais" }, "geometry": { "type": "Point", "coordinates": [ 653453.800000000046566, 6862052.0 ] } },
{ "type": "Feature", "properties": { "gid": 70554, "normalised": "rue du foin", "numbers_va": 5, "is_left_si": "f", "approx_roa": 5.32, "quartier": "quartier marais" }, "geometry": { "type": "Point", "coordinates": [ 653433.200000000069849, 6862057.100000000558794 ] } },
{ "type": "Feature", "properties": { "gid": 70555, "normalised": "rue du foin", "numbers_va": 7, "is_left_si": "f", "approx_roa": 5.32, "quartier": "quartier marais" }, "geometry": { "type": "Point", "coordinates": [ 653412.600000000093132, 6862062.300000000745058 ] } },
{ "type": "Feature", "properties": { "gid": 70556, "normalised": "rue du foin", "numbers_va": 9, "is_left_si": "f", "approx_roa": 5.32, "quartier": "quartier marais" }, "geometry": { "type": "Point", "coordinates": [ 653391.900000000023283, 6862067.5 ] } },
{ "type": "Feature", "properties": { "gid": 70557, "normalised": "rue du foin", "numbers_va": 11, "is_left_si": "f", "approx_roa": 5.32, "quartier": "quartier marais" }, "geometry": { "type": "Point", "coordinates": [ 653371.300000000046566, 6862072.600000000558794 ] } },
{ "type": "Feature", "properties": { "gid": 73416, "normalised": "place des vosges", "numbers_va": 14, "is_left_si": "t", "approx_roa": 8.06, "quartier": "quartier marais" }, "geometry": { "type": "Point", "coordinates": [ 653455.100000000093132, 6861993.700000000186265 ] } },
{ "type": "Feature", "properties": { "gid": 73417, "normalised": "place des vosges", "numbers_va": 16, "is_left_si": "t", "approx_roa": 8.06, "quartier": "quartier marais" }, "geometry": { "type": "Point", "coordinates": [ 653433.600000000093132, 6861999.5 ] } },
{ "type": "Feature", "properties": { "gid": 73418, "normalised": "place des vosges", "numbers_va": 8, "is_left_si": "t", "approx_roa": 8.39, "quartier": "quartier marais" }, "geometry": { "type": "Point", "coordinates": [ 653516.5, 6861978.5 ] } },
{ "type": "Feature", "properties": { "gid": 73419, "normalised": "place des vosges", "numbers_va": 10, "is_left_si": "t", "approx_roa": 8.39, "quartier": "quartier marais" }, "geometry": { "type": "Point", "coordinates": [ 653495.400000000023283, 6861983.800000000745058 ] } },
{ "type": "Feature", "properties": { "gid": 73420, "normalised": "place des vosges", "numbers_va": 12, "is_left_si": "t", "approx_roa": 8.39, "quartier": "quartier marais" }, "geometry": { "type": "Point", "coordinates": [ 653474.300000000046566, 6861989.100000000558794 ] } },
{ "type": "Feature", "properties": { "gid": 73421, "normalised": "place des vosges", "numbers_va": 18, "is_left_si": "t", "approx_roa": 9.4, "quartier": "quartier marais" }, "geometry": { "type": "Point", "coordinates": [ 653414.0, 6862006.100000000558794 ] } },
{ "type": "Feature", "properties": { "gid": 73422, "normalised": "place des vosges", "numbers_va": 2, "is_left_si": "t", "approx_roa": 9.4, "quartier": "quartier marais" }, "geometry": { "type": "Point", "coordinates": [ 653425.100000000093132, 6861845.700000000186265 ] } },
{ "type": "Feature", "properties": { "gid": 73423, "normalised": "place des vosges", "numbers_va": 4, "is_left_si": "t", "approx_roa": 9.4, "quartier": "quartier marais" }, "geometry": { "type": "Point", "coordinates": [ 653498.100000000093132, 6861830.200000000186265 ] } },
{ "type": "Feature", "properties": { "gid": 73424, "normalised": "place des vosges", "numbers_va": 6, "is_left_si": "t", "approx_roa": 9.4, "quartier": "quartier marais" }, "geometry": { "type": "Point", "coordinates": [ 653516.900000000023283, 6861890.300000000745058 ] } },
{ "type": "Feature", "properties": { "gid": 73690, "normalised": "rue des francs bourgeois", "numbers_va": 2, "is_left_si": "t", "approx_roa": 4.98, "quartier": "quartier marais" }, "geometry": { "type": "Point", "coordinates": [ 653354.5, 6862022.300000000745058 ] } },
{ "type": "Feature", "properties": { "gid": 73691, "normalised": "rue des francs bourgeois", "numbers_va": 4, "is_left_si": "t", "approx_roa": 4.98, "quartier": "quartier marais" }, "geometry": { "type": "Point", "coordinates": [ 653335.0, 6862031.0 ] } },
{ "type": "Feature", "properties": { "gid": 73707, "normalised": "rue des francs bourgeois", "numbers_va": 1, "is_left_si": "f", "approx_roa": 4.98, "quartier": "quartier marais" }, "geometry": { "type": "Point", "coordinates": [ 653348.800000000046566, 6862009.5 ] } },
{ "type": "Feature", "properties": { "gid": 73708, "normalised": "rue des francs bourgeois", "numbers_va": 3, "is_left_si": "f", "approx_roa": 4.98, "quartier": "quartier marais" }, "geometry": { "type": "Point", "coordinates": [ 653339.0, 6862013.900000000372529 ] } },
{ "type": "Feature", "properties": { "gid": 73709, "normalised": "rue des francs bourgeois", "numbers_va": 5, "is_left_si": "f", "approx_roa": 4.98, "quartier": "quartier marais" }, "geometry": { "type": "Point", "coordinates": [ 653329.300000000046566, 6862018.300000000745058 ] } },
{ "type": "Feature", "properties": { "gid": 73710, "normalised": "rue des francs bourgeois", "numbers_va": 7, "is_left_si": "f", "approx_roa": 4.98, "quartier": "quartier marais" }, "geometry": { "type": "Point", "coordinates": [ 653319.5, 6862022.700000000186265 ] } },
{ "type": "Feature", "properties": { "gid": 76121, "normalised": "rue des vosges", "numbers_va": 18, "is_left_si": "t", "approx_roa": 6.11, "quartier": "quartier marais" }, "geometry": { "type": "Point", "coordinates": [ 653395.200000000069849, 6862007.800000000745058 ] } },
{ "type": "Feature", "properties": { "gid": 76122, "normalised": "rue des vosges", "numbers_va": 20, "is_left_si": "t", "approx_roa": 6.11, "quartier": "quartier marais" }, "geometry": { "type": "Point", "coordinates": [ 653381.100000000093132, 6862011.900000000372529 ] } },
{ "type": "Feature", "properties": { "gid": 76123, "normalised": "rue des vosges", "numbers_va": 22, "is_left_si": "t", "approx_roa": 6.11, "quartier": "quartier marais" }, "geometry": { "type": "Point", "coordinates": [ 653367.5, 6862017.300000000745058 ] } },
{ "type": "Feature", "properties": { "gid": 76125, "normalised": "rue des vosges", "numbers_va": 4, "is_left_si": "t", "approx_roa": 7.88, "quartier": "quartier marais" }, "geometry": { "type": "Point", "coordinates": [ 653586.400000000023283, 6861960.800000000745058 ] } },
{ "type": "Feature", "properties": { "gid": 76126, "normalised": "rue des vosges", "numbers_va": 6, "is_left_si": "t", "approx_roa": 6.56, "quartier": "quartier marais" }, "geometry": { "type": "Point", "coordinates": [ 653569.0, 6861963.800000000745058 ] } },
{ "type": "Feature", "properties": { "gid": 76127, "normalised": "rue des vosges", "numbers_va": 8, "is_left_si": "t", "approx_roa": 6.56, "quartier": "quartier marais" }, "geometry": { "type": "Point", "coordinates": [ 653533.5, 6861972.400000000372529 ] } },
{ "type": "Feature", "properties": { "gid": 76131, "normalised": "rue des vosges", "numbers_va": 7, "is_left_si": "f", "approx_roa": 7.88, "quartier": "quartier marais" }, "geometry": { "type": "Point", "coordinates": [ 653581.5, 6861941.600000000558794 ] } },
{ "type": "Feature", "properties": { "gid": 76132, "normalised": "rue des vosges", "numbers_va": 9, "is_left_si": "f", "approx_roa": 6.56, "quartier": "quartier marais" }, "geometry": { "type": "Point", "coordinates": [ 653565.0, 6861947.100000000558794 ] } },
{ "type": "Feature", "properties": { "gid": 76133, "normalised": "rue des vosges", "numbers_va": 11, "is_left_si": "f", "approx_roa": 6.56, "quartier": "quartier marais" }, "geometry": { "type": "Point", "coordinates": [ 653553.100000000093132, 6861950.0 ] } },
{ "type": "Feature", "properties": { "gid": 76134, "normalised": "rue des vosges", "numbers_va": 13, "is_left_si": "f", "approx_roa": 6.56, "quartier": "quartier marais" }, "geometry": { "type": "Point", "coordinates": [ 653541.300000000046566, 6861952.900000000372529 ] } },
{ "type": "Feature", "properties": { "gid": 76135, "normalised": "rue des vosges", "numbers_va": 15, "is_left_si": "f", "approx_roa": 6.56, "quartier": "quartier marais" }, "geometry": { "type": "Point", "coordinates": [ 653529.5, 6861955.800000000745058 ] } },
{ "type": "Feature", "properties": { "gid": 76854, "normalised": "rue d ormesson", "numbers_va": 2, "is_left_si": "t", "approx_roa": 4.64, "quartier": "quartier marais" }, "geometry": { "type": "Point", "coordinates": [ 653261.300000000046566, 6861875.400000000372529 ] } },
{ "type": "Feature", "properties": { "gid": 76861, "normalised": "rue d ormesson", "numbers_va": 1, "is_left_si": "f", "approx_roa": 4.64, "quartier": "quartier marais" }, "geometry": { "type": "Point", "coordinates": [ 653256.400000000023283, 6861863.0 ] } },
{ "type": "Feature", "properties": { "gid": 76862, "normalised": "rue d ormesson", "numbers_va": 3, "is_left_si": "f", "approx_roa": 4.64, "quartier": "quartier marais" }, "geometry": { "type": "Point", "coordinates": [ 653248.600000000093132, 6861866.100000000558794 ] } },
{ "type": "Feature", "properties": { "gid": 85145, "normalised": "rue necker", "numbers_va": 1, "is_left_si": "t", "approx_roa": 3.84, "quartier": "quartier marais" }, "geometry": { "type": "Point", "coordinates": [ 653260.5, 6861873.800000000745058 ] } },
{ "type": "Feature", "properties": { "gid": 85146, "normalised": "rue necker", "numbers_va": 3, "is_left_si": "t", "approx_roa": 3.84, "quartier": "quartier marais" }, "geometry": { "type": "Point", "coordinates": [ 653269.300000000046566, 6861893.5 ] } },
{ "type": "Feature", "properties": { "gid": 85147, "normalised": "rue necker", "numbers_va": 5, "is_left_si": "t", "approx_roa": 3.84, "quartier": "quartier marais" }, "geometry": { "type": "Point", "coordinates": [ 653278.100000000093132, 6861913.100000000558794 ] } },
{ "type": "Feature", "properties": { "gid": 85148, "normalised": "rue necker", "numbers_va": 2, "is_left_si": "f", "approx_roa": 3.84, "quartier": "quartier marais" }, "geometry": { "type": "Point", "coordinates": [ 653271.200000000069849, 6861869.0 ] } },
{ "type": "Feature", "properties": { "gid": 85149, "normalised": "rue necker", "numbers_va": 4, "is_left_si": "f", "approx_roa": 3.84, "quartier": "quartier marais" }, "geometry": { "type": "Point", "coordinates": [ 653275.600000000093132, 6861878.900000000372529 ] } },
{ "type": "Feature", "properties": { "gid": 85150, "normalised": "rue necker", "numbers_va": 6, "is_left_si": "f", "approx_roa": 3.84, "quartier": "quartier marais" }, "geometry": { "type": "Point", "coordinates": [ 653280.0, 6861888.700000000186265 ] } },
{ "type": "Feature", "properties": { "gid": 85151, "normalised": "rue necker", "numbers_va": 8, "is_left_si": "f", "approx_roa": 3.84, "quartier": "quartier marais" }, "geometry": { "type": "Point", "coordinates": [ 653284.400000000023283, 6861898.5 ] } },
{ "type": "Feature", "properties": { "gid": 85152, "normalised": "rue necker", "numbers_va": 10, "is_left_si": "f", "approx_roa": 3.84, "quartier": "quartier marais" }, "geometry": { "type": "Point", "coordinates": [ 653288.800000000046566, 6861908.300000000745058 ] } },
{ "type": "Feature", "properties": { "gid": 93002, "normalised": "rue de jarente", "numbers_va": 2, "is_left_si": "t", "approx_roa": 4.0, "quartier": "quartier marais" }, "geometry": { "type": "Point", "coordinates": [ 653283.700000000069849, 6861922.5 ] } },
{ "type": "Feature", "properties": { "gid": 93007, "normalised": "rue de jarente", "numbers_va": 3, "is_left_si": "f", "approx_roa": 4.0, "quartier": "quartier marais" }, "geometry": { "type": "Point", "coordinates": [ 653278.400000000023283, 6861911.700000000186265 ] } },
{ "type": "Feature", "properties": { "gid": 93012, "normalised": "rue de jarente", "numbers_va": 1, "is_left_si": "f", "approx_roa": 4.0, "quartier": "quartier marais" }, "geometry": { "type": "Point", "coordinates": [ 653283.5, 6861909.300000000745058 ] } },
{ "type": "Feature", "properties": { "gid": 98454, "normalised": "rue des tournelles", "numbers_va": 46, "is_left_si": "t", "approx_roa": 5.49, "quartier": "quartier marais" }, "geometry": { "type": "Point", "coordinates": [ 653582.5, 6861959.900000000372529 ] } },
{ "type": "Feature", "properties": { "gid": 98455, "normalised": "rue des tournelles", "numbers_va": 48, "is_left_si": "t", "approx_roa": 5.49, "quartier": "quartier marais" }, "geometry": { "type": "Point", "coordinates": [ 653583.200000000069849, 6861972.800000000745058 ] } },
{ "type": "Feature", "properties": { "gid": 98456, "normalised": "rue des tournelles", "numbers_va": 50, "is_left_si": "t", "approx_roa": 5.49, "quartier": "quartier marais" }, "geometry": { "type": "Point", "coordinates": [ 653583.900000000023283, 6861985.800000000745058 ] } },
{ "type": "Feature", "properties": { "gid": 98457, "normalised": "rue des tournelles", "numbers_va": 52, "is_left_si": "t", "approx_roa": 5.49, "quartier": "quartier marais" }, "geometry": { "type": "Point", "coordinates": [ 653584.600000000093132, 6861998.800000000745058 ] } },
{ "type": "Feature", "properties": { "gid": 98458, "normalised": "rue des tournelles", "numbers_va": 54, "is_left_si": "t", "approx_roa": 5.49, "quartier": "quartier marais" }, "geometry": { "type": "Point", "coordinates": [ 653585.300000000046566, 6862011.800000000745058 ] } },
{ "type": "Feature", "properties": { "gid": 98459, "normalised": "rue des tournelles", "numbers_va": 56, "is_left_si": "t", "approx_roa": 5.49, "quartier": "quartier marais" }, "geometry": { "type": "Point", "coordinates": [ 653585.800000000046566, 6862024.700000000186265 ] } },
{ "type": "Feature", "properties": { "gid": 98460, "normalised": "rue des tournelles", "numbers_va": 58, "is_left_si": "t", "approx_roa": 5.49, "quartier": "quartier marais" }, "geometry": { "type": "Point", "coordinates": [ 653585.900000000023283, 6862037.700000000186265 ] } },
{ "type": "Feature", "properties": { "gid": 98468, "normalised": "rue des tournelles", "numbers_va": 24, "is_left_si": "t", "approx_roa": 5.19, "quartier": "quartier marais" }, "geometry": { "type": "Point", "coordinates": [ 653579.0, 6861849.900000000372529 ] } },
{ "type": "Feature", "properties": { "gid": 98469, "normalised": "rue des tournelles", "numbers_va": 26, "is_left_si": "t", "approx_roa": 5.19, "quartier": "quartier marais" }, "geometry": { "type": "Point", "coordinates": [ 653579.200000000069849, 6861859.600000000558794 ] } },
{ "type": "Feature", "properties": { "gid": 98470, "normalised": "rue des tournelles", "numbers_va": 28, "is_left_si": "t", "approx_roa": 5.19, "quartier": "quartier marais" }, "geometry": { "type": "Point", "coordinates": [ 653579.5, 6861869.300000000745058 ] } },
{ "type": "Feature", "properties": { "gid": 98471, "normalised": "rue des tournelles", "numbers_va": 30, "is_left_si": "t", "approx_roa": 5.19, "quartier": "quartier marais" }, "geometry": { "type": "Point", "coordinates": [ 653579.800000000046566, 6861879.0 ] } },
{ "type": "Feature", "properties": { "gid": 98472, "normalised": "rue des tournelles", "numbers_va": 32, "is_left_si": "t", "approx_roa": 5.19, "quartier": "quartier marais" }, "geometry": { "type": "Point", "coordinates": [ 653580.100000000093132, 6861888.700000000186265 ] } },
{ "type": "Feature", "properties": { "gid": 98473, "normalised": "rue des tournelles", "numbers_va": 34, "is_left_si": "t", "approx_roa": 5.19, "quartier": "quartier marais" }, "geometry": { "type": "Point", "coordinates": [ 653580.300000000046566, 6861898.400000000372529 ] } },
{ "type": "Feature", "properties": { "gid": 98474, "normalised": "rue des tournelles", "numbers_va": 36, "is_left_si": "t", "approx_roa": 5.19, "quartier": "quartier marais" }, "geometry": { "type": "Point", "coordinates": [ 653580.600000000093132, 6861908.200000000186265 ] } },
{ "type": "Feature", "properties": { "gid": 98475, "normalised": "rue des tournelles", "numbers_va": 38, "is_left_si": "t", "approx_roa": 5.19, "quartier": "quartier marais" }, "geometry": { "type": "Point", "coordinates": [ 653580.900000000023283, 6861917.900000000372529 ] } },
{ "type": "Feature", "properties": { "gid": 98476, "normalised": "rue des tournelles", "numbers_va": 40, "is_left_si": "t", "approx_roa": 5.19, "quartier": "quartier marais" }, "geometry": { "type": "Point", "coordinates": [ 653581.200000000069849, 6861927.600000000558794 ] } },
{ "type": "Feature", "properties": { "gid": 98477, "normalised": "rue des tournelles", "numbers_va": 42, "is_left_si": "t", "approx_roa": 5.19, "quartier": "quartier marais" }, "geometry": { "type": "Point", "coordinates": [ 653581.400000000023283, 6861937.300000000745058 ] } },
{ "type": "Feature", "properties": { "gid": 98478, "normalised": "rue des tournelles", "numbers_va": 44, "is_left_si": "t", "approx_roa": 5.19, "quartier": "quartier marais" }, "geometry": { "type": "Point", "coordinates": [ 653581.700000000069849, 6861947.0 ] } },
{ "type": "Feature", "properties": { "gid": 98486, "normalised": "rue des tournelles", "numbers_va": 21, "is_left_si": "f", "approx_roa": 5.19, "quartier": "quartier marais" }, "geometry": { "type": "Point", "coordinates": [ 653564.600000000093132, 6861850.0 ] } },
{ "type": "Feature", "properties": { "gid": 98487, "normalised": "rue des tournelles", "numbers_va": 23, "is_left_si": "f", "approx_roa": 5.19, "quartier": "quartier marais" }, "geometry": { "type": "Point", "coordinates": [ 653565.5, 6861882.5 ] } },
{ "type": "Feature", "properties": { "gid": 98488, "normalised": "rue des tournelles", "numbers_va": 25, "is_left_si": "f", "approx_roa": 5.19, "quartier": "quartier marais" }, "geometry": { "type": "Point", "coordinates": [ 653566.400000000023283, 6861914.900000000372529 ] } },
{ "type": "Feature", "properties": { "gid": 98489, "normalised": "rue des tournelles", "numbers_va": 27, "is_left_si": "f", "approx_roa": 5.19, "quartier": "quartier marais" }, "geometry": { "type": "Point", "coordinates": [ 653567.300000000046566, 6861947.400000000372529 ] } },
{ "type": "Feature", "properties": { "gid": 98490, "normalised": "rue des tournelles", "numbers_va": 31, "is_left_si": "f", "approx_roa": 5.49, "quartier": "quartier marais" }, "geometry": { "type": "Point", "coordinates": [ 653567.600000000093132, 6861960.600000000558794 ] } },
{ "type": "Feature", "properties": { "gid": 98491, "normalised": "rue des tournelles", "numbers_va": 33, "is_left_si": "f", "approx_roa": 5.49, "quartier": "quartier marais" }, "geometry": { "type": "Point", "coordinates": [ 653570.200000000069849, 6862011.200000000186265 ] } },
{ "type": "Feature", "properties": { "gid": 98495, "normalised": "rue des tournelles", "numbers_va": 12, "is_left_si": "t", "approx_roa": 5.3, "quartier": "quartier marais" }, "geometry": { "type": "Point", "coordinates": [ 653581.100000000093132, 6861782.400000000372529 ] } },
{ "type": "Feature", "properties": { "gid": 98496, "normalised": "rue des tournelles", "numbers_va": 14, "is_left_si": "t", "approx_roa": 5.3, "quartier": "quartier marais" }, "geometry": { "type": "Point", "coordinates": [ 653580.600000000093132, 6861791.600000000558794 ] } },
{ "type": "Feature", "properties": { "gid": 98497, "normalised": "rue des tournelles", "numbers_va": 16, "is_left_si": "t", "approx_roa": 5.3, "quartier": "quartier marais" }, "geometry": { "type": "Point", "coordinates": [ 653580.100000000093132, 6861800.700000000186265 ] } },
{ "type": "Feature", "properties": { "gid": 98498, "normalised": "rue des tournelles", "numbers_va": 18, "is_left_si": "t", "approx_roa": 5.3, "quartier": "quartier marais" }, "geometry": { "type": "Point", "coordinates": [ 653579.700000000069849, 6861809.900000000372529 ] } },
{ "type": "Feature", "properties": { "gid": 98499, "normalised": "rue des tournelles", "numbers_va": 20, "is_left_si": "t", "approx_roa": 5.3, "quartier": "quartier marais" }, "geometry": { "type": "Point", "coordinates": [ 653579.5, 6861819.100000000558794 ] } },
{ "type": "Feature", "properties": { "gid": 98500, "normalised": "rue des tournelles", "numbers_va": 22, "is_left_si": "t", "approx_roa": 5.3, "quartier": "quartier marais" }, "geometry": { "type": "Point", "coordinates": [ 653579.400000000023283, 6861828.300000000745058 ] } },
{ "type": "Feature", "properties": { "gid": 98506, "normalised": "rue des tournelles", "numbers_va": 9, "is_left_si": "f", "approx_roa": 5.3, "quartier": "quartier marais" }, "geometry": { "type": "Point", "coordinates": [ 653567.700000000069849, 6861763.700000000186265 ] } },
{ "type": "Feature", "properties": { "gid": 98507, "normalised": "rue des tournelles", "numbers_va": 11, "is_left_si": "f", "approx_roa": 5.3, "quartier": "quartier marais" }, "geometry": { "type": "Point", "coordinates": [ 653566.900000000023283, 6861775.900000000372529 ] } },
{ "type": "Feature", "properties": { "gid": 98508, "normalised": "rue des tournelles", "numbers_va": 13, "is_left_si": "f", "approx_roa": 5.3, "quartier": "quartier marais" }, "geometry": { "type": "Point", "coordinates": [ 653566.200000000069849, 6861788.200000000186265 ] } },
{ "type": "Feature", "properties": { "gid": 98509, "normalised": "rue des tournelles", "numbers_va": 15, "is_left_si": "f", "approx_roa": 5.3, "quartier": "quartier marais" }, "geometry": { "type": "Point", "coordinates": [ 653565.5, 6861800.400000000372529 ] } },
{ "type": "Feature", "properties": { "gid": 98510, "normalised": "rue des tournelles", "numbers_va": 17, "is_left_si": "f", "approx_roa": 5.3, "quartier": "quartier marais" }, "geometry": { "type": "Point", "coordinates": [ 653565.0, 6861812.700000000186265 ] } },
{ "type": "Feature", "properties": { "gid": 98511, "normalised": "rue des tournelles", "numbers_va": 19, "is_left_si": "f", "approx_roa": 5.3, "quartier": "quartier marais" }, "geometry": { "type": "Point", "coordinates": [ 653564.800000000046566, 6861824.900000000372529 ] } },
{ "type": "Feature", "properties": { "gid": 98512, "normalised": "rue des tournelles", "numbers_va": 29, "is_left_si": "f", "approx_roa": 5.49, "quartier": "quartier marais" }, "geometry": { "type": "Point", "coordinates": [ 653567.200000000069849, 6861953.900000000372529 ] } },
{ "type": "Feature", "properties": { "gid": 99120, "normalised": "rue de bearn", "numbers_va": 1, "is_left_si": "t", "approx_roa": 6.34, "quartier": "quartier marais" }, "geometry": { "type": "Point", "coordinates": [ 653456.100000000093132, 6861991.200000000186265 ] } },
{ "type": "Feature", "properties": { "gid": 99121, "normalised": "rue de bearn", "numbers_va": 3, "is_left_si": "t", "approx_roa": 6.34, "quartier": "quartier marais" }, "geometry": { "type": "Point", "coordinates": [ 653472.400000000023283, 6862047.300000000745058 ] } },
{ "type": "Feature", "properties": { "gid": 99122, "normalised": "rue de bearn", "numbers_va": 5, "is_left_si": "t", "approx_roa": 5.98, "quartier": "quartier marais" }, "geometry": { "type": "Point", "coordinates": [ 653476.5, 6862061.200000000186265 ] } },
{ "type": "Feature", "properties": { "gid": 99128, "normalised": "rue de bearn", "numbers_va": 2, "is_left_si": "f", "approx_roa": 6.34, "quartier": "quartier marais" }, "geometry": { "type": "Point", "coordinates": [ 653472.100000000093132, 6861986.600000000558794 ] } },
{ "type": "Feature", "properties": { "gid": 99129, "normalised": "rue de bearn", "numbers_va": 4, "is_left_si": "f", "approx_roa": 6.34, "quartier": "quartier marais" }, "geometry": { "type": "Point", "coordinates": [ 653480.200000000069849, 6862014.600000000558794 ] } },
{ "type": "Feature", "properties": { "gid": 99130, "normalised": "rue de bearn", "numbers_va": 6, "is_left_si": "f", "approx_roa": 6.34, "quartier": "quartier marais" }, "geometry": { "type": "Point", "coordinates": [ 653488.400000000023283, 6862042.600000000558794 ] } },
{ "type": "Feature", "properties": { "gid": 99131, "normalised": "rue de bearn", "numbers_va": 8, "is_left_si": "f", "approx_roa": 5.98, "quartier": "quartier marais" }, "geometry": { "type": "Point", "coordinates": [ 653492.0, 6862057.400000000372529 ] } }
]
}
