{
"type": "FeatureCollection",
"name": "atlas_jacoubet_1836_adresses",
"crs": { "type": "name", "properties": { "name": "urn:ogc:def:crs:EPSG::2154" } },
"features": [
{ "type": "Feature", "properties": { "gid": 86, "id_num_sca": null, "id_parc": null, "quartier": "Marais", "nom_entier": "Rue du Foin au Marais", "num_voies": "1", "num_sca": null, "geox": null, "geoy": null }, "geometry": { "type": "MultiPoint", "coordinates": [ [ 653459.792254021624103, 6862051.69122502207756 ] ] } },
{ "type": "Feature", "properties": { "gid": 87, "id_num_sca": null, "id_parc": null, "quartier": "Marais", "nom_entier": "Rue du Foin au Marais", "num_voies": "3", "num_sca": null, "geox": null, "geoy": null }, "geometry": { "type": "MultiPoint", "coordinates": [ [ 653443.84020026633516, 6862056.67219091206789 ] ] } },
{ "type": "Feature", "properties": { "gid": 88, "id_num_sca": null, "id_parc": null, "quartier": "Marais", "nom_entier": "Rue du Foin au Marais", "num_voies": "5", "num_sca": null, "geox": null, "geoy": null }, "geometry": { "type": "MultiPoint", "coordinates": [ [ 653398.039250004221685, 6862066.266475077718496 ] ] } },
{ "type": "Feature", "properties": { "gid": 190, "id_num_sca": "ADO75CA_ANO522", "id_parc": "PA10294", "quartier": "Marais", "nom_entier": "Place Royale", "num_voies": "21", "num_sca": "ADO75CA_ANO522", "geox": 602082.0, "geoy": 128433.0 }, "geometry": { "type": "MultiPoint", "coordinates": [ [ 653400.811044630245306, 6862000.35367236007005 ] ] } },
{ "type": "Feature", "properties": { "gid": 197, "id_num_sca": "ADO75CA_ANO517", "id_parc": "PA10796", "quartier": "Marais", "nom_entier": "Place Royale", "num_voies": "19", "num_sca": "ADO75CA_ANO517", "geox": 602075.0, "geoy": 128415.0 }, "geometry": { "type": "MultiPoint", "coordinates": [ [ 653392.837447682046331, 6861981.941743779927492 ] ] } },
{ "type": "Feature", "properties": { "gid": 198, "id_num_sca": "ADO75CA_ANO517", "id_parc": "PA10797", "quartier": "Marais", "nom_entier": "Place Royale", "num_voies": "17", "num_sca": "ADO75CA_ANO517", "geox": 602070.0, "geoy": 128396.0 }, "geometry": { "type": "MultiPoint", "coordinates": [ [ 653388.25066220969893, 6861963.105672038160264 ] ] } },
{ "type": "Feature", "properties": { "gid": 199, "id_num_sca": "ADO75CA_ANO517", "id_parc": "PA10794", "quartier": "Marais", "nom_entier": "Place Royale", "num_voies": "15", "num_sca": "ADO75CA_ANO517", "geox": 602066.0, "geoy": 128378.0 }, "geometry": { "type": "MultiPoint", "coordinates": [ [ 653383.895084123709239, 6861945.864745405502617 ] ] } },
{ "type": "Feature", "properties": { "gid": 505, "id_num_sca": "ADO75CA_ANO522", "id_parc": "PA10515", "quartier": "Marais", "nom_entier": "Passage Sainte Foy", "num_voies": "13", "num_sca": "ADO75CA_ANO333", "geox": 600953.0, "geoy": 129758.0 }, "geometry": { "type": "MultiPoint", "coordinates": [ [ 653445.060092683765106, 6861988.84580400865525 ] ] } },
{ "type": "Feature", "properties": { "gid": 506, "id_num_sca": "ADO75CA_ANO522", "id_parc": "PA10513", "quartier": "Marais", "nom_entier": "Place Royale", "num_voies": "25", "num_sca": "ADO75CA_ANO522", "geox": 602127.0, "geoy": 128422.0 }, "geometry": { "type": "MultiPoint", "coordinates": [ [ 653425.565296487300657, 6861993.698496547527611 ] ] } },
{ "type": "Feature", "properties": { "gid": 643, "id_num_sca": "ADO75CA_ANO517", "id_parc": "PA10798", "quartier": "Marais", "nom_entier": "Passage du Caire", "num_voies": "88", "num_sca": "ADO75CA_ANO333", "geox": 601083.0, "geoy": 129683.0 }, "geometry": { "type": "MultiPoint", "coordinates": [ [ 653378.349361736793071, 6861925.221879848279059 ] ] } },
{ "type": "Feature", "properties": { "gid": 644, "id_num_sca": "ADO75CA_ANO517", "id_parc": "PA10795", "quartier": "Marais", "nom_entier": "Place Royale", "num_voies": "13", "num_sca": "ADO75CA_ANO517", "geox": 602061.0, "geoy": 128358.0 }, "geometry": { "type": "MultiPoint", "coordinates": [ [ 653372.732272437540814, 6861904.72480840049684 ] ] } },
{ "type": "Feature", "properties": { "gid": 645, "id_num_sca": "ADO75CA_ANO517", "id_parc": "PA10799", "quartier": "Marais", "nom_entier": "Place Royale", "num_voies": "11", "num_sca": "ADO75CA_ANO517", "geox": 602055.0, "geoy": 128337.0 }, "geometry": { "type": "MultiPoint", "coordinates": [ [ 653368.21319741231855, 6861885.307418380863965 ] ] } },
{ "type": "Feature", "properties": { "gid": 646, "id_num_sca": "ADO75CA_ANO517", "id_parc": "PA10801", "quartier": "Marais", "nom_entier": "Place Royale", "num_voies": "9", "num_sca": "ADO75CA_ANO517", "geox": 602051.0, "geoy": 128318.0 }, "geometry": { "type": "MultiPoint", "coordinates": [ [ 653371.342957321321592, 6861869.019801395945251 ] ] } },
{ "type": "Feature", "properties": { "gid": 647, "id_num_sca": "ADO75CA_ANO517", "id_parc": "PA10803", "quartier": "Marais", "nom_entier": "Place Royale", "num_voies": "5", "num_sca": "ADO75CA_ANO517", "geox": 602054.0, "geoy": 128301.0 }, "geometry": { "type": "MultiPoint", "coordinates": [ [ 653388.502235176623799, 6861863.575882446952164 ] ] } },
{ "type": "Feature", "properties": { "gid": 648, "id_num_sca": "ADO75CA_ANO517", "id_parc": "PA10802", "quartier": "Marais", "nom_entier": "Place Royale", "num_voies": "3", "num_sca": "ADO75CA_ANO517", "geox": 602071.0, "geoy": 128296.0 }, "geometry": { "type": "MultiPoint", "coordinates": [ [ 653410.520163672976196, 6861857.51028851699084 ] ] } },
{ "type": "Feature", "properties": { "gid": 649, "id_num_sca": "ADO75CA_ANO518", "id_parc": "PA10865", "quartier": "Marais", "nom_entier": "Place Royale", "num_voies": "1", "num_sca": "ADO75CA_ANO517", "geox": 602093.0, "geoy": 128290.0 }, "geometry": { "type": "MultiPoint", "coordinates": [ [ 653458.8998166420497, 6861843.963206507265568 ] ] } },
{ "type": "Feature", "properties": { "gid": 650, "id_num_sca": "ADO75CA_ANO518", "id_parc": "PA10864", "quartier": "Marais", "nom_entier": "Place Royale", "num_voies": "2", "num_sca": "ADO75CA_ANO518", "geox": 602142.0, "geoy": 128277.0 }, "geometry": { "type": "MultiPoint", "coordinates": [ [ 653473.52942712395452, 6861839.847287504002452 ] ] } },
{ "type": "Feature", "properties": { "gid": 651, "id_num_sca": "ADO75CA_ANO518", "id_parc": "PA10840", "quartier": "Marais", "nom_entier": "Place Royale", "num_voies": "4", "num_sca": "ADO75CA_ANO518", "geox": 602156.0, "geoy": 128273.0 }, "geometry": { "type": "MultiPoint", "coordinates": [ [ 653487.941266326000914, 6861835.733200799673796 ] ] } },
{ "type": "Feature", "properties": { "gid": 652, "id_num_sca": "ADO75CA_ANO518", "id_parc": "PA10838", "quartier": "Marais", "nom_entier": "Place Royale", "num_voies": "6", "num_sca": "ADO75CA_ANO518", "geox": 602171.0, "geoy": 128269.0 }, "geometry": { "type": "MultiPoint", "coordinates": [ [ 653496.097010415745899, 6861838.71350353769958 ] ] } },
{ "type": "Feature", "properties": { "gid": 653, "id_num_sca": "ADO75CA_ANO518", "id_parc": "PA10837", "quartier": "Marais", "nom_entier": "Place Royale", "num_voies": "8", "num_sca": "ADO75CA_ANO518", "geox": 602179.0, "geoy": 128272.0 }, "geometry": { "type": "MultiPoint", "coordinates": [ [ 653500.577625298756175, 6861853.557725929655135 ] ] } },
{ "type": "Feature", "properties": { "gid": 654, "id_num_sca": "ADO75CA_ANO518", "id_parc": "PA10839", "quartier": "Marais", "nom_entier": "Place Royale", "num_voies": "10", "num_sca": "ADO75CA_ANO518", "geox": 602183.0, "geoy": 128287.0 }, "geometry": { "type": "MultiPoint", "coordinates": [ [ 653505.460892313974909, 6861873.117228931747377 ] ] } },
{ "type": "Feature", "properties": { "gid": 655, "id_num_sca": "ADO75CA_ANO518", "id_parc": "PA10836", "quartier": "Marais", "nom_entier": "Place Royale", "num_voies": "12", "num_sca": "ADO75CA_ANO518", "geox": 602188.0, "geoy": 128307.0 }, "geometry": { "type": "MultiPoint", "coordinates": [ [ 653511.963131981436163, 6861895.27651824709028 ] ] } },
{ "type": "Feature", "properties": { "gid": 656, "id_num_sca": "ADO75CA_ANO518", "id_parc": "PA10835", "quartier": "Marais", "nom_entier": "Place Royale", "num_voies": "14", "num_sca": "ADO75CA_ANO518", "geox": 602194.0, "geoy": 128329.0 }, "geometry": { "type": "MultiPoint", "coordinates": [ [ 653516.451080183149315, 6861910.991824611090124 ] ] } },
{ "type": "Feature", "properties": { "gid": 657, "id_num_sca": "ADO75CA_ANO518", "id_parc": "PA10833", "quartier": "Marais", "nom_entier": "Place Royale", "num_voies": "16", "num_sca": "ADO75CA_ANO518", "geox": 602199.0, "geoy": 128345.0 }, "geometry": { "type": "MultiPoint", "coordinates": [ [ 653520.646225743694231, 6861926.419218943454325 ] ] } },
{ "type": "Feature", "properties": { "gid": 658, "id_num_sca": "ADO75CA_ANO518", "id_parc": "PA10832", "quartier": "Marais", "nom_entier": "Place Royale", "num_voies": "18", "num_sca": "ADO75CA_ANO518", "geox": 602203.0, "geoy": 128360.0 }, "geometry": { "type": "MultiPoint", "coordinates": [ [ 653524.682754683657549, 6861940.250861710868776 ] ] } },
{ "type": "Feature", "properties": { "gid": 659, "id_num_sca": "ADO75CA_ANO518", "id_parc": "PA10828", "quartier": "Marais", "nom_entier": "Place Royale", "num_voies": "20", "num_sca": "ADO75CA_ANO518", "geox": 602207.0, "geoy": 128374.0 }, "geometry": { "type": "MultiPoint", "coordinates": [ [ 653527.908576814224944, 6861952.637434083968401 ] ] } },
{ "type": "Feature", "properties": { "gid": 660, "id_num_sca": "ADO75CA_ANO523", "id_parc": "PA10499", "quartier": "Marais", "nom_entier": "Place Royale", "num_voies": "22", "num_sca": "ADO75CA_ANO518", "geox": 602210.0, "geoy": 128386.0 }, "geometry": { "type": "MultiPoint", "coordinates": [ [ 653480.448173256940208, 6861980.635904343798757 ] ] } },
{ "type": "Feature", "properties": { "gid": 661, "id_num_sca": "ADO75CA_ANO523", "id_parc": "PA10498", "quartier": "Marais", "nom_entier": "Place Royale", "num_voies": "28", "num_sca": "ADO75CA_ANO523", "geox": 602162.0, "geoy": 128414.0 }, "geometry": { "type": "MultiPoint", "coordinates": [ [ 653507.837895410135388, 6861973.763163162395358 ] ] } },
{ "type": "Feature", "properties": { "gid": 662, "id_num_sca": "ADO75CA_ANO523", "id_parc": "PA10495", "quartier": "Marais", "nom_entier": "Place Royale", "num_voies": "26", "num_sca": "ADO75CA_ANO523", "geox": 602190.0, "geoy": 128407.0 }, "geometry": { "type": "MultiPoint", "coordinates": [ [ 653529.865561458165757, 6861968.107705811969936 ] ] } },
{ "type": "Feature", "properties": { "gid": 9172, "id_num_sca": "ADO75CA_ANO515", "id_parc": "PA10755", "quartier": "Marais", "nom_entier": "Rue Necker", "num_voies": "5", "num_sca": "ADO75CA_ANO515", "geox": 601955.0, "geoy": 128322.0 }, "geometry": { "type": "MultiPoint", "coordinates": [ [ 653266.879821550217457, 6861876.089405911043286 ] ] } },
{ "type": "Feature", "properties": { "gid": 9135, "id_num_sca": "ADO75CA_ANO513", "id_parc": "PA10536", "quartier": "Marais", "nom_entier": "Rue Neuve Sainte Catherine", "num_voies": "16", "num_sca": "ADO75CA_ANO513", "geox": 601962.0, "geoy": 128482.0 }, "geometry": { "type": "MultiPoint", "coordinates": [ [ 653321.414411416742951, 6862032.493538841605186 ] ] } },
{ "type": "Feature", "properties": { "gid": 9136, "id_num_sca": "ADO75CA_ANO513", "id_parc": "PA10539", "quartier": "Marais", "nom_entier": "Rue Neuve Sainte Catherine", "num_voies": "14", "num_sca": "ADO75CA_ANO513", "geox": 601994.0, "geoy": 128468.0 }, "geometry": { "type": "MultiPoint", "coordinates": [ [ 653325.457935674930923, 6862030.619288790039718 ] ] } },
{ "type": "Feature", "properties": { "gid": 9173, "id_num_sca": "ADO75CA_ANO515", "id_parc": "PA10755", "quartier": "Marais", "nom_entier": "Rue Necker", "num_voies": "3", "num_sca": "ADO75CA_ANO515", "geox": 601952.0, "geoy": 128314.0 }, "geometry": { "type": "MultiPoint", "coordinates": [ [ 653259.089766691671684, 6861872.616543914191425 ] ] } },
{ "type": "Feature", "properties": { "gid": 9137, "id_num_sca": "ADO75CA_ANO513", "id_parc": "PA10538", "quartier": "Marais", "nom_entier": "Rue Neuve Sainte Catherine", "num_voies": "12", "num_sca": "ADO75CA_ANO513", "geox": 602003.0, "geoy": 128465.0 }, "geometry": { "type": "MultiPoint", "coordinates": [ [ 653331.605312492582016, 6862027.915469544939697 ] ] } },
{ "type": "Feature", "properties": { "gid": 9138, "id_num_sca": "ADO75CA_ANO513", "id_parc": "PA10540", "quartier": "Marais", "nom_entier": "Rue Neuve Sainte Catherine", "num_voies": "10", "num_sca": "ADO75CA_ANO513", "geox": 602007.0, "geoy": 128463.0 }, "geometry": { "type": "MultiPoint", "coordinates": [ [ 653335.541506929555908, 6862026.150370203889906 ] ] } },
{ "type": "Feature", "properties": { "gid": 9139, "id_num_sca": "ADO75CA_ANO513", "id_parc": "PA10533", "quartier": "Marais", "nom_entier": "Rue Neuve Sainte Catherine", "num_voies": "8", "num_sca": "ADO75CA_ANO513", "geox": 602013.0, "geoy": 128460.0 }, "geometry": { "type": "MultiPoint", "coordinates": [ [ 653343.574889727984555, 6862022.456444735638797 ] ] } },
{ "type": "Feature", "properties": { "gid": 9140, "id_num_sca": "ADO75CA_ANO513", "id_parc": "PA10532", "quartier": "Marais", "nom_entier": "Rue Neuve Sainte Catherine", "num_voies": "6", "num_sca": "ADO75CA_ANO513", "geox": 602017.0, "geoy": 128458.0 }, "geometry": { "type": "MultiPoint", "coordinates": [ [ 653349.181975856889039, 6862019.865421375259757 ] ] } },
{ "type": "Feature", "properties": { "gid": 9149, "id_num_sca": "ADO75CA_ANO514", "id_parc": "PA10732", "quartier": "Marais", "nom_entier": "Rue Neuve Sainte Catherine", "num_voies": "11", "num_sca": "ADO75CA_ANO514", "geox": 601987.0, "geoy": 128465.0 }, "geometry": { "type": "MultiPoint", "coordinates": [ [ 653321.918660868192092, 6862025.584026286378503 ] ] } },
{ "type": "Feature", "properties": { "gid": 9150, "id_num_sca": "ADO75CA_ANO514", "id_parc": "PA10733", "quartier": "Marais", "nom_entier": "Rue Neuve Sainte Catherine", "num_voies": "9", "num_sca": "ADO75CA_ANO514", "geox": 601994.0, "geoy": 128462.0 }, "geometry": { "type": "MultiPoint", "coordinates": [ [ 653329.155537870479748, 6862021.979003490880132 ] ] } },
{ "type": "Feature", "properties": { "gid": 9151, "id_num_sca": "ADO75CA_ANO514", "id_parc": "PA10734", "quartier": "Marais", "nom_entier": "Rue Neuve Sainte Catherine", "num_voies": "7", "num_sca": "ADO75CA_ANO514", "geox": 602003.0, "geoy": 128458.0 }, "geometry": { "type": "MultiPoint", "coordinates": [ [ 653335.537514447700232, 6862018.88236288074404 ] ] } },
{ "type": "Feature", "properties": { "gid": 9152, "id_num_sca": "ADO75CA_ANO514", "id_parc": "PA10720", "quartier": "Marais", "nom_entier": "Rue Neuve Sainte Catherine", "num_voies": "5", "num_sca": "ADO75CA_ANO514", "geox": 602011.0, "geoy": 128454.0 }, "geometry": { "type": "MultiPoint", "coordinates": [ [ 653343.273433635942638, 6862015.022545381449163 ] ] } },
{ "type": "Feature", "properties": { "gid": 9166, "id_num_sca": "ADO75CA_ANO515", "id_parc": "PA10757", "quartier": "Marais", "nom_entier": "Rue Culture Sainte Catherine", "num_voies": "36", "num_sca": "ADO75CA_ANO514", "geox": 601932.0, "geoy": 128486.0 }, "geometry": { "type": "MultiPoint", "coordinates": [ [ 653269.25135406141635, 6861921.177260651253164 ] ] } },
{ "type": "Feature", "properties": { "gid": 9167, "id_num_sca": "ADO75CA_ANO515", "id_parc": "PA10285", "quartier": "Marais", "nom_entier": "Rue Jarente", "num_voies": "9", "num_sca": "ADO75CA_ANO515", "geox": 601926.0, "geoy": 128364.0 }, "geometry": { "type": "MultiPoint", "coordinates": [ [ 653277.957067761686631, 6861916.851872312836349 ] ] } },
{ "type": "Feature", "properties": { "gid": 9168, "id_num_sca": "ADO75CA_ANO515", "id_parc": "PA10285", "quartier": "Marais", "nom_entier": "Rue Jarente", "num_voies": "7", "num_sca": "ADO75CA_ANO515", "geox": 601951.0, "geoy": 128353.0 }, "geometry": { "type": "MultiPoint", "coordinates": [ [ 653280.040279723936692, 6861906.456855995580554 ] ] } },
{ "type": "Feature", "properties": { "gid": 9169, "id_num_sca": "ADO75CA_ANO515", "id_parc": "PA10756", "quartier": "Marais", "nom_entier": "Rue Jarente", "num_voies": "5", "num_sca": "ADO75CA_ANO515", "geox": 601960.0, "geoy": 128348.0 }, "geometry": { "type": "MultiPoint", "coordinates": [ [ 653275.245932086952962, 6861895.019556599669158 ] ] } },
{ "type": "Feature", "properties": { "gid": 9170, "id_num_sca": "ADO75CA_ANO515", "id_parc": "PA10756", "quartier": "Marais", "nom_entier": "Rue Necker", "num_voies": "9", "num_sca": "ADO75CA_ANO515", "geox": 601962.0, "geoy": 128338.0 }, "geometry": { "type": "MultiPoint", "coordinates": [ [ 653273.005176846985705, 6861890.221371660009027 ] ] } },
{ "type": "Feature", "properties": { "gid": 9171, "id_num_sca": "ADO75CA_ANO515", "id_parc": "PA10755", "quartier": "Marais", "nom_entier": "Rue Necker", "num_voies": "7", "num_sca": "ADO75CA_ANO515", "geox": 601958.0, "geoy": 128327.0 }, "geometry": { "type": "MultiPoint", "coordinates": [ [ 653269.576574737438932, 6861882.073146355338395 ] ] } },
{ "type": "Feature", "properties": { "gid": 9182, "id_num_sca": "ADO75CA_ANO515", "id_parc": "PA10286", "quartier": "Marais", "nom_entier": "Rue Culture Sainte Catherine", "num_voies": "12", "num_sca": "ADO75CA_ANO515", "geox": 601886.0, "geoy": 128362.0 }, "geometry": { "type": "MultiPoint", "coordinates": [ [ 653293.248482951661572, 6861910.686940061859787 ] ] } },
{ "type": "Feature", "properties": { "gid": 9183, "id_num_sca": "ADO75CA_ANO515", "id_parc": "PA10286", "quartier": "Marais", "nom_entier": "Rue Culture Sainte Catherine", "num_voies": "14", "num_sca": "ADO75CA_ANO515", "geox": 601890.0, "geoy": 128372.0 }, "geometry": { "type": "MultiPoint", "coordinates": [ [ 653298.254838118562475, 6861908.444405691698194 ] ] } },
{ "type": "Feature", "properties": { "gid": 9184, "id_num_sca": "ADO75CA_ANO515", "id_parc": "PA10753", "quartier": "Marais", "nom_entier": "Rue Jarente", "num_voies": "3", "num_sca": "ADO75CA_ANO515", "geox": 601976.0, "geoy": 128342.0 }, "geometry": { "type": "MultiPoint", "coordinates": [ [ 653275.204194401390851, 6861865.314761409536004 ] ] } },
{ "type": "Feature", "properties": { "gid": 9185, "id_num_sca": "ADO75CA_ANO515", "id_parc": "PA10753", "quartier": "Marais", "nom_entier": "Rue Jarente", "num_voies": "1", "num_sca": "ADO75CA_ANO515", "geox": 601981.0, "geoy": 128340.0 }, "geometry": { "type": "MultiPoint", "coordinates": [ [ 653270.964455377194099, 6861873.854633805342019 ] ] } },
{ "type": "Feature", "properties": { "gid": 9186, "id_num_sca": "ADO75CA_ANO515", "id_parc": "PA10751", "quartier": "Marais", "nom_entier": "Rue d'Ormesson", "num_voies": "2", "num_sca": "ADO75CA_ANO515", "geox": 601958.0, "geoy": 128297.0 }, "geometry": { "type": "MultiPoint", "coordinates": [ [ 653274.938504723715596, 6861883.21739621181041 ] ] } },
{ "type": "Feature", "properties": { "gid": 9187, "id_num_sca": "ADO75CA_ANO515", "id_parc": "PA10754", "quartier": "Marais", "nom_entier": "Rue Necker", "num_voies": "2", "num_sca": "ADO75CA_ANO515", "geox": 601954.0, "geoy": 128305.0 }, "geometry": { "type": "MultiPoint", "coordinates": [ [ 653278.606221178895794, 6861891.512282601557672 ] ] } },
{ "type": "Feature", "properties": { "gid": 9188, "id_num_sca": "ADO75CA_ANO515", "id_parc": "PA10752", "quartier": "Marais", "nom_entier": "Rue Necker", "num_voies": "4", "num_sca": "ADO75CA_ANO515", "geox": 601957.0, "geoy": 128315.0 }, "geometry": { "type": "MultiPoint", "coordinates": [ [ 653281.968855185899884, 6861898.887956674210727 ] ] } },
{ "type": "Feature", "properties": { "gid": 9189, "id_num_sca": "ADO75CA_ANO515", "id_parc": "PA10286", "quartier": "Marais", "nom_entier": "Rue Necker", "num_voies": "6", "num_sca": "ADO75CA_ANO515", "geox": 601961.0, "geoy": 128323.0 }, "geometry": { "type": "MultiPoint", "coordinates": [ [ 653285.36722541321069, 6861906.976967533119023 ] ] } },
{ "type": "Feature", "properties": { "gid": 9193, "id_num_sca": "ADO75CA_ANO514", "id_parc": "PA10747", "quartier": "Marais", "nom_entier": "Rue d'Ormesson", "num_voies": "15", "num_sca": "ADO75CA_ANO516", "geox": 601899.0, "geoy": 128316.0 }, "geometry": { "type": "MultiPoint", "coordinates": [ [ 653277.93777048739139, 6861922.224318878725171 ] ] } },
{ "type": "Feature", "properties": { "gid": 9199, "id_num_sca": "ADO75CA_ANO516", "id_parc": "PA10785", "quartier": "Marais", "nom_entier": "Rue Jarente", "num_voies": "14", "num_sca": "ADO75CA_ANO514", "geox": 601911.0, "geoy": 128374.0 }, "geometry": { "type": "MultiPoint", "coordinates": [ [ 653249.328117059310898, 6861871.136082656681538 ] ] } },
{ "type": "Feature", "properties": { "gid": 9200, "id_num_sca": "ADO75CA_ANO516", "id_parc": "PA10787", "quartier": "Marais", "nom_entier": "Rue d'Ormesson", "num_voies": "11", "num_sca": "ADO75CA_ANO516", "geox": 601912.0, "geoy": 128311.0 }, "geometry": { "type": "MultiPoint", "coordinates": [ [ 653258.800785687984899, 6861866.700632662512362 ] ] } },
{ "type": "Feature", "properties": { "gid": 9201, "id_num_sca": "ADO75CA_ANO516", "id_parc": "PA10789", "quartier": "Marais", "nom_entier": "Rue d'Ormesson", "num_voies": "9", "num_sca": "ADO75CA_ANO516", "geox": 601932.0, "geoy": 128303.0 }, "geometry": { "type": "MultiPoint", "coordinates": [ [ 653266.178110302775167, 6861863.444342638365924 ] ] } },
{ "type": "Feature", "properties": { "gid": 9202, "id_num_sca": "ADO75CA_ANO516", "id_parc": "PA10789", "quartier": "Marais", "nom_entier": "Rue d'Ormesson", "num_voies": "7", "num_sca": "ADO75CA_ANO516", "geox": 601941.0, "geoy": 128298.0 }, "geometry": { "type": "MultiPoint", "coordinates": [ [ 653270.662210598238744, 6861861.446525635197759 ] ] } },
{ "type": "Feature", "properties": { "gid": 9203, "id_num_sca": "ADO75CA_ANO516", "id_parc": "PA10789", "quartier": "Marais", "nom_entier": "Rue d'Ormesson", "num_voies": "5", "num_sca": "ADO75CA_ANO516", "geox": 601949.0, "geoy": 128295.0 }, "geometry": { "type": "MultiPoint", "coordinates": [ [ 653276.666428756783716, 6861858.927745252847672 ] ] } },
{ "type": "Feature", "properties": { "gid": 9248, "id_num_sca": "ADO75CA_ANO518", "id_parc": "PA10828", "quartier": "Marais", "nom_entier": "Rue Saint Antoine", "num_voies": "131", "num_sca": "ADO75CA_ANO517", "geox": 601955.0, "geoy": 128236.0 }, "geometry": { "type": "MultiPoint", "coordinates": [ [ 653546.325808769557625, 6861958.652900286950171 ] ] } },
{ "type": "Feature", "properties": { "gid": 9249, "id_num_sca": "ADO75CA_ANO518", "id_parc": "PA10829", "quartier": "Marais", "nom_entier": "Rue Saint Antoine", "num_voies": "129", "num_sca": "ADO75CA_ANO517", "geox": 601947.0, "geoy": 128240.0 }, "geometry": { "type": "MultiPoint", "coordinates": [ [ 653554.222257160930894, 6861956.698927707970142 ] ] } },
{ "type": "Feature", "properties": { "gid": 9250, "id_num_sca": "ADO75CA_ANO518", "id_parc": "PA10830", "quartier": "Marais", "nom_entier": "Rue du Pas de la Mûle", "num_voies": "13", "num_sca": "ADO75CA_ANO518", "geox": 602228.0, "geoy": 128393.0 }, "geometry": { "type": "MultiPoint", "coordinates": [ [ 653562.696372655103914, 6861954.37711466383189 ] ] } },
{ "type": "Feature", "properties": { "gid": 9251, "id_num_sca": "ADO75CA_ANO518", "id_parc": "PA10831", "quartier": "Marais", "nom_entier": "Rue du Pas de la Mûle", "num_voies": "11", "num_sca": "ADO75CA_ANO518", "geox": 602236.0, "geoy": 128391.0 }, "geometry": { "type": "MultiPoint", "coordinates": [ [ 653568.998279956169426, 6861952.726950312964618 ] ] } },
{ "type": "Feature", "properties": { "gid": 9252, "id_num_sca": "ADO75CA_ANO518", "id_parc": "PA10831", "quartier": "Marais", "nom_entier": "Rue du Pas de la Mûle", "num_voies": "9", "num_sca": "ADO75CA_ANO518", "geox": 602245.0, "geoy": 128388.0 }, "geometry": { "type": "MultiPoint", "coordinates": [ [ 653574.593123644939624, 6861944.694383441470563 ] ] } },
{ "type": "Feature", "properties": { "gid": 9253, "id_num_sca": "ADO75CA_ANO518", "id_parc": "PA10828", "quartier": "Marais", "nom_entier": "Rue du Pas de la Mûle", "num_voies": "7", "num_sca": "ADO75CA_ANO518", "geox": 602251.0, "geoy": 128387.0 }, "geometry": { "type": "MultiPoint", "coordinates": [ [ 653574.454565256950445, 6861936.855294299311936 ] ] } },
{ "type": "Feature", "properties": { "gid": 9254, "id_num_sca": "ADO75CA_ANO518", "id_parc": "PA10832", "quartier": "Marais", "nom_entier": "Rue des Tournelles", "num_voies": "33", "num_sca": "ADO75CA_ANO518", "geox": 602257.0, "geoy": 128379.0 }, "geometry": { "type": "MultiPoint", "coordinates": [ [ 653574.353780486388132, 6861924.877975057810545 ] ] } },
{ "type": "Feature", "properties": { "gid": 9255, "id_num_sca": "ADO75CA_ANO518", "id_parc": "PA10833", "quartier": "Marais", "nom_entier": "Rue des Tournelles", "num_voies": "31", "num_sca": "ADO75CA_ANO518", "geox": 602257.0, "geoy": 128371.0 }, "geometry": { "type": "MultiPoint", "coordinates": [ [ 653573.799741149297915, 6861910.799220921471715 ] ] } },
{ "type": "Feature", "properties": { "gid": 9256, "id_num_sca": "ADO75CA_ANO518", "id_parc": "PA10834", "quartier": "Marais", "nom_entier": "Rue des Tournelles", "num_voies": "29", "num_sca": "ADO75CA_ANO518", "geox": 602257.0, "geoy": 128359.0 }, "geometry": { "type": "MultiPoint", "coordinates": [ [ 653572.374009421793744, 6861896.655214964412153 ] ] } },
{ "type": "Feature", "properties": { "gid": 9257, "id_num_sca": "ADO75CA_ANO518", "id_parc": "PA10836", "quartier": "Marais", "nom_entier": "Rue des Tournelles", "num_voies": "27", "num_sca": "ADO75CA_ANO518", "geox": 602256.0, "geoy": 128345.0 }, "geometry": { "type": "MultiPoint", "coordinates": [ [ 653572.224359617335722, 6861878.870716966688633 ] ] } },
{ "type": "Feature", "properties": { "gid": 9258, "id_num_sca": "ADO75CA_ANO518", "id_parc": "PA10839", "quartier": "Marais", "nom_entier": "Rue des Tournelles", "num_voies": "25", "num_sca": "ADO75CA_ANO518", "geox": 602255.0, "geoy": 128331.0 }, "geometry": { "type": "MultiPoint", "coordinates": [ [ 653571.368257856112905, 6861854.776413848623633 ] ] } },
{ "type": "Feature", "properties": { "gid": 9259, "id_num_sca": "ADO75CA_ANO518", "id_parc": "PA10837", "quartier": "Marais", "nom_entier": "Rue des Tournelles", "num_voies": "23", "num_sca": "ADO75CA_ANO518", "geox": 602255.0, "geoy": 128313.0 }, "geometry": { "type": "MultiPoint", "coordinates": [ [ 653571.984115334693342, 6861833.065350189805031 ] ] } },
{ "type": "Feature", "properties": { "gid": 9260, "id_num_sca": "ADO75CA_ANO518", "id_parc": "PA10838", "quartier": "Marais", "nom_entier": "Rue des Tournelles", "num_voies": "21", "num_sca": "ADO75CA_ANO518", "geox": 602254.0, "geoy": 128289.0 }, "geometry": { "type": "MultiPoint", "coordinates": [ [ 653570.932329787290655, 6861820.22491192445159 ] ] } },
{ "type": "Feature", "properties": { "gid": 9261, "id_num_sca": "ADO75CA_ANO518", "id_parc": "PA10841", "quartier": "Marais", "nom_entier": "Rue des Tournelles", "num_voies": "19", "num_sca": "ADO75CA_ANO518", "geox": 602255.0, "geoy": 128267.0 }, "geometry": { "type": "MultiPoint", "coordinates": [ [ 653569.789629941456951, 6861805.207394208759069 ] ] } },
{ "type": "Feature", "properties": { "gid": 9262, "id_num_sca": "ADO75CA_ANO518", "id_parc": "PA10843", "quartier": "Marais", "nom_entier": "Rue des Tournelles", "num_voies": "17", "num_sca": "ADO75CA_ANO518", "geox": 602254.0, "geoy": 128254.0 }, "geometry": { "type": "MultiPoint", "coordinates": [ [ 653570.758761577541009, 6861790.970635937526822 ] ] } },
{ "type": "Feature", "properties": { "gid": 9263, "id_num_sca": "ADO75CA_ANO518", "id_parc": "PA10842", "quartier": "Marais", "nom_entier": "Rue des Tournelles", "num_voies": "15bis", "num_sca": "ADO75CA_ANO518", "geox": 602253.0, "geoy": 128239.0 }, "geometry": { "type": "MultiPoint", "coordinates": [ [ 653572.106724526500329, 6861778.618155292235315 ] ] } },
{ "type": "Feature", "properties": { "gid": 9264, "id_num_sca": "ADO75CA_ANO518", "id_parc": "PA10844", "quartier": "Marais", "nom_entier": "Rue des Tournelles", "num_voies": "15", "num_sca": "ADO75CA_ANO518", "geox": 602254.0, "geoy": 128225.0 }, "geometry": { "type": "MultiPoint", "coordinates": [ [ 653573.298512378474697, 6861764.960283741354942 ] ] } },
{ "type": "Feature", "properties": { "gid": 9318, "id_num_sca": "ADO75CA_ANO520", "id_parc": "PA10906", "quartier": "Marais", "nom_entier": "Rue des Tournelles", "num_voies": "4", "num_sca": "ADO75CA_ANO520", "geox": 602266.0, "geoy": 128177.0 }, "geometry": { "type": "MultiPoint", "coordinates": [ [ 653581.252188371960074, 6861758.91692512575537 ] ] } },
{ "type": "Feature", "properties": { "gid": 9319, "id_num_sca": "ADO75CA_ANO520", "id_parc": "PA10907", "quartier": "Marais", "nom_entier": "Rue des Tournelles", "num_voies": "6", "num_sca": "ADO75CA_ANO520", "geox": 602265.0, "geoy": 128185.0 }, "geometry": { "type": "MultiPoint", "coordinates": [ [ 653580.94284860312473, 6861763.565601240843534 ] ] } },
{ "type": "Feature", "properties": { "gid": 9320, "id_num_sca": "ADO75CA_ANO520", "id_parc": "PA10902", "quartier": "Marais", "nom_entier": "Rue des Tournelles", "num_voies": "8", "num_sca": "ADO75CA_ANO520", "geox": 602265.0, "geoy": 128193.0 }, "geometry": { "type": "MultiPoint", "coordinates": [ [ 653579.772689804201946, 6861769.441121175885201 ] ] } },
{ "type": "Feature", "properties": { "gid": 9321, "id_num_sca": "ADO75CA_ANO520", "id_parc": "PA10903", "quartier": "Marais", "nom_entier": "Rue des Tournelles", "num_voies": "10", "num_sca": "ADO75CA_ANO520", "geox": 602264.0, "geoy": 128198.0 }, "geometry": { "type": "MultiPoint", "coordinates": [ [ 653578.38587963860482, 6861777.176894600503147 ] ] } },
{ "type": "Feature", "properties": { "gid": 9322, "id_num_sca": "ADO75CA_ANO520", "id_parc": "PA10901", "quartier": "Marais", "nom_entier": "Rue des Tournelles", "num_voies": "12", "num_sca": "ADO75CA_ANO520", "geox": 602263.0, "geoy": 128204.0 }, "geometry": { "type": "MultiPoint", "coordinates": [ [ 653576.093938177800737, 6861794.677042639814317 ] ] } },
{ "type": "Feature", "properties": { "gid": 9323, "id_num_sca": "ADO75CA_ANO520", "id_parc": "PA10900", "quartier": "Marais", "nom_entier": "Rue des Tournelles", "num_voies": "14", "num_sca": "ADO75CA_ANO520", "geox": 602262.0, "geoy": 128211.0 }, "geometry": { "type": "MultiPoint", "coordinates": [ [ 653575.743628937401809, 6861801.358721803873777 ] ] } },
{ "type": "Feature", "properties": { "gid": 9324, "id_num_sca": "ADO75CA_ANO520", "id_parc": "PA10899", "quartier": "Marais", "nom_entier": "Rue des Tournelles", "num_voies": "16", "num_sca": "ADO75CA_ANO520", "geox": 602259.0, "geoy": 128229.0 }, "geometry": { "type": "MultiPoint", "coordinates": [ [ 653575.395762925618328, 6861808.330760292708874 ] ] } },
{ "type": "Feature", "properties": { "gid": 9325, "id_num_sca": "ADO75CA_ANO520", "id_parc": "PA10898", "quartier": "Marais", "nom_entier": "Rue des Tournelles", "num_voies": "18", "num_sca": "ADO75CA_ANO520", "geox": 602259.0, "geoy": 128236.0 }, "geometry": { "type": "MultiPoint", "coordinates": [ [ 653576.067861959687434, 6861819.185294995084405 ] ] } },
{ "type": "Feature", "properties": { "gid": 9326, "id_num_sca": "ADO75CA_ANO520", "id_parc": "PA10890", "quartier": "Marais", "nom_entier": "Rue des Tournelles", "num_voies": "20", "num_sca": "ADO75CA_ANO520", "geox": 602259.0, "geoy": 128242.0 }, "geometry": { "type": "MultiPoint", "coordinates": [ [ 653576.353002710500732, 6861832.36612643674016 ] ] } },
{ "type": "Feature", "properties": { "gid": 9327, "id_num_sca": "ADO75CA_ANO520", "id_parc": "PA10889", "quartier": "Marais", "nom_entier": "Rue des Tournelles", "num_voies": "22", "num_sca": "ADO75CA_ANO520", "geox": 602259.0, "geoy": 128253.0 }, "geometry": { "type": "MultiPoint", "coordinates": [ [ 653576.885580157744698, 6861847.345229065977037 ] ] } },
{ "type": "Feature", "properties": { "gid": 9328, "id_num_sca": "ADO75CA_ANO520", "id_parc": "PA10892", "quartier": "Marais", "nom_entier": "Rue des Tournelles", "num_voies": "24", "num_sca": "ADO75CA_ANO520", "geox": 602259.0, "geoy": 128267.0 }, "geometry": { "type": "MultiPoint", "coordinates": [ [ 653577.136515209218487, 6861856.461036430671811 ] ] } },
{ "type": "Feature", "properties": { "gid": 9329, "id_num_sca": "ADO75CA_ANO520", "id_parc": "PA10892", "quartier": "Marais", "nom_entier": "Rue des Tournelles", "num_voies": "26", "num_sca": "ADO75CA_ANO520", "geox": 602260.0, "geoy": 128282.0 }, "geometry": { "type": "MultiPoint", "coordinates": [ [ 653577.297126978985034, 6861861.744593541137874 ] ] } },
{ "type": "Feature", "properties": { "gid": 9330, "id_num_sca": "ADO75CA_ANO520", "id_parc": "PA10886", "quartier": "Marais", "nom_entier": "Rue des Tournelles", "num_voies": "28", "num_sca": "ADO75CA_ANO520", "geox": 602260.0, "geoy": 128291.0 }, "geometry": { "type": "MultiPoint", "coordinates": [ [ 653577.461237172828987, 6861874.34568954911083 ] ] } },
{ "type": "Feature", "properties": { "gid": 9331, "id_num_sca": "ADO75CA_ANO520", "id_parc": "PA10885", "quartier": "Marais", "nom_entier": "Rue des Tournelles", "num_voies": "30", "num_sca": "ADO75CA_ANO520", "geox": 602260.0, "geoy": 128296.0 }, "geometry": { "type": "MultiPoint", "coordinates": [ [ 653577.851361147593707, 6861893.100933712907135 ] ] } },
{ "type": "Feature", "properties": { "gid": 9332, "id_num_sca": "ADO75CA_ANO520", "id_parc": "PA10885", "quartier": "Marais", "nom_entier": "Rue des Tournelles", "num_voies": "32", "num_sca": "ADO75CA_ANO520", "geox": 602260.0, "geoy": 128309.0 }, "geometry": { "type": "MultiPoint", "coordinates": [ [ 653578.203780912328511, 6861900.473611234687269 ] ] } },
{ "type": "Feature", "properties": { "gid": 9333, "id_num_sca": "ADO75CA_ANO520", "id_parc": "PA10888", "quartier": "Marais", "nom_entier": "Rue des Tournelles", "num_voies": "34", "num_sca": "ADO75CA_ANO520", "geox": 602260.0, "geoy": 128327.0 }, "geometry": { "type": "MultiPoint", "coordinates": [ [ 653578.012539484654553, 6861905.353601943701506 ] ] } },
{ "type": "Feature", "properties": { "gid": 9334, "id_num_sca": "ADO75CA_ANO520", "id_parc": "PA10884", "quartier": "Marais", "nom_entier": "Rue des Tournelles", "num_voies": "36", "num_sca": "ADO75CA_ANO520", "geox": 602261.0, "geoy": 128335.0 }, "geometry": { "type": "MultiPoint", "coordinates": [ [ 653578.330264762276784, 6861908.603179489262402 ] ] } },
{ "type": "Feature", "properties": { "gid": 9335, "id_num_sca": "ADO75CA_ANO520", "id_parc": "PA10884", "quartier": "Marais", "nom_entier": "Rue des Tournelles", "num_voies": "38", "num_sca": "ADO75CA_ANO520", "geox": 602260.0, "geoy": 128340.0 }, "geometry": { "type": "MultiPoint", "coordinates": [ [ 653578.361050045350567, 6861912.261705474928021 ] ] } },
{ "type": "Feature", "properties": { "gid": 9336, "id_num_sca": "ADO75CA_ANO520", "id_parc": "PA10882", "quartier": "Marais", "nom_entier": "Rue des Tournelles", "num_voies": "40", "num_sca": "ADO75CA_ANO520", "geox": 602261.0, "geoy": 128343.0 }, "geometry": { "type": "MultiPoint", "coordinates": [ [ 653578.522150578908622, 6861917.603336868807673 ] ] } },
{ "type": "Feature", "properties": { "gid": 9337, "id_num_sca": "ADO75CA_ANO520", "id_parc": "PA10883", "quartier": "Marais", "nom_entier": "Rue des Tournelles", "num_voies": "42", "num_sca": "ADO75CA_ANO520", "geox": 602261.0, "geoy": 128346.0 }, "geometry": { "type": "MultiPoint", "coordinates": [ [ 653578.428073682822287, 6861927.128587012179196 ] ] } },
{ "type": "Feature", "properties": { "gid": 9338, "id_num_sca": "ADO75CA_ANO520", "id_parc": "PA10881", "quartier": "Marais", "nom_entier": "Rue des Tournelles", "num_voies": "44", "num_sca": "ADO75CA_ANO520", "geox": 602261.0, "geoy": 128352.0 }, "geometry": { "type": "MultiPoint", "coordinates": [ [ 653578.436947334674187, 6861935.084919686429203 ] ] } },
{ "type": "Feature", "properties": { "gid": 9354, "id_num_sca": "ADO75CA_ANO521", "id_parc": "PA10489", "quartier": "Marais", "nom_entier": "Rue Jean Beau Sire", "num_voies": "3", "num_sca": "ADO75CA_ANO520", "geox": 602317.0, "geoy": 128180.0 }, "geometry": { "type": "MultiPoint", "coordinates": [ [ 653579.672915496397763, 6861966.739982358179986 ] ] } },
{ "type": "Feature", "properties": { "gid": 9355, "id_num_sca": "ADO75CA_ANO521", "id_parc": "PA10492", "quartier": "Marais", "nom_entier": "Rue Jean Beau Sire", "num_voies": "1", "num_sca": "ADO75CA_ANO520", "geox": 602317.0, "geoy": 128173.0 }, "geometry": { "type": "MultiPoint", "coordinates": [ [ 653580.378415267099626, 6861983.181341667659581 ] ] } },
{ "type": "Feature", "properties": { "gid": 9356, "id_num_sca": "ADO75CA_ANO521", "id_parc": "PA10293", "quartier": "Marais", "nom_entier": "Rue des Tournelles", "num_voies": "50", "num_sca": "ADO75CA_ANO521", "geox": 602261.0, "geoy": 128401.0 }, "geometry": { "type": "MultiPoint", "coordinates": [ [ 653581.089641654631123, 6862000.303233097307384 ] ] } },
{ "type": "Feature", "properties": { "gid": 9357, "id_num_sca": "ADO75CA_ANO521", "id_parc": "PA10293", "quartier": "Marais", "nom_entier": "Rue des Tournelles", "num_voies": "52", "num_sca": "ADO75CA_ANO521", "geox": 602262.0, "geoy": 128417.0 }, "geometry": { "type": "MultiPoint", "coordinates": [ [ 653581.231696072267368, 6862003.70492734387517 ] ] } },
{ "type": "Feature", "properties": { "gid": 9358, "id_num_sca": "ADO75CA_ANO521", "id_parc": "PA10487", "quartier": "Marais", "nom_entier": "Rue des Tournelles", "num_voies": "54", "num_sca": "ADO75CA_ANO521", "geox": 602263.0, "geoy": 128434.0 }, "geometry": { "type": "MultiPoint", "coordinates": [ [ 653581.759026619838551, 6862025.932707352563739 ] ] } },
{ "type": "Feature", "properties": { "gid": 9359, "id_num_sca": "ADO75CA_ANO521", "id_parc": "PA10485", "quartier": "Marais", "nom_entier": "Rue des Tournelles", "num_voies": "56", "num_sca": "ADO75CA_ANO521", "geox": 602263.0, "geoy": 128438.0 }, "geometry": { "type": "MultiPoint", "coordinates": [ [ 653581.990795457502827, 6862039.996040309779346 ] ] } },
{ "type": "Feature", "properties": { "gid": 9381, "id_num_sca": "ADO75CA_ANO522", "id_parc": "PA10514", "quartier": "Marais", "nom_entier": "Boulevard Beaumarchais", "num_voies": "29", "num_sca": "ADO75CA_ANO521", "geox": 602325.0, "geoy": 128421.0 }, "geometry": { "type": "MultiPoint", "coordinates": [ [ 653474.32507754303515, 6862042.322080072015524 ] ] } },
{ "type": "Feature", "properties": { "gid": 9382, "id_num_sca": "ADO75CA_ANO522", "id_parc": "PA10511", "quartier": "Marais", "nom_entier": "Boulevard Beaumarchais", "num_voies": "27", "num_sca": "ADO75CA_ANO521", "geox": 602329.0, "geoy": 128393.0 }, "geometry": { "type": "MultiPoint", "coordinates": [ [ 653382.488299470511265, 6862005.196488909423351 ] ] } },
{ "type": "Feature", "properties": { "gid": 9383, "id_num_sca": "ADO75CA_ANO523", "id_parc": "PA10496", "quartier": "Marais", "nom_entier": "Rue de la Chaussée des Minimes", "num_voies": "1", "num_sca": "ADO75CA_ANO522", "geox": 602156.0, "geoy": 128476.0 }, "geometry": { "type": "MultiPoint", "coordinates": [ [ 653555.79514156805817, 6861961.833317155949771 ] ] } },
{ "type": "Feature", "properties": { "gid": 9384, "id_num_sca": "ADO75CA_ANO523", "id_parc": "PA10496", "quartier": "Marais", "nom_entier": "Rue de l'Echarpe", "num_voies": "2", "num_sca": "ADO75CA_ANO522", "geox": 602064.0, "geoy": 128438.0 }, "geometry": { "type": "MultiPoint", "coordinates": [ [ 653575.391147625632584, 6861980.61774096172303 ] ] } },
{ "type": "Feature", "properties": { "gid": 9385, "id_num_sca": "ADO75CA_ANO523", "id_parc": "PA10497", "quartier": "Marais", "nom_entier": "Rue du Pas de la Mûle", "num_voies": "6", "num_sca": "ADO75CA_ANO523", "geox": 602238.0, "geoy": 128396.0 }, "geometry": { "type": "MultiPoint", "coordinates": [ [ 653575.895380336325616, 6862005.716652461327612 ] ] } },
{ "type": "Feature", "properties": { "gid": 9386, "id_num_sca": "ADO75CA_ANO523", "id_parc": "PA10307", "quartier": "Marais", "nom_entier": "Rue des Tournelles", "num_voies": "35", "num_sca": "ADO75CA_ANO523", "geox": 602257.0, "geoy": 128415.0 }, "geometry": { "type": "MultiPoint", "coordinates": [ [ 653576.361807432491332, 6862026.322713960893452 ] ] } },
{ "type": "Feature", "properties": { "gid": 9387, "id_num_sca": "ADO75CA_ANO523", "id_parc": "PA10307", "quartier": "Marais", "nom_entier": "Rue des Tournelles", "num_voies": "37", "num_sca": "ADO75CA_ANO523", "geox": 602257.0, "geoy": 128440.0 }, "geometry": { "type": "MultiPoint", "coordinates": [ [ 653576.890565699199215, 6862042.728112894110382 ] ] } },
{ "type": "Feature", "properties": { "gid": 9388, "id_num_sca": "ADO75CA_ANO523", "id_parc": "PA10499", "quartier": "Marais", "nom_entier": "Rue des Tournelles", "num_voies": "39", "num_sca": "ADO75CA_ANO523", "geox": 602258.0, "geoy": 128460.0 }, "geometry": { "type": "MultiPoint", "coordinates": [ [ 653481.463174408883788, 6862031.615099357441068 ] ] } },
{ "type": "Feature", "properties": { "gid": 9389, "id_num_sca": "ADO75CA_ANO523", "id_parc": "PA10499", "quartier": "Marais", "nom_entier": "Rue des Tournelles", "num_voies": "41", "num_sca": "ADO75CA_ANO523", "geox": 602258.0, "geoy": 128477.0 }, "geometry": { "type": "MultiPoint", "coordinates": [ [ 653475.999917199020274, 6862009.195240959525108 ] ] } },
{ "type": "Feature", "properties": { "gid": 25337, "id_num_sca": "ADO75CA_ANO517", "id_parc": "PA10802", "quartier": "Marais", "nom_entier": "Rue Royale des Tuileries", "num_voies": "10", "num_sca": "ADO75CA_ANO032", "geox": 599021.0, "geoy": 129727.0 }, "geometry": { "type": "MultiPoint", "coordinates": [ [ 653415.587081542122178, 6861821.242764960043132 ] ] } },
{ "type": "Feature", "properties": { "gid": 25352, "id_num_sca": "ADO75CA_ANO518", "id_parc": "PA10866", "quartier": "Marais", "nom_entier": "Rue Royale Saint Antoine", "num_voies": "14", "num_sca": "ADO75CA_ANO518", "geox": 602099.0, "geoy": 128219.0 }, "geometry": { "type": "MultiPoint", "coordinates": [ [ 653425.986397897242568, 6861823.40563549567014 ] ] } },
{ "type": "Feature", "properties": { "gid": 25738, "id_num_sca": "ADO75CA_ANO513", "id_parc": "PA10532", "quartier": "Marais", "nom_entier": "Rue Saint Louis au Marais", "num_voies": "29", "num_sca": "ADO75CA_ANO507", "geox": 602047.0, "geoy": 128655.0 }, "geometry": { "type": "MultiPoint", "coordinates": [ [ 653356.703812923748046, 6862026.134549592621624 ] ] } },
{ "type": "Feature", "properties": { "gid": 25739, "id_num_sca": "ADO75CA_ANO513", "id_parc": "PA10535", "quartier": "Marais", "nom_entier": "Rue Saint Louis au Marais", "num_voies": "1", "num_sca": "ADO75CA_ANO513", "geox": 602038.0, "geoy": 128458.0 }, "geometry": { "type": "MultiPoint", "coordinates": [ [ 653360.288545917370357, 6862034.060538436286151 ] ] } },
{ "type": "Feature", "properties": { "gid": 25740, "id_num_sca": "ADO75CA_ANO513", "id_parc": "PA10534", "quartier": "Marais", "nom_entier": "Rue Saint Louis au Marais", "num_voies": "3", "num_sca": "ADO75CA_ANO513", "geox": 602042.0, "geoy": 128466.0 }, "geometry": { "type": "MultiPoint", "coordinates": [ [ 653360.128523356397636, 6862040.773216305300593 ] ] } },
{ "type": "Feature", "properties": { "gid": 25741, "id_num_sca": "ADO75CA_ANO513", "id_parc": "PA10531", "quartier": "Marais", "nom_entier": "Rue Saint Louis au Marais", "num_voies": "5", "num_sca": "ADO75CA_ANO513", "geox": 602041.0, "geoy": 128473.0 }, "geometry": { "type": "MultiPoint", "coordinates": [ [ 653360.869480157503858, 6862051.64582809433341 ] ] } },
{ "type": "Feature", "properties": { "gid": 25742, "id_num_sca": "ADO75CA_ANO513", "id_parc": "PA10283", "quartier": "Marais", "nom_entier": "Rue Saint Louis au Marais", "num_voies": "7", "num_sca": "ADO75CA_ANO513", "geox": 602042.0, "geoy": 128484.0 }, "geometry": { "type": "MultiPoint", "coordinates": [ [ 653361.383090649265796, 6862067.662101455964148 ] ] } },
{ "type": "Feature", "properties": { "gid": 25743, "id_num_sca": "ADO75CA_ANO513", "id_parc": "PA10283", "quartier": "Marais", "nom_entier": "Rue Saint Louis au Marais", "num_voies": "9", "num_sca": "ADO75CA_ANO513", "geox": 602042.0, "geoy": 128500.0 }, "geometry": { "type": "MultiPoint", "coordinates": [ [ 653362.943256126600318, 6862092.275225713849068 ] ] } },
{ "type": "Feature", "properties": { "gid": 25752, "id_num_sca": "ADO75CA_ANO522", "id_parc": "PA10508", "quartier": "Marais", "nom_entier": "Rue Saint Louis au Marais", "num_voies": "27", "num_sca": "ADO75CA_ANO513", "geox": 602044.0, "geoy": 128621.0 }, "geometry": { "type": "MultiPoint", "coordinates": [ [ 653369.61963985755574, 6862019.761144657619298 ] ] } },
{ "type": "Feature", "properties": { "gid": 25753, "id_num_sca": "ADO75CA_ANO522", "id_parc": "PA10507", "quartier": "Marais", "nom_entier": "Rue Saint Louis au Marais", "num_voies": "2", "num_sca": "ADO75CA_ANO522", "geox": 602051.0, "geoy": 128452.0 }, "geometry": { "type": "MultiPoint", "coordinates": [ [ 653370.649052229826339, 6862037.627492946572602 ] ] } },
{ "type": "Feature", "properties": { "gid": 25754, "id_num_sca": "ADO75CA_ANO522", "id_parc": "PA10509", "quartier": "Marais", "nom_entier": "Rue Saint Louis au Marais", "num_voies": "4", "num_sca": "ADO75CA_ANO522", "geox": 602052.0, "geoy": 128470.0 }, "geometry": { "type": "MultiPoint", "coordinates": [ [ 653371.868877171771601, 6862054.906174259260297 ] ] } },
{ "type": "Feature", "properties": { "gid": 25755, "id_num_sca": "ADO75CA_ANO522", "id_parc": "PA10509", "quartier": "Marais", "nom_entier": "Rue Saint Louis au Marais", "num_voies": "6", "num_sca": "ADO75CA_ANO522", "geox": 602053.0, "geoy": 128487.0 }, "geometry": { "type": "MultiPoint", "coordinates": [ [ 653372.184188262093812, 6862069.164465166628361 ] ] } },
{ "type": "Feature", "properties": { "gid": 26467, "id_num_sca": "ADO75CA_ANO514", "id_parc": "PA10721", "quartier": "Marais", "nom_entier": "Rue de Paradis au Marais", "num_voies": "16", "num_sca": "ADO75CA_ANO450", "geox": 601535.0, "geoy": 128806.0 }, "geometry": { "type": "MultiPoint", "coordinates": [ [ 653342.446000261232257, 6861993.263804815709591 ] ] } },
{ "type": "Feature", "properties": { "gid": 26468, "id_num_sca": "ADO75CA_ANO514", "id_parc": "PA10745", "quartier": "Marais", "nom_entier": "Rue de l'Egout au Marais", "num_voies": "21", "num_sca": "ADO75CA_ANO514", "geox": 602024.0, "geoy": 128425.0 }, "geometry": { "type": "MultiPoint", "coordinates": [ [ 653334.770636565401219, 6861974.534033599309623 ] ] } },
{ "type": "Feature", "properties": { "gid": 26469, "id_num_sca": "ADO75CA_ANO514", "id_parc": "PA10750", "quartier": "Marais", "nom_entier": "Rue de l'Egout au Marais", "num_voies": "19", "num_sca": "ADO75CA_ANO514", "geox": 602017.0, "geoy": 128407.0 }, "geometry": { "type": "MultiPoint", "coordinates": [ [ 653328.441126058576629, 6861958.33465079497546 ] ] } },
{ "type": "Feature", "properties": { "gid": 26470, "id_num_sca": "ADO75CA_ANO514", "id_parc": "PA10746", "quartier": "Marais", "nom_entier": "Rue de l'Egout au Marais", "num_voies": "17", "num_sca": "ADO75CA_ANO514", "geox": 602010.0, "geoy": 128390.0 }, "geometry": { "type": "MultiPoint", "coordinates": [ [ 653318.502457822673023, 6861938.657372460700572 ] ] } },
{ "type": "Feature", "properties": { "gid": 26471, "id_num_sca": "ADO75CA_ANO514", "id_parc": "PA10748", "quartier": "Marais", "nom_entier": "Rue de l'Egout au Marais", "num_voies": "15", "num_sca": "ADO75CA_ANO514", "geox": 602001.0, "geoy": 128371.0 }, "geometry": { "type": "MultiPoint", "coordinates": [ [ 653308.143871422042139, 6861920.129194973036647 ] ] } },
{ "type": "Feature", "properties": { "gid": 26472, "id_num_sca": "ADO75CA_ANO515", "id_parc": "PA10286", "quartier": "Marais", "nom_entier": "Rue de l'Egout au Marais", "num_voies": "13", "num_sca": "ADO75CA_ANO514", "geox": 601990.0, "geoy": 128352.0 }, "geometry": { "type": "MultiPoint", "coordinates": [ [ 653299.208729271311313, 6861901.656819694675505 ] ] } },
{ "type": "Feature", "properties": { "gid": 26473, "id_num_sca": "ADO75CA_ANO515", "id_parc": "PA10752", "quartier": "Marais", "nom_entier": "Rue de l'Egout au Marais", "num_voies": "11", "num_sca": "ADO75CA_ANO515", "geox": 601982.0, "geoy": 128333.0 }, "geometry": { "type": "MultiPoint", "coordinates": [ [ 653294.673003593226895, 6861892.685339344665408 ] ] } },
{ "type": "Feature", "properties": { "gid": 26474, "id_num_sca": "ADO75CA_ANO515", "id_parc": "PA10754", "quartier": "Marais", "nom_entier": "Rue de l'Egout au Marais", "num_voies": "9", "num_sca": "ADO75CA_ANO515", "geox": 601977.0, "geoy": 128324.0 }, "geometry": { "type": "MultiPoint", "coordinates": [ [ 653290.827888992149383, 6861884.510886535048485 ] ] } },
{ "type": "Feature", "properties": { "gid": 26475, "id_num_sca": "ADO75CA_ANO515", "id_parc": "PA10751", "quartier": "Marais", "nom_entier": "Rue de l'Egout au Marais", "num_voies": "7", "num_sca": "ADO75CA_ANO515", "geox": 601973.0, "geoy": 128316.0 }, "geometry": { "type": "MultiPoint", "coordinates": [ [ 653286.867094805114903, 6861876.72396160569042 ] ] } },
{ "type": "Feature", "properties": { "gid": 26476, "id_num_sca": "ADO75CA_ANO515", "id_parc": "PA10753", "quartier": "Marais", "nom_entier": "Rue de l'Egout au Marais", "num_voies": "5", "num_sca": "ADO75CA_ANO515", "geox": 601969.0, "geoy": 128308.0 }, "geometry": { "type": "MultiPoint", "coordinates": [ [ 653283.449497433030047, 6861869.883979609236121 ] ] } },
{ "type": "Feature", "properties": { "gid": 27136, "id_num_sca": "ADO75CA_ANO524", "id_parc": "PA10505", "quartier": "Marais", "nom_entier": "Rue du Foin au Marais", "num_voies": "2", "num_sca": "ADO75CA_ANO524", "geox": 602131.0, "geoy": 128495.0 }, "geometry": { "type": "MultiPoint", "coordinates": [ [ 653450.269427681225352, 6862062.353231409564614 ] ] } },
{ "type": "Feature", "properties": { "gid": 27137, "id_num_sca": "ADO75CA_ANO524", "id_parc": "PA10295", "quartier": "Marais", "nom_entier": "Rue du Foin au Marais", "num_voies": "4", "num_sca": "ADO75CA_ANO524", "geox": 602110.0, "geoy": 128501.0 }, "geometry": { "type": "MultiPoint", "coordinates": [ [ 653428.727632248424925, 6862067.711553804576397 ] ] } },
{ "type": "Feature", "properties": { "gid": 27138, "id_num_sca": "ADO75CA_ANO524", "id_parc": "PA10500", "quartier": "Marais", "nom_entier": "Rue du Foin au Marais", "num_voies": "6", "num_sca": "ADO75CA_ANO524", "geox": 602084.0, "geoy": 128507.0 }, "geometry": { "type": "MultiPoint", "coordinates": [ [ 653403.581037106574513, 6862074.174682531505823 ] ] } },
{ "type": "Feature", "properties": { "gid": 27139, "id_num_sca": "ADO75CA_ANO524", "id_parc": "PA10501", "quartier": "Marais", "nom_entier": "Rue du Foin au Marais", "num_voies": "8", "num_sca": "ADO75CA_ANO524", "geox": 602064.0, "geoy": 128512.0 }, "geometry": { "type": "MultiPoint", "coordinates": [ [ 653383.407457147492096, 6862079.61915370542556 ] ] } },
{ "type": "Feature", "properties": { "gid": 28880, "id_num_sca": "ADO75CA_ANO520", "id_parc": "PA10881", "quartier": "Marais", "nom_entier": "Rue des Jeûneurs", "num_voies": "5", "num_sca": "ADO75CA_ANO203", "geox": 600608.0, "geoy": 129887.0 }, "geometry": { "type": "MultiPoint", "coordinates": [ [ 653586.550587831647135, 6861946.864083215594292 ] ] } },
{ "type": "Feature", "properties": { "gid": 28881, "id_num_sca": "ADO75CA_ANO520", "id_parc": "PA10883", "quartier": "Marais", "nom_entier": "Rue des Jeûneurs", "num_voies": "3", "num_sca": "ADO75CA_ANO203", "geox": 600627.0, "geoy": 129880.0 }, "geometry": { "type": "MultiPoint", "coordinates": [ [ 653602.719973155064508, 6861942.836809808388352 ] ] } },
{ "type": "Feature", "properties": { "gid": 29033, "id_num_sca": "Jacoubet_1836", "id_parc": null, "quartier": "Marais", "nom_entier": "Passage Saulnier", "num_voies": "25", "num_sca": "Jacoubet_1836", "geox": null, "geoy": null }, "geometry": { "type": "MultiPoint", "coordinates": [ [ 653496.076656582183205, 6862042.34723465424031 ] ] } },
{ "type": "Feature", "properties": { "gid": 29034, "id_num_sca": "Jacoubet_1836", "id_parc": null, "quartier": "Marais", "nom_entier": "Passage du Grand Cerf", "num_voies": "2", "num_sca": "Jacoubet_1836", "geox": null, "geoy": null }, "geometry": { "type": "MultiPoint", "coordinates": [ [ 653499.402695388067514, 6862053.913218428380787 ] ] } },
{ "type": "Feature", "properties": { "gid": 29035, "id_num_sca": "Jacoubet_1836", "id_parc": null, "quartier": "Marais", "nom_entier": "Impasse des Hospitalieres", "num_voies": "1", "num_sca": "Jacoubet_1836", "geox": null, "geoy": null }, "geometry": { "type": "MultiPoint", "coordinates": [ [ 653520.195469718542881, 6862048.308011772111058 ] ] } },
{ "type": "Feature", "properties": { "gid": 29138, "id_num_sca": "ADO75CA_ANO515", "id_parc": "PA10755", "quartier": "Marais", "nom_entier": "Rue Saint Claude au Marais", "num_voies": "6", "num_sca": "ADO75CA_ANO531", "geox": 602165.0, "geoy": 128854.0 }, "geometry": { "type": "MultiPoint", "coordinates": [ [ 653258.709364232025109, 6861887.48718742839992 ] ] } },
{ "type": "Feature", "properties": { "gid": 29139, "id_num_sca": "ADO75CA_ANO515", "id_parc": "PA10756", "quartier": "Marais", "nom_entier": "Rue Saint Claude au Marais", "num_voies": "8", "num_sca": "ADO75CA_ANO531", "geox": 602149.0, "geoy": 128854.0 }, "geometry": { "type": "MultiPoint", "coordinates": [ [ 653263.047461479902267, 6861897.709197846241295 ] ] } },
{ "type": "Feature", "properties": { "gid": 29140, "id_num_sca": "ADO75CA_ANO515", "id_parc": "PA10758", "quartier": "Marais", "nom_entier": "Place du Marché Sainte Catherine", "num_voies": "4", "num_sca": "ADO75CA_ANO515", "geox": 601941.0, "geoy": 128319.0 }, "geometry": { "type": "MultiPoint", "coordinates": [ [ 653261.841979413991794, 6861906.401934406720102 ] ] } },
{ "type": "Feature", "properties": { "gid": 29146, "id_num_sca": "ADO75CA_ANO515", "id_parc": "PA10755", "quartier": "Marais", "nom_entier": "Place du Marché Sainte Catherine", "num_voies": "3", "num_sca": "ADO75CA_ANO515", "geox": 601915.0, "geoy": 128331.0 }, "geometry": { "type": "MultiPoint", "coordinates": [ [ 653255.070631819195114, 6861879.102852065116167 ] ] } }
]
}
