{
"type": "FeatureCollection",
"name": "atlas_verniquet_1791_voies",
"crs": { "type": "name", "properties": { "name": "urn:ogc:def:crs:EPSG::2154" } },
"features": [
{ "type": "Feature", "properties": { "gid": 6, "streetname": "rue Saint Louis", "note": null }, "geometry": { "type": "MultiLineString", "coordinates": [ [ [ 653363.209472501068376, 6862085.462392131797969 ], [ 653364.480023980489932, 6862127.925835975445807 ] ] ] } },
{ "type": "Feature", "properties": { "gid": 198, "streetname": "rue de l Echarpe", "note": null }, "geometry": { "type": "MultiLineString", "coordinates": [ [ [ 653351.208711350685917, 6862016.143270736560225 ], [ 653397.420159369008616, 6861996.249529008753598 ] ] ] } },
{ "type": "Feature", "properties": { "gid": 325, "streetname": "rue du Pas de la Mule", "note": null }, "geometry": { "type": "MultiLineString", "coordinates": [ [ [ 653574.6745283564087, 6861950.318370134569705 ], [ 653664.247560981777497, 6861930.388827026821673 ] ] ] } },
{ "type": "Feature", "properties": { "gid": 356, "streetname": "rue du Foin", "note": null }, "geometry": { "type": "MultiLineString", "coordinates": [ [ [ 653363.209472501068376, 6862085.462392131797969 ], [ 653477.110260598594323, 6862052.53463638573885 ] ] ] } },
{ "type": "Feature", "properties": { "gid": 357, "streetname": "rue de la Chaussée des Minimes", "note": null }, "geometry": { "type": "MultiLineString", "coordinates": [ [ [ 653477.110260598594323, 6862052.53463638573885 ], [ 653458.228532824316062, 6861979.619734269566834 ] ] ] } },
{ "type": "Feature", "properties": { "gid": 360, "streetname": "rue Saint Louis", "note": null }, "geometry": { "type": "MultiLineString", "coordinates": [ [ [ 653351.208711350685917, 6862016.143270736560225 ], [ 653361.363178899860941, 6862028.845770473591983 ], [ 653363.209472501068376, 6862085.462392131797969 ] ] ] } },
{ "type": "Feature", "properties": { "gid": 379, "streetname": "rue de la Chaussée des Minimes", "note": null }, "geometry": { "type": "MultiLineString", "coordinates": [ [ [ 653488.853732580202632, 6862091.256289350800216 ], [ 653477.110260598594323, 6862052.53463638573885 ] ] ] } },
{ "type": "Feature", "properties": { "gid": 382, "streetname": "rue des Tournelles", "note": null }, "geometry": { "type": "MultiLineString", "coordinates": [ [ [ 653578.631201111595146, 6862068.122271593660116 ], [ 653574.6745283564087, 6861950.318370134569705 ] ] ] } },
{ "type": "Feature", "properties": { "gid": 736, "streetname": "place Royale", "note": null }, "geometry": { "type": "MultiLineString", "coordinates": [ [ [ 653397.420159369008616, 6861996.249529008753598 ], [ 653366.495913305901922, 6861873.715571333654225 ], [ 653428.038337820209563, 6861855.768758725374937 ] ] ] } },
{ "type": "Feature", "properties": { "gid": 737, "streetname": "place Royale", "note": null }, "geometry": { "type": "MultiLineString", "coordinates": [ [ [ 653428.038337820209563, 6861855.768758725374937 ], [ 653490.36460335960146, 6861840.141086929477751 ], [ 653525.237317379214801, 6861964.441362034529448 ] ] ] } },
{ "type": "Feature", "properties": { "gid": 738, "streetname": "place Royale", "note": null }, "geometry": { "type": "MultiLineString", "coordinates": [ [ [ 653525.237317379214801, 6861964.441362034529448 ], [ 653458.228532824316062, 6861979.619734269566834 ] ] ] } },
{ "type": "Feature", "properties": { "gid": 739, "streetname": "place Royale", "note": null }, "geometry": { "type": "MultiLineString", "coordinates": [ [ [ 653458.228532824316062, 6861979.619734269566834 ], [ 653400.073304174933583, 6861995.802894079126418 ], [ 653397.420159369008616, 6861996.249529008753598 ] ] ] } },
{ "type": "Feature", "properties": { "gid": 968, "streetname": "rue Necker", "note": null }, "geometry": { "type": "MultiLineString", "coordinates": [ [ [ 653283.913978996337391, 6861915.58759895619005 ], [ 653262.848907307372428, 6861868.106926151551306 ] ] ] } },
{ "type": "Feature", "properties": { "gid": 1330, "streetname": "rue Neuve Sainte Catherine", "note": null }, "geometry": { "type": "MultiLineString", "coordinates": [ [ [ 653246.865273329080082, 6862062.21855067461729 ], [ 653351.208711350685917, 6862016.143270736560225 ] ] ] } },
{ "type": "Feature", "properties": { "gid": 1368, "streetname": "cul de sac Poissonnerie", "note": null }, "geometry": { "type": "MultiLineString", "coordinates": [ [ [ 653290.592514347983524, 6861932.401464223861694 ], [ 653283.913978996337391, 6861915.58759895619005 ] ] ] } },
{ "type": "Feature", "properties": { "gid": 1469, "streetname": "rue de l' Egoût", "note": null }, "geometry": { "type": "MultiLineString", "coordinates": [ [ [ 653250.386732717626728, 6861804.294338423758745 ], [ 653278.741179073811509, 6861859.977007530629635 ] ] ] } },
{ "type": "Feature", "properties": { "gid": 1470, "streetname": "rue de l' Egoût", "note": null }, "geometry": { "type": "MultiLineString", "coordinates": [ [ [ 653278.741179073811509, 6861859.977007530629635 ], [ 653302.668397274333984, 6861908.183011615648866 ] ] ] } },
{ "type": "Feature", "properties": { "gid": 1471, "streetname": "rue de l' Egoût", "note": null }, "geometry": { "type": "MultiLineString", "coordinates": [ [ [ 653302.668397274333984, 6861908.183011615648866 ], [ 653351.208711350685917, 6862016.143270736560225 ] ] ] } },
{ "type": "Feature", "properties": { "gid": 1472, "streetname": "rue de Jarente", "note": null }, "geometry": { "type": "MultiLineString", "coordinates": [ [ [ 653283.913978996337391, 6861915.58759895619005 ], [ 653302.668397274333984, 6861908.183011615648866 ] ] ] } },
{ "type": "Feature", "properties": { "gid": 1473, "streetname": "rue d Ormesson", "note": null }, "geometry": { "type": "MultiLineString", "coordinates": [ [ [ 653262.848907307372428, 6861868.106926151551306 ], [ 653278.741179073811509, 6861859.977007530629635 ] ] ] } },
{ "type": "Feature", "properties": { "gid": 1775, "streetname": "rue de Jarente", "note": null }, "geometry": { "type": "MultiLineString", "coordinates": [ [ [ 653259.378176882746629, 6861928.145365843549371 ], [ 653283.913978996337391, 6861915.58759895619005 ] ] ] } },
{ "type": "Feature", "properties": { "gid": 1777, "streetname": "rue d Ormesson", "note": null }, "geometry": { "type": "MultiLineString", "coordinates": [ [ [ 653237.531101842992939, 6861879.126344788819551 ], [ 653262.848907307372428, 6861868.106926151551306 ] ] ] } },
{ "type": "Feature", "properties": { "gid": 2561, "streetname": "rue des Tournelles", "note": null }, "geometry": { "type": "MultiLineString", "coordinates": [ [ [ 653574.6745283564087, 6861950.318370134569705 ], [ 653569.491442072438076, 6861795.999743192456663 ], [ 653576.460499747074209, 6861726.235568366013467 ] ] ] } },
{ "type": "Feature", "properties": { "gid": 2814, "streetname": "rue du Pas de la Mule", "note": null }, "geometry": { "type": "MultiLineString", "coordinates": [ [ [ 653525.237317379214801, 6861964.441362034529448 ], [ 653574.6745283564087, 6861950.318370134569705 ] ] ] } },
{ "type": "Feature", "properties": { "gid": 2960, "streetname": "rue Royale", "note": null }, "geometry": { "type": "MultiLineString", "coordinates": [ [ [ 653395.634411264560185, 6861733.909295924007893 ], [ 653428.038337820209563, 6861855.768758725374937 ] ] ] } },
{ "type": "Feature", "properties": { "gid": 2975, "streetname": "cul de sac Guenienée", "note": null }, "geometry": { "type": "MultiLineString", "coordinates": [ [ [ 653456.040587934548967, 6861710.328447815030813 ], [ 653470.543066630722024, 6861788.653945572674274 ] ] ] } },
{ "type": "Feature", "properties": { "gid": 3208, "streetname": "cul de sac des Hospitalieres", "note": null }, "geometry": { "type": "MultiLineString", "coordinates": [ [ [ 653477.110260598594323, 6862052.53463638573885 ], [ 653530.426410709507763, 6862038.384845397435129 ] ] ] } }
]
}
