{
"type": "FeatureCollection",
"name": "cadastre_paris_1807_adresses",
"crs": { "type": "name", "properties": { "name": "urn:ogc:def:crs:EPSG::2154" } },
"features": [
{ "type": "Feature", "properties": { "fid": 14913, "PREFIXE 1": "RUE", "PREFIXE 2": null, "NOM_RUE": "NEUVE-SAINTE-CATHERINE", "NUMERO TXT": "1", "NOM_SAISI": "RUE NEUVE-SAINTE-CATHERINE", "NOM_NOTE": "Rue Ne. St. Catherine", "EXP_GEO": 1, "INTERP": 0, "NUMEROTATI": 1, "NUM_QUART": 32 }, "geometry": { "type": "Point", "coordinates": [ 653339.221369800972752, 6862014.728855254128575 ] } },
{ "type": "Feature", "properties": { "fid": 14914, "PREFIXE 1": "RUE", "PREFIXE 2": null, "NOM_RUE": "NEUVE-SAINTE-CATHERINE", "NUMERO TXT": "3", "NOM_SAISI": "RUE NEUVE-SAINTE-CATHERINE", "NOM_NOTE": "Rue Ne. St. Catherine", "EXP_GEO": 1, "INTERP": 0, "NUMEROTATI": 1, "NUM_QUART": 32 }, "geometry": { "type": "Point", "coordinates": [ 653333.223435357562266, 6862017.773386288434267 ] } },
{ "type": "Feature", "properties": { "fid": 14915, "PREFIXE 1": "RUE", "PREFIXE 2": null, "NOM_RUE": "NEUVE-SAINTE-CATHERINE", "NUMERO TXT": "5", "NOM_SAISI": "RUE NEUVE-SAINTE-CATHERINE", "NOM_NOTE": "Rue Ne. St. Catherine", "EXP_GEO": 1, "INTERP": 0, "NUMEROTATI": 1, "NUM_QUART": 32 }, "geometry": { "type": "Point", "coordinates": [ 653326.22516929730773, 6862021.325482212007046 ] } },
{ "type": "Feature", "properties": { "fid": 14916, "PREFIXE 1": "RUE", "PREFIXE 2": null, "NOM_RUE": "NEUVE-SAINTE-CATHERINE", "NUMERO TXT": "7", "NOM_SAISI": "RUE NEUVE-SAINTE-CATHERINE", "NOM_NOTE": "Rue Ne. St. Catherine", "EXP_GEO": 1, "INTERP": 0, "NUMEROTATI": 1, "NUM_QUART": 32 }, "geometry": { "type": "Point", "coordinates": [ 653319.469866910949349, 6862023.625949678942561 ] } },
{ "type": "Feature", "properties": { "fid": 14926, "PREFIXE 1": "RUE", "PREFIXE 2": null, "NOM_RUE": "NEUVE-SAINTE-CATHERINE", "NUMERO TXT": "2", "NOM_SAISI": "RUE NEUVE-SAINTE-CATHERINE", "NOM_NOTE": "Rue Ne. St. Catherine", "EXP_GEO": 1, "INTERP": 0, "NUMEROTATI": 1, "NUM_QUART": 32 }, "geometry": { "type": "Point", "coordinates": [ 653345.062376815709285, 6862028.935692340135574 ] } },
{ "type": "Feature", "properties": { "fid": 14927, "PREFIXE 1": "RUE", "PREFIXE 2": null, "NOM_RUE": "NEUVE-SAINTE-CATHERINE", "NUMERO TXT": "4", "NOM_SAISI": "RUE NEUVE-SAINTE-CATHERINE", "NOM_NOTE": "Rue Ne. St. Catherine", "EXP_GEO": 1, "INTERP": 0, "NUMEROTATI": 1, "NUM_QUART": 32 }, "geometry": { "type": "Point", "coordinates": [ 653337.31338739709463, 6862032.24331745877862 ] } },
{ "type": "Feature", "properties": { "fid": 14928, "PREFIXE 1": "RUE", "PREFIXE 2": null, "NOM_RUE": "NEUVE-SAINTE-CATHERINE", "NUMERO TXT": "6", "NOM_SAISI": "RUE NEUVE-SAINTE-CATHERINE", "NOM_NOTE": "Rue Ne. St. Catherine", "EXP_GEO": 1, "INTERP": 0, "NUMEROTATI": 1, "NUM_QUART": 32 }, "geometry": { "type": "Point", "coordinates": [ 653328.565239732619375, 6862036.308610897511244 ] } },
{ "type": "Feature", "properties": { "fid": 14929, "PREFIXE 1": "RUE", "PREFIXE 2": null, "NOM_RUE": "NEUVE-SAINTE-CATHERINE", "NUMERO TXT": "8", "NOM_SAISI": "RUE NEUVE-SAINTE-CATHERINE", "NOM_NOTE": "Rue Ne. St. Catherine", "EXP_GEO": 1, "INTERP": 0, "NUMEROTATI": 1, "NUM_QUART": 32 }, "geometry": { "type": "Point", "coordinates": [ 653319.814440594404005, 6862040.124111439101398 ] } },
{ "type": "Feature", "properties": { "fid": 14934, "PREFIXE 1": "RUE", "PREFIXE 2": "DE L'", "NOM_RUE": "ÉCHARPE", "NUMERO TXT": "1", "NOM_SAISI": "RUE DE L'ÉCHARPE", "NOM_NOTE": "Rue de l'Écharpe", "EXP_GEO": 1, "INTERP": 0, "NUMEROTATI": 1, "NUM_QUART": 32 }, "geometry": { "type": "Point", "coordinates": [ 653368.705991561408155, 6862000.261473883874714 ] } },
{ "type": "Feature", "properties": { "fid": 14935, "PREFIXE 1": "RUE", "PREFIXE 2": "DE L'", "NOM_RUE": "ÉCHARPE", "NUMERO TXT": "2", "NOM_SAISI": "RUE DE L'ÉCHARPE", "NOM_NOTE": "Rue de l'Écharpe", "EXP_GEO": 1, "INTERP": 0, "NUMEROTATI": 1, "NUM_QUART": 32 }, "geometry": { "type": "Point", "coordinates": [ 653380.78445560648106, 6862011.672118320129812 ] } },
{ "type": "Feature", "properties": { "fid": 14936, "PREFIXE 1": "RUE", "PREFIXE 2": "DE", "NOM_RUE": "SARENTE", "NUMERO TXT": "2", "NOM_SAISI": "RUE DE SARENTE", "NOM_NOTE": "Rue de Sarente", "EXP_GEO": 1, "INTERP": 0, "NUMEROTATI": 1, "NUM_QUART": 32 }, "geometry": { "type": "Point", "coordinates": [ 653298.076469772495329, 6861918.157735485583544 ] } },
{ "type": "Feature", "properties": { "fid": 14937, "PREFIXE 1": "RUE", "PREFIXE 2": "DE", "NOM_RUE": "SARENTE", "NUMERO TXT": "4", "NOM_SAISI": "RUE DE SARENTE", "NOM_NOTE": "Rue de Sarente", "EXP_GEO": 1, "INTERP": 0, "NUMEROTATI": 1, "NUM_QUART": 32 }, "geometry": { "type": "Point", "coordinates": [ 653294.069802527665161, 6861919.93728756532073 ] } },
{ "type": "Feature", "properties": { "fid": 14938, "PREFIXE 1": "RUE", "PREFIXE 2": "DE", "NOM_RUE": "SARENTE", "NUMERO TXT": "6", "NOM_SAISI": "RUE DE SARENTE", "NOM_NOTE": "Rue de Sarente", "EXP_GEO": 1, "INTERP": 0, "NUMEROTATI": 1, "NUM_QUART": 32 }, "geometry": { "type": "Point", "coordinates": [ 653272.276774276280776, 6861929.099412532523274 ] } },
{ "type": "Feature", "properties": { "fid": 14943, "PREFIXE 1": "RUE", "PREFIXE 2": "DE", "NOM_RUE": "SARENTE", "NUMERO TXT": "1", "NOM_SAISI": "RUE DE SARENTE", "NOM_NOTE": "Rue de Sarente", "EXP_GEO": 1, "INTERP": 0, "NUMEROTATI": 1, "NUM_QUART": 32 }, "geometry": { "type": "Point", "coordinates": [ 653293.762939607142471, 6861906.456645561382174 ] } },
{ "type": "Feature", "properties": { "fid": 14944, "PREFIXE 1": "RUE", "PREFIXE 2": "DE", "NOM_RUE": "SARENTE", "NUMERO TXT": "3", "NOM_SAISI": "RUE DE SARENTE", "NOM_NOTE": "Rue de Sarente", "EXP_GEO": 1, "INTERP": 0, "NUMEROTATI": 1, "NUM_QUART": 32 }, "geometry": { "type": "Point", "coordinates": [ 653288.250989206484519, 6861908.497807060368359 ] } },
{ "type": "Feature", "properties": { "fid": 14945, "PREFIXE 1": "RUE", "PREFIXE 2": "DE", "NOM_RUE": "SARENTE", "NUMERO TXT": "5", "NOM_SAISI": "RUE DE SARENTE", "NOM_NOTE": "Rue de Sarente", "EXP_GEO": 1, "INTERP": 0, "NUMEROTATI": 1, "NUM_QUART": 32 }, "geometry": { "type": "Point", "coordinates": [ 653273.723216728190891, 6861915.354754197411239 ] } },
{ "type": "Feature", "properties": { "fid": 14948, "PREFIXE 1": "RUE", "PREFIXE 2": "D'", "NOM_RUE": "ORMESSON", "NUMERO TXT": "1", "NOM_SAISI": "RUE D'ORMESSON", "NOM_NOTE": "Rue d'Ormesson", "EXP_GEO": 1, "INTERP": 0, "NUMEROTATI": 1, "NUM_QUART": 32 }, "geometry": { "type": "Point", "coordinates": [ 653270.239444428007118, 6861858.224153390154243 ] } },
{ "type": "Feature", "properties": { "fid": 14949, "PREFIXE 1": "RUE", "PREFIXE 2": "D'", "NOM_RUE": "ORMESSON", "NUMERO TXT": "3", "NOM_SAISI": "RUE D'ORMESSON", "NOM_NOTE": "Rue d'Ormesson", "EXP_GEO": 1, "INTERP": 0, "NUMEROTATI": 1, "NUM_QUART": 32 }, "geometry": { "type": "Point", "coordinates": [ 653264.974734699586406, 6861860.512946795672178 ] } },
{ "type": "Feature", "properties": { "fid": 14950, "PREFIXE 1": "RUE", "PREFIXE 2": "D'", "NOM_RUE": "ORMESSON", "NUMERO TXT": "5", "NOM_SAISI": "RUE D'ORMESSON", "NOM_NOTE": "Rue d'Ormesson", "EXP_GEO": 1, "INTERP": 0, "NUMEROTATI": 1, "NUM_QUART": 32 }, "geometry": { "type": "Point", "coordinates": [ 653257.953534446656704, 6861863.315272965468466 ] } },
{ "type": "Feature", "properties": { "fid": 14951, "PREFIXE 1": "RUE", "PREFIXE 2": "D'", "NOM_RUE": "ORMESSON", "NUMERO TXT": "7", "NOM_SAISI": "RUE D'ORMESSON", "NOM_NOTE": "Rue d'Ormesson", "EXP_GEO": 1, "INTERP": 0, "NUMEROTATI": 1, "NUM_QUART": 32 }, "geometry": { "type": "Point", "coordinates": [ 653250.679444963578135, 6861865.8702771961689 ] } },
{ "type": "Feature", "properties": { "fid": 14958, "PREFIXE 1": "RUE", "PREFIXE 2": "D'", "NOM_RUE": "ORMESSON", "NUMERO TXT": "2", "NOM_SAISI": "RUE D'ORMESSON", "NOM_NOTE": "Rue d'Ormesson", "EXP_GEO": 1, "INTERP": 0, "NUMEROTATI": 1, "NUM_QUART": 32 }, "geometry": { "type": "Point", "coordinates": [ 653273.798398855491541, 6861870.672368064522743 ] } },
{ "type": "Feature", "properties": { "fid": 14959, "PREFIXE 1": "RUE", "PREFIXE 2": "D'", "NOM_RUE": "ORMESSON", "NUMERO TXT": "4", "NOM_SAISI": "RUE D'ORMESSON", "NOM_NOTE": "Rue d'Ormesson", "EXP_GEO": 1, "INTERP": 0, "NUMEROTATI": 1, "NUM_QUART": 32 }, "geometry": { "type": "Point", "coordinates": [ 653258.005787425674498, 6861877.539108672179282 ] } },
{ "type": "Feature", "properties": { "fid": 14970, "PREFIXE 1": "MARCHÉ", "PREFIXE 2": null, "NOM_RUE": "SAINTE-CATHERINE", "NUMERO TXT": "2", "NOM_SAISI": "MARCHÉ SAINTE-CATHERINE", "NOM_NOTE": "Marché Ste. Catherine", "EXP_GEO": 1, "INTERP": 0, "NUMEROTATI": 1, "NUM_QUART": 32 }, "geometry": { "type": "Point", "coordinates": [ 653256.912722530541942, 6861881.739751593209803 ] } },
{ "type": "Feature", "properties": { "fid": 14971, "PREFIXE 1": "MARCHÉ", "PREFIXE 2": null, "NOM_RUE": "SAINTE-CATHERINE", "NUMERO TXT": "4", "NOM_SAISI": "MARCHÉ SAINTE-CATHERINE", "NOM_NOTE": "Marché Ste. Catherine", "EXP_GEO": 1, "INTERP": 0, "NUMEROTATI": 1, "NUM_QUART": 32 }, "geometry": { "type": "Point", "coordinates": [ 653261.101679393439554, 6861890.481703541241586 ] } },
{ "type": "Feature", "properties": { "fid": 14972, "PREFIXE 1": "MARCHÉ", "PREFIXE 2": null, "NOM_RUE": "SAINTE-CATHERINE", "NUMERO TXT": "6", "NOM_SAISI": "MARCHÉ SAINTE-CATHERINE", "NOM_NOTE": "Marché Ste. Catherine", "EXP_GEO": 1, "INTERP": 0, "NUMEROTATI": 1, "NUM_QUART": 32 }, "geometry": { "type": "Point", "coordinates": [ 653265.988336297567002, 6861900.42385330889374 ] } },
{ "type": "Feature", "properties": { "fid": 14978, "PREFIXE 1": "RUE", "PREFIXE 2": "DE L'", "NOM_RUE": "ÉGOUT", "NUMERO TXT": "5", "NOM_SAISI": "RUE DE L'ÉGOUT", "NOM_NOTE": "Rue de l'Égout", "EXP_GEO": 1, "INTERP": 0, "NUMEROTATI": 1, "NUM_QUART": 32 }, "geometry": { "type": "Point", "coordinates": [ 653278.515168493147939, 6861872.444755936041474 ] } },
{ "type": "Feature", "properties": { "fid": 14979, "PREFIXE 1": "RUE", "PREFIXE 2": "DE L'", "NOM_RUE": "ÉGOUT", "NUMERO TXT": "7", "NOM_SAISI": "RUE DE L'ÉGOUT", "NOM_NOTE": "Rue de l'Égout", "EXP_GEO": 1, "INTERP": 0, "NUMEROTATI": 1, "NUM_QUART": 32 }, "geometry": { "type": "Point", "coordinates": [ 653285.313641957123764, 6861885.81201614625752 ] } },
{ "type": "Feature", "properties": { "fid": 14980, "PREFIXE 1": "RUE", "PREFIXE 2": "DE L'", "NOM_RUE": "ÉGOUT", "NUMERO TXT": "9", "NOM_SAISI": "RUE DE L'ÉGOUT", "NOM_NOTE": "Rue de l'Égout", "EXP_GEO": 1, "INTERP": 0, "NUMEROTATI": 1, "NUM_QUART": 32 }, "geometry": { "type": "Point", "coordinates": [ 653292.114428656408563, 6861899.526070936582983 ] } },
{ "type": "Feature", "properties": { "fid": 14981, "PREFIXE 1": "RUE", "PREFIXE 2": "DE L'", "NOM_RUE": "ÉGOUT", "NUMERO TXT": "2", "NOM_SAISI": "RUE DE L'ÉGOUT", "NOM_NOTE": "Rue de l'Égout", "EXP_GEO": 1, "INTERP": 0, "NUMEROTATI": 1, "NUM_QUART": 32 }, "geometry": { "type": "Point", "coordinates": [ 653297.40000714850612, 6861879.347753967158496 ] } },
{ "type": "Feature", "properties": { "fid": 14982, "PREFIXE 1": "RUE", "PREFIXE 2": "DE L'", "NOM_RUE": "ÉGOUT", "NUMERO TXT": "11", "NOM_SAISI": "RUE DE L'ÉGOUT", "NOM_NOTE": "Rue de l'Égout", "EXP_GEO": 1, "INTERP": 0, "NUMEROTATI": 1, "NUM_QUART": 32 }, "geometry": { "type": "Point", "coordinates": [ 653301.360598047147505, 6861918.732423456385732 ] } },
{ "type": "Feature", "properties": { "fid": 14983, "PREFIXE 1": "RUE", "PREFIXE 2": "DE L'", "NOM_RUE": "ÉGOUT", "NUMERO TXT": "13", "NOM_SAISI": "RUE DE L'ÉGOUT", "NOM_NOTE": "Rue de l'Égout", "EXP_GEO": 1, "INTERP": 0, "NUMEROTATI": 1, "NUM_QUART": 32 }, "geometry": { "type": "Point", "coordinates": [ 653304.331305309897289, 6861925.940044204704463 ] } },
{ "type": "Feature", "properties": { "fid": 14984, "PREFIXE 1": "RUE", "PREFIXE 2": "DE L'", "NOM_RUE": "ÉGOUT", "NUMERO TXT": "6", "NOM_SAISI": "RUE DE L'ÉGOUT", "NOM_NOTE": "Rue de l'Égout", "EXP_GEO": 1, "INTERP": 0, "NUMEROTATI": 1, "NUM_QUART": 32 }, "geometry": { "type": "Point", "coordinates": [ 653319.190978768630885, 6861923.413366695865989 ] } },
{ "type": "Feature", "properties": { "fid": 14985, "PREFIXE 1": "RUE", "PREFIXE 2": "DE L'", "NOM_RUE": "ÉGOUT", "NUMERO TXT": "15", "NOM_SAISI": "RUE DE L'ÉGOUT", "NOM_NOTE": "Rue de l'Égout", "EXP_GEO": 1, "INTERP": 0, "NUMEROTATI": 1, "NUM_QUART": 32 }, "geometry": { "type": "Point", "coordinates": [ 653311.118556866189465, 6861935.873648309148848 ] } },
{ "type": "Feature", "properties": { "fid": 14986, "PREFIXE 1": "RUE", "PREFIXE 2": "DE L'", "NOM_RUE": "ÉGOUT", "NUMERO TXT": "17", "NOM_SAISI": "RUE DE L'ÉGOUT", "NOM_NOTE": "Rue de l'Égout", "EXP_GEO": 1, "INTERP": 0, "NUMEROTATI": 1, "NUM_QUART": 32 }, "geometry": { "type": "Point", "coordinates": [ 653320.202104845899157, 6861956.469129871577024 ] } },
{ "type": "Feature", "properties": { "fid": 14987, "PREFIXE 1": "RUE", "PREFIXE 2": "DE L'", "NOM_RUE": "ÉGOUT", "NUMERO TXT": "19", "NOM_SAISI": "RUE DE L'ÉGOUT", "NOM_NOTE": "Rue de l'Égout", "EXP_GEO": 1, "INTERP": 0, "NUMEROTATI": 1, "NUM_QUART": 32 }, "geometry": { "type": "Point", "coordinates": [ 653327.541060292394832, 6861973.121426923200488 ] } },
{ "type": "Feature", "properties": { "fid": 14988, "PREFIXE 1": "RUE", "PREFIXE 2": "DE L'", "NOM_RUE": "ÉGOUT", "NUMERO TXT": "21", "NOM_SAISI": "RUE DE L'ÉGOUT", "NOM_NOTE": "Rue de l'Égout", "EXP_GEO": 1, "INTERP": 0, "NUMEROTATI": 1, "NUM_QUART": 32 }, "geometry": { "type": "Point", "coordinates": [ 653334.544276071246713, 6861991.330793658271432 ] } },
{ "type": "Feature", "properties": { "fid": 14989, "PREFIXE 1": "RUE", "PREFIXE 2": "DE L'", "NOM_RUE": "ÉGOUT", "NUMERO TXT": "23", "NOM_SAISI": "RUE DE L'ÉGOUT", "NOM_NOTE": "Rue de l'Égout", "EXP_GEO": 1, "INTERP": 0, "NUMEROTATI": 1, "NUM_QUART": 32 }, "geometry": { "type": "Point", "coordinates": [ 653341.539280900615267, 6862007.476524853147566 ] } },
{ "type": "Feature", "properties": { "fid": 14990, "PREFIXE 1": "RUE", "PREFIXE 2": "DE L'", "NOM_RUE": "ÉGOUT", "NUMERO TXT": "8", "NOM_SAISI": "RUE DE L'ÉGOUT", "NOM_NOTE": "Rue de l'Égout", "EXP_GEO": 1, "INTERP": 0, "NUMEROTATI": 1, "NUM_QUART": 32 }, "geometry": { "type": "Point", "coordinates": [ 653325.307293301564641, 6861938.690948285162449 ] } },
{ "type": "Feature", "properties": { "fid": 14991, "PREFIXE 1": "RUE", "PREFIXE 2": "DE L'", "NOM_RUE": "ÉGOUT", "NUMERO TXT": "10", "NOM_SAISI": "RUE DE L'ÉGOUT", "NOM_NOTE": "Rue de l'Égout", "EXP_GEO": 1, "INTERP": 0, "NUMEROTATI": 1, "NUM_QUART": 32 }, "geometry": { "type": "Point", "coordinates": [ 653331.593550969613716, 6861952.936925767920911 ] } },
{ "type": "Feature", "properties": { "fid": 14992, "PREFIXE 1": "RUE", "PREFIXE 2": "DE L'", "NOM_RUE": "ÉGOUT", "NUMERO TXT": "12", "NOM_SAISI": "RUE DE L'ÉGOUT", "NOM_NOTE": "Rue de l'Égout", "EXP_GEO": 1, "INTERP": 0, "NUMEROTATI": 1, "NUM_QUART": 32 }, "geometry": { "type": "Point", "coordinates": [ 653336.489909242838621, 6861965.301375872455537 ] } },
{ "type": "Feature", "properties": { "fid": 14993, "PREFIXE 1": "RUE", "PREFIXE 2": "DE L'", "NOM_RUE": "ÉGOUT", "NUMERO TXT": "14", "NOM_SAISI": "RUE DE L'ÉGOUT", "NOM_NOTE": "Rue de l'Égout", "EXP_GEO": 1, "INTERP": 0, "NUMEROTATI": 1, "NUM_QUART": 32 }, "geometry": { "type": "Point", "coordinates": [ 653342.601937946979888, 6861978.692394935525954 ] } },
{ "type": "Feature", "properties": { "fid": 14994, "PREFIXE 1": "RUE", "PREFIXE 2": "DE L'", "NOM_RUE": "ÉGOUT", "NUMERO TXT": "16", "NOM_SAISI": "RUE DE L'ÉGOUT", "NOM_NOTE": "Rue de l'Égout", "EXP_GEO": 1, "INTERP": 0, "NUMEROTATI": 1, "NUM_QUART": 32 }, "geometry": { "type": "Point", "coordinates": [ 653348.008563414448872, 6861988.989583008922637 ] } },
{ "type": "Feature", "properties": { "fid": 14995, "PREFIXE 1": "RUE", "PREFIXE 2": "DE L'", "NOM_RUE": "ÉGOUT", "NUMERO TXT": "18", "NOM_SAISI": "RUE DE L'ÉGOUT", "NOM_NOTE": "Rue de l'Égout", "EXP_GEO": 1, "INTERP": 0, "NUMEROTATI": 1, "NUM_QUART": 32 }, "geometry": { "type": "Point", "coordinates": [ 653353.080944307497703, 6862001.358772886916995 ] } },
{ "type": "Feature", "properties": { "fid": 15063, "PREFIXE 1": "RUE", "PREFIXE 2": null, "NOM_RUE": "ROYALE-SAINT-ANTOINE", "NUMERO TXT": "11", "NOM_SAISI": "RUE ROYALE-SAINT-ANTOINE", "NOM_NOTE": "Rue Royale", "EXP_GEO": 1, "INTERP": 0, "NUMEROTATI": 1, "NUM_QUART": 32 }, "geometry": { "type": "Point", "coordinates": [ 653407.338823709404096, 6861810.351680977270007 ] } },
{ "type": "Feature", "properties": { "fid": 15064, "PREFIXE 1": "RUE", "PREFIXE 2": null, "NOM_RUE": "ROYALE-SAINT-ANTOINE", "NUMERO TXT": "11 bis", "NOM_SAISI": "RUE ROYALE-SAINT-ANTOINE", "NOM_NOTE": "Rue Royale", "EXP_GEO": 1, "INTERP": 0, "NUMEROTATI": 1, "NUM_QUART": 32 }, "geometry": { "type": "Point", "coordinates": [ 653410.429495090269484, 6861822.846088546328247 ] } },
{ "type": "Feature", "properties": { "fid": 15074, "PREFIXE 1": "CUL-DE-SAC", "PREFIXE 2": null, "NOM_RUE": "GUÉMÉNÉE", "NUMERO TXT": "10", "NOM_SAISI": "CUL-DE-SAC GUÉMÉNÉE", "NOM_NOTE": "C. de Sac Guéménée", "EXP_GEO": 1, "INTERP": 0, "NUMEROTATI": 1, "NUM_QUART": 32 }, "geometry": { "type": "Point", "coordinates": [ 653474.55998859659303, 6861797.648782731965184 ] } },
{ "type": "Feature", "properties": { "fid": 15095, "PREFIXE 1": "RUE", "PREFIXE 2": "DU", "NOM_RUE": "PAS-DE-LA-MULE", "NUMERO TXT": "5", "NOM_SAISI": "RUE DU PAS-DE-LA-MULE", "NOM_NOTE": "Rue du Pas de la Mule", "EXP_GEO": 1, "INTERP": 0, "NUMEROTATI": 1, "NUM_QUART": 32 }, "geometry": { "type": "Point", "coordinates": [ 653601.170183816342615, 6861938.399620803073049 ] } },
{ "type": "Feature", "properties": { "fid": 15096, "PREFIXE 1": "RUE", "PREFIXE 2": "DU", "NOM_RUE": "PAS-DE-LA-MULE", "NUMERO TXT": "9", "NOM_SAISI": "RUE DU PAS-DE-LA-MULE", "NOM_NOTE": "Rue du Pas de la Mule", "EXP_GEO": 1, "INTERP": 0, "NUMEROTATI": 1, "NUM_QUART": 32 }, "geometry": { "type": "Point", "coordinates": [ 653557.531160163925961, 6861950.135549905709922 ] } },
{ "type": "Feature", "properties": { "fid": 15097, "PREFIXE 1": "RUE", "PREFIXE 2": "DU", "NOM_RUE": "PAS-DE-LA-MULE", "NUMERO TXT": "11", "NOM_SAISI": "RUE DU PAS-DE-LA-MULE", "NOM_NOTE": "Rue du Pas de la Mule", "EXP_GEO": 1, "INTERP": 0, "NUMEROTATI": 1, "NUM_QUART": 32 }, "geometry": { "type": "Point", "coordinates": [ 653548.411461022798903, 6861953.466501395218074 ] } },
{ "type": "Feature", "properties": { "fid": 15098, "PREFIXE 1": "RUE", "PREFIXE 2": "DU", "NOM_RUE": "PAS-DE-LA-MULE", "NUMERO TXT": "13", "NOM_SAISI": "RUE DU PAS-DE-LA-MULE", "NOM_NOTE": "Rue du Pas de la Mule", "EXP_GEO": 1, "INTERP": 0, "NUMEROTATI": 1, "NUM_QUART": 32 }, "geometry": { "type": "Point", "coordinates": [ 653539.611317568691447, 6861955.488185530528426 ] } },
{ "type": "Feature", "properties": { "fid": 15101, "PREFIXE 1": "RUE", "PREFIXE 2": "DU", "NOM_RUE": "PAS-DE-LA-MULE", "NUMERO TXT": "6", "NOM_SAISI": "RUE DU PAS-DE-LA-MULE", "NOM_NOTE": "Rue du Pas de la Mule", "EXP_GEO": 1, "INTERP": 0, "NUMEROTATI": 1, "NUM_QUART": 32 }, "geometry": { "type": "Point", "coordinates": [ 653595.048311434104107, 6861957.071394744329154 ] } },
{ "type": "Feature", "properties": { "fid": 15102, "PREFIXE 1": "RUE", "PREFIXE 2": "DU", "NOM_RUE": "PAS-DE-LA-MULE", "NUMERO TXT": "8", "NOM_SAISI": "RUE DU PAS-DE-LA-MULE", "NOM_NOTE": "Rue du Pas de la Mule", "EXP_GEO": 1, "INTERP": 0, "NUMEROTATI": 1, "NUM_QUART": 32 }, "geometry": { "type": "Point", "coordinates": [ 653559.221427271841094, 6861965.158823527395725 ] } },
{ "type": "Feature", "properties": { "fid": 15127, "PREFIXE 1": "RUE", "PREFIXE 2": "DES", "NOM_RUE": "TOURNELLES", "NUMERO TXT": "7", "NOM_SAISI": "RUE DES TOURNELLES", "NOM_NOTE": "Rue des Tournelles", "EXP_GEO": 1, "INTERP": 0, "NUMEROTATI": 1, "NUM_QUART": 32 }, "geometry": { "type": "Point", "coordinates": [ 653569.209505171864294, 6861767.322808745317161 ] } },
{ "type": "Feature", "properties": { "fid": 15128, "PREFIXE 1": "RUE", "PREFIXE 2": "DES", "NOM_RUE": "TOURNELLES", "NUMERO TXT": "9", "NOM_SAISI": "RUE DES TOURNELLES", "NOM_NOTE": "Rue des Tournelles", "EXP_GEO": 1, "INTERP": 0, "NUMEROTATI": 1, "NUM_QUART": 32 }, "geometry": { "type": "Point", "coordinates": [ 653567.766406480688602, 6861780.703361154533923 ] } },
{ "type": "Feature", "properties": { "fid": 15129, "PREFIXE 1": "RUE", "PREFIXE 2": "DES", "NOM_RUE": "TOURNELLES", "NUMERO TXT": "11", "NOM_SAISI": "RUE DES TOURNELLES", "NOM_NOTE": "Rue des Tournelles", "EXP_GEO": 1, "INTERP": 0, "NUMEROTATI": 1, "NUM_QUART": 32 }, "geometry": { "type": "Point", "coordinates": [ 653565.489887034986168, 6861793.882799844257534 ] } },
{ "type": "Feature", "properties": { "fid": 15130, "PREFIXE 1": "RUE", "PREFIXE 2": "DES", "NOM_RUE": "TOURNELLES", "NUMERO TXT": "13", "NOM_SAISI": "RUE DES TOURNELLES", "NOM_NOTE": "Rue des Tournelles", "EXP_GEO": 1, "INTERP": 0, "NUMEROTATI": 1, "NUM_QUART": 32 }, "geometry": { "type": "Point", "coordinates": [ 653564.680075866635889, 6861808.098044168204069 ] } },
{ "type": "Feature", "properties": { "fid": 15131, "PREFIXE 1": "RUE", "PREFIXE 2": "DES", "NOM_RUE": "TOURNELLES", "NUMERO TXT": "15", "NOM_SAISI": "RUE DES TOURNELLES", "NOM_NOTE": "Rue des Tournelles", "EXP_GEO": 1, "INTERP": 0, "NUMEROTATI": 1, "NUM_QUART": 32 }, "geometry": { "type": "Point", "coordinates": [ 653564.709506810293533, 6861822.727238925173879 ] } },
{ "type": "Feature", "properties": { "fid": 15134, "PREFIXE 1": "RUE", "PREFIXE 2": "DES", "NOM_RUE": "TOURNELLES", "NUMERO TXT": "6", "NOM_SAISI": "RUE DES TOURNELLES", "NOM_NOTE": "Rue des Tournelles", "EXP_GEO": 1, "INTERP": 0, "NUMEROTATI": 1, "NUM_QUART": 32 }, "geometry": { "type": "Point", "coordinates": [ 653587.572965378523804, 6861753.818841654807329 ] } },
{ "type": "Feature", "properties": { "fid": 15135, "PREFIXE 1": "RUE", "PREFIXE 2": "DES", "NOM_RUE": "TOURNELLES", "NUMERO TXT": "8", "NOM_SAISI": "RUE DES TOURNELLES", "NOM_NOTE": "Rue des Tournelles", "EXP_GEO": 1, "INTERP": 0, "NUMEROTATI": 1, "NUM_QUART": 32 }, "geometry": { "type": "Point", "coordinates": [ 653586.121145199518651, 6861762.393712401390076 ] } },
{ "type": "Feature", "properties": { "fid": 15136, "PREFIXE 1": "RUE", "PREFIXE 2": "DES", "NOM_RUE": "TOURNELLES", "NUMERO TXT": "10", "NOM_SAISI": "RUE DES TOURNELLES", "NOM_NOTE": "Rue des Tournelles", "EXP_GEO": 1, "INTERP": 0, "NUMEROTATI": 1, "NUM_QUART": 32 }, "geometry": { "type": "Point", "coordinates": [ 653584.669799692113884, 6861770.551450056955218 ] } },
{ "type": "Feature", "properties": { "fid": 15137, "PREFIXE 1": "RUE", "PREFIXE 2": "DES", "NOM_RUE": "TOURNELLES", "NUMERO TXT": "12", "NOM_SAISI": "RUE DES TOURNELLES", "NOM_NOTE": "Rue des Tournelles", "EXP_GEO": 1, "INTERP": 0, "NUMEROTATI": 1, "NUM_QUART": 32 }, "geometry": { "type": "Point", "coordinates": [ 653581.758488406776451, 6861779.347249278798699 ] } },
{ "type": "Feature", "properties": { "fid": 15138, "PREFIXE 1": "RUE", "PREFIXE 2": "DES", "NOM_RUE": "TOURNELLES", "NUMERO TXT": "14", "NOM_SAISI": "RUE DES TOURNELLES", "NOM_NOTE": "Rue des Tournelles", "EXP_GEO": 1, "INTERP": 0, "NUMEROTATI": 1, "NUM_QUART": 32 }, "geometry": { "type": "Point", "coordinates": [ 653581.978417810285464, 6861786.658302254043519 ] } },
{ "type": "Feature", "properties": { "fid": 15139, "PREFIXE 1": "RUE", "PREFIXE 2": "DES", "NOM_RUE": "TOURNELLES", "NUMERO TXT": "16", "NOM_SAISI": "RUE DES TOURNELLES", "NOM_NOTE": "Rue des Tournelles", "EXP_GEO": 1, "INTERP": 0, "NUMEROTATI": 1, "NUM_QUART": 32 }, "geometry": { "type": "Point", "coordinates": [ 653580.529155176249333, 6861794.399955365806818 ] } },
{ "type": "Feature", "properties": { "fid": 15140, "PREFIXE 1": "RUE", "PREFIXE 2": "DES", "NOM_RUE": "TOURNELLES", "NUMERO TXT": "18", "NOM_SAISI": "RUE DES TOURNELLES", "NOM_NOTE": "Rue des Tournelles", "EXP_GEO": 1, "INTERP": 0, "NUMEROTATI": 1, "NUM_QUART": 32 }, "geometry": { "type": "Point", "coordinates": [ 653580.542160696117207, 6861801.922595305368304 ] } },
{ "type": "Feature", "properties": { "fid": 15141, "PREFIXE 1": "RUE", "PREFIXE 2": "DES", "NOM_RUE": "TOURNELLES", "NUMERO TXT": "20", "NOM_SAISI": "RUE DES TOURNELLES", "NOM_NOTE": "Rue des Tournelles", "EXP_GEO": 1, "INTERP": 0, "NUMEROTATI": 1, "NUM_QUART": 32 }, "geometry": { "type": "Point", "coordinates": [ 653580.342825354309753, 6861807.148500182665884 ] } },
{ "type": "Feature", "properties": { "fid": 15142, "PREFIXE 1": "RUE", "PREFIXE 2": "DES", "NOM_RUE": "TOURNELLES", "NUMERO TXT": "22", "NOM_SAISI": "RUE DES TOURNELLES", "NOM_NOTE": "Rue des Tournelles", "EXP_GEO": 1, "INTERP": 0, "NUMEROTATI": 1, "NUM_QUART": 32 }, "geometry": { "type": "Point", "coordinates": [ 653580.355111946235411, 6861813.627133684232831 ] } },
{ "type": "Feature", "properties": { "fid": 15143, "PREFIXE 1": "RUE", "PREFIXE 2": "DES", "NOM_RUE": "TOURNELLES", "NUMERO TXT": "24", "NOM_SAISI": "RUE DES TOURNELLES", "NOM_NOTE": "Rue des Tournelles", "EXP_GEO": 1, "INTERP": 0, "NUMEROTATI": 1, "NUM_QUART": 32 }, "geometry": { "type": "Point", "coordinates": [ 653580.790728991269134, 6861822.61133661866188 ] } },
{ "type": "Feature", "properties": { "fid": 15144, "PREFIXE 1": "RUE", "PREFIXE 2": "DES", "NOM_RUE": "TOURNELLES", "NUMERO TXT": "26", "NOM_SAISI": "RUE DES TOURNELLES", "NOM_NOTE": "Rue des Tournelles", "EXP_GEO": 1, "INTERP": 0, "NUMEROTATI": 1, "NUM_QUART": 32 }, "geometry": { "type": "Point", "coordinates": [ 653581.018163487664424, 6861831.388847501948476 ] } },
{ "type": "Feature", "properties": { "fid": 15145, "PREFIXE 1": "RUE", "PREFIXE 2": "DES", "NOM_RUE": "TOURNELLES", "NUMERO TXT": "28", "NOM_SAISI": "RUE DES TOURNELLES", "NOM_NOTE": "Rue des Tournelles", "EXP_GEO": 1, "INTERP": 0, "NUMEROTATI": 1, "NUM_QUART": 32 }, "geometry": { "type": "Point", "coordinates": [ 653581.875922926701605, 6861841.417019698768854 ] } },
{ "type": "Feature", "properties": { "fid": 15146, "PREFIXE 1": "RUE", "PREFIXE 2": "DES", "NOM_RUE": "TOURNELLES", "NUMERO TXT": "30", "NOM_SAISI": "RUE DES TOURNELLES", "NOM_NOTE": "Rue des Tournelles", "EXP_GEO": 1, "INTERP": 0, "NUMEROTATI": 1, "NUM_QUART": 32 }, "geometry": { "type": "Point", "coordinates": [ 653581.897291621076874, 6861850.406812553294003 ] } },
{ "type": "Feature", "properties": { "fid": 15147, "PREFIXE 1": "RUE", "PREFIXE 2": "DES", "NOM_RUE": "TOURNELLES", "NUMERO TXT": "32", "NOM_SAISI": "RUE DES TOURNELLES", "NOM_NOTE": "Rue des Tournelles", "EXP_GEO": 1, "INTERP": 0, "NUMEROTATI": 1, "NUM_QUART": 32 }, "geometry": { "type": "Point", "coordinates": [ 653581.918695002910681, 6861858.979243561625481 ] } },
{ "type": "Feature", "properties": { "fid": 15148, "PREFIXE 1": "RUE", "PREFIXE 2": "DES", "NOM_RUE": "TOURNELLES", "NUMERO TXT": "34", "NOM_SAISI": "RUE DES TOURNELLES", "NOM_NOTE": "Rue des Tournelles", "EXP_GEO": 1, "INTERP": 0, "NUMEROTATI": 1, "NUM_QUART": 32 }, "geometry": { "type": "Point", "coordinates": [ 653582.570791893987916, 6861868.802695040591061 ] } },
{ "type": "Feature", "properties": { "fid": 15149, "PREFIXE 1": "RUE", "PREFIXE 2": "DES", "NOM_RUE": "TOURNELLES", "NUMERO TXT": "36", "NOM_SAISI": "RUE DES TOURNELLES", "NOM_NOTE": "Rue des Tournelles", "EXP_GEO": 1, "INTERP": 0, "NUMEROTATI": 1, "NUM_QUART": 32 }, "geometry": { "type": "Point", "coordinates": [ 653582.384393024840392, 6861876.959950453601778 ] } },
{ "type": "Feature", "properties": { "fid": 15150, "PREFIXE 1": "RUE", "PREFIXE 2": "DES", "NOM_RUE": "TOURNELLES", "NUMERO TXT": "38", "NOM_SAISI": "RUE DES TOURNELLES", "NOM_NOTE": "Rue des Tournelles", "EXP_GEO": 1, "INTERP": 0, "NUMEROTATI": 1, "NUM_QUART": 32 }, "geometry": { "type": "Point", "coordinates": [ 653583.030932247987948, 6861884.066304387524724 ] } },
{ "type": "Feature", "properties": { "fid": 15151, "PREFIXE 1": "RUE", "PREFIXE 2": "DES", "NOM_RUE": "TOURNELLES", "NUMERO TXT": "40", "NOM_SAISI": "RUE DES TOURNELLES", "NOM_NOTE": "Rue des Tournelles", "EXP_GEO": 1, "INTERP": 0, "NUMEROTATI": 1, "NUM_QUART": 32 }, "geometry": { "type": "Point", "coordinates": [ 653583.063214692054316, 6861894.942552820779383 ] } },
{ "type": "Feature", "properties": { "fid": 15152, "PREFIXE 1": "RUE", "PREFIXE 2": "DES", "NOM_RUE": "TOURNELLES", "NUMERO TXT": "17", "NOM_SAISI": "RUE DES TOURNELLES", "NOM_NOTE": "Rue des Tournelles", "EXP_GEO": 1, "INTERP": 0, "NUMEROTATI": 1, "NUM_QUART": 32 }, "geometry": { "type": "Point", "coordinates": [ 653565.364160616998561, 6861835.472810477018356 ] } },
{ "type": "Feature", "properties": { "fid": 15153, "PREFIXE 1": "RUE", "PREFIXE 2": "DES", "NOM_RUE": "TOURNELLES", "NUMERO TXT": "19", "NOM_SAISI": "RUE DES TOURNELLES", "NOM_NOTE": "Rue des Tournelles", "EXP_GEO": 1, "INTERP": 0, "NUMEROTATI": 1, "NUM_QUART": 32 }, "geometry": { "type": "Point", "coordinates": [ 653565.606866016983986, 6861849.686505331657827 ] } },
{ "type": "Feature", "properties": { "fid": 15154, "PREFIXE 1": "RUE", "PREFIXE 2": "DES", "NOM_RUE": "TOURNELLES", "NUMERO TXT": "21", "NOM_SAISI": "RUE DES TOURNELLES", "NOM_NOTE": "Rue des Tournelles", "EXP_GEO": 1, "INTERP": 0, "NUMEROTATI": 1, "NUM_QUART": 32 }, "geometry": { "type": "Point", "coordinates": [ 653567.100967591861263, 6861862.220646969974041 ] } },
{ "type": "Feature", "properties": { "fid": 15155, "PREFIXE 1": "RUE", "PREFIXE 2": "DES", "NOM_RUE": "TOURNELLES", "NUMERO TXT": "23", "NOM_SAISI": "RUE DES TOURNELLES", "NOM_NOTE": "Rue des Tournelles", "EXP_GEO": 1, "INTERP": 0, "NUMEROTATI": 1, "NUM_QUART": 32 }, "geometry": { "type": "Point", "coordinates": [ 653566.928137793089263, 6861875.39567119255662 ] } },
{ "type": "Feature", "properties": { "fid": 15156, "PREFIXE 1": "RUE", "PREFIXE 2": "DES", "NOM_RUE": "TOURNELLES", "NUMERO TXT": "25", "NOM_SAISI": "RUE DES TOURNELLES", "NOM_NOTE": "Rue des Tournelles", "EXP_GEO": 1, "INTERP": 0, "NUMEROTATI": 1, "NUM_QUART": 32 }, "geometry": { "type": "Point", "coordinates": [ 653567.382932921522297, 6861888.149755992926657 ] } },
{ "type": "Feature", "properties": { "fid": 15157, "PREFIXE 1": "RUE", "PREFIXE 2": "DES", "NOM_RUE": "TOURNELLES", "NUMERO TXT": "27", "NOM_SAISI": "RUE DES TOURNELLES", "NOM_NOTE": "Rue des Tournelles", "EXP_GEO": 1, "INTERP": 0, "NUMEROTATI": 1, "NUM_QUART": 32 }, "geometry": { "type": "Point", "coordinates": [ 653568.054054444888607, 6861902.577473629266024 ] } },
{ "type": "Feature", "properties": { "fid": 15158, "PREFIXE 1": "RUE", "PREFIXE 2": "DES", "NOM_RUE": "TOURNELLES", "NUMERO TXT": "42", "NOM_SAISI": "RUE DES TOURNELLES", "NOM_NOTE": "Rue des Tournelles", "EXP_GEO": 1, "INTERP": 0, "NUMEROTATI": 1, "NUM_QUART": 32 }, "geometry": { "type": "Point", "coordinates": [ 653583.721354752080515, 6861905.188098222017288 ] } },
{ "type": "Feature", "properties": { "fid": 15159, "PREFIXE 1": "RUE", "PREFIXE 2": "DES", "NOM_RUE": "TOURNELLES", "NUMERO TXT": "44", "NOM_SAISI": "RUE DES TOURNELLES", "NOM_NOTE": "Rue des Tournelles", "EXP_GEO": 1, "INTERP": 0, "NUMEROTATI": 1, "NUM_QUART": 32 }, "geometry": { "type": "Point", "coordinates": [ 653583.965491867624223, 6861916.065274068154395 ] } },
{ "type": "Feature", "properties": { "fid": 15160, "PREFIXE 1": "RUE", "PREFIXE 2": "DES", "NOM_RUE": "TOURNELLES", "NUMERO TXT": "46", "NOM_SAISI": "RUE DES TOURNELLES", "NOM_NOTE": "Rue des Tournelles", "EXP_GEO": 1, "INTERP": 0, "NUMEROTATI": 1, "NUM_QUART": 32 }, "geometry": { "type": "Point", "coordinates": [ 653584.840326797217131, 6861927.776345824822783 ] } },
{ "type": "Feature", "properties": { "fid": 15161, "PREFIXE 1": "RUE", "PREFIXE 2": "DES", "NOM_RUE": "TOURNELLES", "NUMERO TXT": "48", "NOM_SAISI": "RUE DES TOURNELLES", "NOM_NOTE": "Rue des Tournelles", "EXP_GEO": 1, "INTERP": 0, "NUMEROTATI": 1, "NUM_QUART": 32 }, "geometry": { "type": "Point", "coordinates": [ 653586.127557949861512, 6861937.602654514834285 ] } },
{ "type": "Feature", "properties": { "fid": 15162, "PREFIXE 1": "RUE", "PREFIXE 2": "DES", "NOM_RUE": "TOURNELLES", "NUMERO TXT": "29", "NOM_SAISI": "RUE DES TOURNELLES", "NOM_NOTE": "Rue des Tournelles", "EXP_GEO": 1, "INTERP": 0, "NUMEROTATI": 1, "NUM_QUART": 32 }, "geometry": { "type": "Point", "coordinates": [ 653566.839493493782356, 6861914.300759154371917 ] } },
{ "type": "Feature", "properties": { "fid": 15163, "PREFIXE 1": "RUE", "PREFIXE 2": "DES", "NOM_RUE": "TOURNELLES", "NUMERO TXT": "31", "NOM_SAISI": "RUE DES TOURNELLES", "NOM_NOTE": "Rue des Tournelles", "EXP_GEO": 1, "INTERP": 0, "NUMEROTATI": 1, "NUM_QUART": 32 }, "geometry": { "type": "Point", "coordinates": [ 653567.934101027203724, 6861928.938696127384901 ] } },
{ "type": "Feature", "properties": { "fid": 15164, "PREFIXE 1": "RUE", "PREFIXE 2": "DES", "NOM_RUE": "TOURNELLES", "NUMERO TXT": "33", "NOM_SAISI": "RUE DES TOURNELLES", "NOM_NOTE": "Rue des Tournelles", "EXP_GEO": 1, "INTERP": 0, "NUMEROTATI": 1, "NUM_QUART": 32 }, "geometry": { "type": "Point", "coordinates": [ 653567.98992480430752, 6861944.213863262906671 ] } },
{ "type": "Feature", "properties": { "fid": 15165, "PREFIXE 1": "RUE", "PREFIXE 2": "DES", "NOM_RUE": "TOURNELLES", "NUMERO TXT": "35", "NOM_SAISI": "RUE DES TOURNELLES", "NOM_NOTE": "Rue des Tournelles", "EXP_GEO": 1, "INTERP": 0, "NUMEROTATI": 1, "NUM_QUART": 32 }, "geometry": { "type": "Point", "coordinates": [ 653568.529538334812969, 6861974.977837865240872 ] } },
{ "type": "Feature", "properties": { "fid": 15166, "PREFIXE 1": "RUE", "PREFIXE 2": "DES", "NOM_RUE": "TOURNELLES", "NUMERO TXT": "50", "NOM_SAISI": "RUE DES TOURNELLES", "NOM_NOTE": "Rue des Tournelles", "EXP_GEO": 1, "INTERP": 0, "NUMEROTATI": 1, "NUM_QUART": 32 }, "geometry": { "type": "Point", "coordinates": [ 653586.849537122878246, 6861962.922543661668897 ] } },
{ "type": "Feature", "properties": { "fid": 15167, "PREFIXE 1": "RUE", "PREFIXE 2": "DES", "NOM_RUE": "TOURNELLES", "NUMERO TXT": "52", "NOM_SAISI": "RUE DES TOURNELLES", "NOM_NOTE": "Rue des Tournelles", "EXP_GEO": 1, "INTERP": 0, "NUMEROTATI": 1, "NUM_QUART": 32 }, "geometry": { "type": "Point", "coordinates": [ 653586.077707898453809, 6861978.418834587559104 ] } },
{ "type": "Feature", "properties": { "fid": 15168, "PREFIXE 1": "RUE", "PREFIXE 2": "DES", "NOM_RUE": "TOURNELLES", "NUMERO TXT": "54", "NOM_SAISI": "RUE DES TOURNELLES", "NOM_NOTE": "Rue des Tournelles", "EXP_GEO": 1, "INTERP": 0, "NUMEROTATI": 1, "NUM_QUART": 32 }, "geometry": { "type": "Point", "coordinates": [ 653585.303718809504062, 6861992.66120389290154 ] } },
{ "type": "Feature", "properties": { "fid": 15169, "PREFIXE 1": "RUE", "PREFIXE 2": "DES", "NOM_RUE": "TOURNELLES", "NUMERO TXT": "56", "NOM_SAISI": "RUE DES TOURNELLES", "NOM_NOTE": "Rue des Tournelles", "EXP_GEO": 1, "INTERP": 0, "NUMEROTATI": 1, "NUM_QUART": 32 }, "geometry": { "type": "Point", "coordinates": [ 653586.194336474058218, 6862005.219281511381269 ] } },
{ "type": "Feature", "properties": { "fid": 15170, "PREFIXE 1": "RUE", "PREFIXE 2": "DES", "NOM_RUE": "TOURNELLES", "NUMERO TXT": "58", "NOM_SAISI": "RUE DES TOURNELLES", "NOM_NOTE": "Rue des Tournelles", "EXP_GEO": 1, "INTERP": 0, "NUMEROTATI": 1, "NUM_QUART": 32 }, "geometry": { "type": "Point", "coordinates": [ 653586.87934912845958, 6862017.989835176616907 ] } },
{ "type": "Feature", "properties": { "fid": 15171, "PREFIXE 1": "RUE", "PREFIXE 2": "DES", "NOM_RUE": "TOURNELLES", "NUMERO TXT": "37", "NOM_SAISI": "RUE DES TOURNELLES", "NOM_NOTE": "Rue des Tournelles", "EXP_GEO": 1, "INTERP": 0, "NUMEROTATI": 1, "NUM_QUART": 32 }, "geometry": { "type": "Point", "coordinates": [ 653571.311794759356417, 6862035.476676716469228 ] } },
{ "type": "Feature", "properties": { "fid": 15174, "PREFIXE 1": "RUE", "PREFIXE 2": "DES", "NOM_RUE": "TOURNELLES", "NUMERO TXT": "60", "NOM_SAISI": "RUE DES TOURNELLES", "NOM_NOTE": "Rue des Tournelles", "EXP_GEO": 1, "INTERP": 0, "NUMEROTATI": 1, "NUM_QUART": 32 }, "geometry": { "type": "Point", "coordinates": [ 653587.567548648105003, 6862030.971562039107084 ] } },
{ "type": "Feature", "properties": { "fid": 15253, "PREFIXE 1": "RUE", "PREFIXE 2": "DU", "NOM_RUE": "FOIN-AU-MARAIS", "NUMERO TXT": "1", "NOM_SAISI": "RUE DU FOIN-AU-MARAIS", "NOM_NOTE": "Rue du Foin", "EXP_GEO": 1, "INTERP": 0, "NUMEROTATI": 1, "NUM_QUART": 32 }, "geometry": { "type": "Point", "coordinates": [ 653463.86010413011536, 6862049.625177345238626 ] } },
{ "type": "Feature", "properties": { "fid": 15254, "PREFIXE 1": "RUE", "PREFIXE 2": "DU", "NOM_RUE": "FOIN-AU-MARAIS", "NUMERO TXT": "3", "NOM_SAISI": "RUE DU FOIN-AU-MARAIS", "NOM_NOTE": "Rue du Foin", "EXP_GEO": 1, "INTERP": 0, "NUMEROTATI": 1, "NUM_QUART": 32 }, "geometry": { "type": "Point", "coordinates": [ 653429.75427392241545, 6862060.585261823609471 ] } },
{ "type": "Feature", "properties": { "fid": 15255, "PREFIXE 1": "RUE", "PREFIXE 2": "DU", "NOM_RUE": "FOIN-AU-MARAIS", "NUMERO TXT": "5", "NOM_SAISI": "RUE DU FOIN-AU-MARAIS", "NOM_NOTE": "Rue du Foin", "EXP_GEO": 1, "INTERP": 0, "NUMEROTATI": 1, "NUM_QUART": 32 }, "geometry": { "type": "Point", "coordinates": [ 653393.395070214988664, 6862070.552747191861272 ] } },
{ "type": "Feature", "properties": { "fid": 15256, "PREFIXE 1": "RUE", "PREFIXE 2": "DU", "NOM_RUE": "FOIN-AU-MARAIS", "NUMERO TXT": "2", "NOM_SAISI": "RUE DU FOIN-AU-MARAIS", "NOM_NOTE": "Rue du Foin", "EXP_GEO": 1, "INTERP": 0, "NUMEROTATI": 1, "NUM_QUART": 32 }, "geometry": { "type": "Point", "coordinates": [ 653448.20902833645232, 6862069.967172119766474 ] } },
{ "type": "Feature", "properties": { "fid": 15257, "PREFIXE 1": "RUE", "PREFIXE 2": "DU", "NOM_RUE": "FOIN-AU-MARAIS", "NUMERO TXT": "4", "NOM_SAISI": "RUE DU FOIN-AU-MARAIS", "NOM_NOTE": "Rue du Foin", "EXP_GEO": 1, "INTERP": 0, "NUMEROTATI": 1, "NUM_QUART": 32 }, "geometry": { "type": "Point", "coordinates": [ 653429.237662409897894, 6862075.966787592507899 ] } },
{ "type": "Feature", "properties": { "fid": 15258, "PREFIXE 1": "RUE", "PREFIXE 2": "DU", "NOM_RUE": "FOIN-AU-MARAIS", "NUMERO TXT": "6", "NOM_SAISI": "RUE DU FOIN-AU-MARAIS", "NOM_NOTE": "Rue du Foin", "EXP_GEO": 1, "INTERP": 0, "NUMEROTATI": 1, "NUM_QUART": 32 }, "geometry": { "type": "Point", "coordinates": [ 653406.418200612883084, 6862082.398999726399779 ] } },
{ "type": "Feature", "properties": { "fid": 15259, "PREFIXE 1": "RUE", "PREFIXE 2": "DU", "NOM_RUE": "FOIN-AU-MARAIS", "NUMERO TXT": "8", "NOM_SAISI": "RUE DU FOIN-AU-MARAIS", "NOM_NOTE": "Rue du Foin", "EXP_GEO": 1, "INTERP": 0, "NUMEROTATI": 1, "NUM_QUART": 32 }, "geometry": { "type": "Point", "coordinates": [ 653383.189262611907907, 6862089.644899732433259 ] } },
{ "type": "Feature", "properties": { "fid": 15260, "PREFIXE 1": "CUL-DE-SAC", "PREFIXE 2": "DES", "NOM_RUE": "HOSPITALIÈRES", "NUMERO TXT": "1", "NOM_SAISI": "CUL-DE-SAC DES HOSPITALIÈRES", "NOM_NOTE": "C. de S. des Hospitalières", "EXP_GEO": 1, "INTERP": 0, "NUMEROTATI": 1, "NUM_QUART": 32 }, "geometry": { "type": "Point", "coordinates": [ 653490.092607654980384, 6862043.375342539511621 ] } },
{ "type": "Feature", "properties": { "fid": 15261, "PREFIXE 1": "CUL-DE-SAC", "PREFIXE 2": "DES", "NOM_RUE": "HOSPITALIÈRES", "NUMERO TXT": "2", "NOM_SAISI": "CUL-DE-SAC DES HOSPITALIÈRES", "NOM_NOTE": "C. de S. des Hospitalières", "EXP_GEO": 1, "INTERP": 0, "NUMEROTATI": 1, "NUM_QUART": 32 }, "geometry": { "type": "Point", "coordinates": [ 653533.247894685482606, 6862033.371521094813943 ] } },
{ "type": "Feature", "properties": { "fid": 15262, "PREFIXE 1": "CUL-DE-SAC", "PREFIXE 2": "DES", "NOM_RUE": "HOSPITALIÈRES", "NUMERO TXT": "4", "NOM_SAISI": "CUL-DE-SAC DES HOSPITALIÈRES", "NOM_NOTE": "C. de S. des Hospitalières", "EXP_GEO": 1, "INTERP": 0, "NUMEROTATI": 1, "NUM_QUART": 32 }, "geometry": { "type": "Point", "coordinates": [ 653525.254970620153472, 6862048.803461697883904 ] } },
{ "type": "Feature", "properties": { "fid": 15377, "PREFIXE 1": "RUE", "PREFIXE 2": null, "NOM_RUE": "SAINT-LOUIS-AU-MARAIS", "NUMERO TXT": "1", "NOM_SAISI": "RUE SAINT-LOUIS-AU-MARAIS", "NOM_NOTE": "Rue St. Louis", "EXP_GEO": 1, "INTERP": 0, "NUMEROTATI": 1, "NUM_QUART": 32 }, "geometry": { "type": "Point", "coordinates": [ 653350.89586671453435, 6862030.314953440800309 ] } },
{ "type": "Feature", "properties": { "fid": 15378, "PREFIXE 1": "RUE", "PREFIXE 2": null, "NOM_RUE": "SAINT-LOUIS-AU-MARAIS", "NUMERO TXT": "3", "NOM_SAISI": "RUE SAINT-LOUIS-AU-MARAIS", "NOM_NOTE": "Rue St. Louis", "EXP_GEO": 1, "INTERP": 0, "NUMEROTATI": 1, "NUM_QUART": 32 }, "geometry": { "type": "Point", "coordinates": [ 653354.279064447269775, 6862040.755340358242393 ] } },
{ "type": "Feature", "properties": { "fid": 15379, "PREFIXE 1": "RUE", "PREFIXE 2": null, "NOM_RUE": "SAINT-LOUIS-AU-MARAIS", "NUMERO TXT": "5", "NOM_SAISI": "RUE SAINT-LOUIS-AU-MARAIS", "NOM_NOTE": "Rue St. Louis", "EXP_GEO": 1, "INTERP": 0, "NUMEROTATI": 1, "NUM_QUART": 32 }, "geometry": { "type": "Point", "coordinates": [ 653354.613975594635122, 6862054.41049509588629 ] } },
{ "type": "Feature", "properties": { "fid": 15380, "PREFIXE 1": "RUE", "PREFIXE 2": null, "NOM_RUE": "SAINT-LOUIS-AU-MARAIS", "NUMERO TXT": "7", "NOM_SAISI": "RUE SAINT-LOUIS-AU-MARAIS", "NOM_NOTE": "Rue St. Louis", "EXP_GEO": 1, "INTERP": 0, "NUMEROTATI": 1, "NUM_QUART": 32 }, "geometry": { "type": "Point", "coordinates": [ 653355.47829475661274, 6862070.617158771492541 ] } },
{ "type": "Feature", "properties": { "fid": 15381, "PREFIXE 1": "RUE", "PREFIXE 2": null, "NOM_RUE": "SAINT-LOUIS-AU-MARAIS", "NUMERO TXT": "9", "NOM_SAISI": "RUE SAINT-LOUIS-AU-MARAIS", "NOM_NOTE": "Rue St. Louis", "EXP_GEO": 1, "INTERP": 0, "NUMEROTATI": 1, "NUM_QUART": 32 }, "geometry": { "type": "Point", "coordinates": [ 653356.079168805968948, 6862085.04080359544605 ] } },
{ "type": "Feature", "properties": { "fid": 15382, "PREFIXE 1": "RUE", "PREFIXE 2": null, "NOM_RUE": "SAINT-LOUIS-AU-MARAIS", "NUMERO TXT": "11", "NOM_SAISI": "RUE SAINT-LOUIS-AU-MARAIS", "NOM_NOTE": "Rue St. Louis", "EXP_GEO": 1, "INTERP": 0, "NUMEROTATI": 1, "NUM_QUART": 32 }, "geometry": { "type": "Point", "coordinates": [ 653355.920075136702508, 6862100.110601437278092 ] } },
{ "type": "Feature", "properties": { "fid": 15383, "PREFIXE 1": "RUE", "PREFIXE 2": null, "NOM_RUE": "SAINT-LOUIS-AU-MARAIS", "NUMERO TXT": "2", "NOM_SAISI": "RUE SAINT-LOUIS-AU-MARAIS", "NOM_NOTE": "Rue St. Louis", "EXP_GEO": 1, "INTERP": 0, "NUMEROTATI": 1, "NUM_QUART": 32 }, "geometry": { "type": "Point", "coordinates": [ 653373.842389223980717, 6862018.661290775053203 ] } },
{ "type": "Feature", "properties": { "fid": 15384, "PREFIXE 1": "RUE", "PREFIXE 2": null, "NOM_RUE": "SAINT-LOUIS-AU-MARAIS", "NUMERO TXT": "4", "NOM_SAISI": "RUE SAINT-LOUIS-AU-MARAIS", "NOM_NOTE": "Rue St. Louis", "EXP_GEO": 1, "INTERP": 0, "NUMEROTATI": 1, "NUM_QUART": 32 }, "geometry": { "type": "Point", "coordinates": [ 653374.453460574964993, 6862036.906936679035425 ] } },
{ "type": "Feature", "properties": { "fid": 15385, "PREFIXE 1": "RUE", "PREFIXE 2": null, "NOM_RUE": "SAINT-LOUIS-AU-MARAIS", "NUMERO TXT": "6", "NOM_SAISI": "RUE SAINT-LOUIS-AU-MARAIS", "NOM_NOTE": "Rue St. Louis", "EXP_GEO": 1, "INTERP": 0, "NUMEROTATI": 1, "NUM_QUART": 32 }, "geometry": { "type": "Point", "coordinates": [ 653375.449376974371262, 6862054.642657041549683 ] } },
{ "type": "Feature", "properties": { "fid": 15386, "PREFIXE 1": "RUE", "PREFIXE 2": null, "NOM_RUE": "SAINT-LOUIS-AU-MARAIS", "NUMERO TXT": "8", "NOM_SAISI": "RUE SAINT-LOUIS-AU-MARAIS", "NOM_NOTE": "Rue St. Louis", "EXP_GEO": 1, "INTERP": 0, "NUMEROTATI": 1, "NUM_QUART": 32 }, "geometry": { "type": "Point", "coordinates": [ 653376.563323350274004, 6862070.082613957114518 ] } },
{ "type": "Feature", "properties": { "fid": 15387, "PREFIXE 1": "RUE", "PREFIXE 2": null, "NOM_RUE": "SAINT-LOUIS-AU-MARAIS", "NUMERO TXT": "10", "NOM_SAISI": "RUE SAINT-LOUIS-AU-MARAIS", "NOM_NOTE": "Rue St. Louis", "EXP_GEO": 1, "INTERP": 0, "NUMEROTATI": 1, "NUM_QUART": 32 }, "geometry": { "type": "Point", "coordinates": [ 653377.223300202633254, 6862094.084602126851678 ] } },
{ "type": "Feature", "properties": { "fid": 15535, "PREFIXE 1": "RUE", "PREFIXE 2": "DU", "NOM_RUE": "PAS-DE-LA-MULE", "NUMERO TXT": "7", "NOM_SAISI": "RUE DU PAS-DE-LA-MULE", "NOM_NOTE": "Rue du Pas de la Mule", "EXP_GEO": 1, "INTERP": 1, "NUMEROTATI": 1, "NUM_QUART": 32 }, "geometry": { "type": "Point", "coordinates": [ 653584.207121502724476, 6861944.177383760921657 ] } },
{ "type": "Feature", "properties": { "fid": 15591, "PREFIXE 1": "CUL-DE-SAC", "PREFIXE 2": "DES", "NOM_RUE": "HOSPITALIÈRES", "NUMERO TXT": "3", "NOM_SAISI": "CUL-DE-SAC DES HOSPITALIÈRES", "NOM_NOTE": "C. de S. des Hospitalières", "EXP_GEO": 1, "INTERP": 1, "NUMEROTATI": 1, "NUM_QUART": 32 }, "geometry": { "type": "Point", "coordinates": [ 653536.765393432811834, 6862044.691170509904623 ] } }
]
}
