{
"type": "FeatureCollection",
"name": "denominations-emprises-voies-actuelles2",
"crs": { "type": "name", "properties": { "name": "urn:ogc:def:crs:OGC:1.3:CRS84" } },
"features": [
{ "type": "Feature", "properties": { "id": "10817", "cvoie": null, "cdgi": null, "typo": "RUE DES FRANCS BOURGEOIS", "typo_min": "rue des Francs Bourgeois", "date_arret": "1893-12-26", "siecle": "19", "statut": "Voie publique de la Ville de Paris", "typvoie": "rue", "prevoie": "des", "nomvoie": "Francs Bourgeois", "arrdt": [ "03e", "04e" ], "quartier": [ "Archives", "Arsenal", "Saint-Gervais" ], "feuille": [ "92B3", "92A1" ], "debut": "place des Vosges, 19.", "fin": "rue des Archives, 56.", "longueur": 705, "largeur": 9.0, "n_pair": "61", "n_impair": "61", "alignement": "Non retenus au PSMV du Marais : Arrêté présidentiel du 17 janvier 1849, sauf dans les parties régies par les textes suivants : Décret du 15 novembre 1912 (UP), côté impair, entre la place des Vosges et la rue de Turenne. Décret du 4 décembre 1880, côté pair, au droit du musée Carnavalet. Décret du 21 mars 1913 : côté pair, depuis le n° 34 jusqu'à la rue Vieille du Temple ; côté impair, entre la rue des Hospitalières Saint-Gervais et la rue Vieille du Temple. Les immeubles en saillie sur ces alignements ne sont pas soumis à la servitude de reculement. Arrêté du 6 mai 1952, côté impair, sur une longueur de 36,50 m environ avant le n° 53 bis.", "servitude": "Aux termes d'un contrat en date des 28 juin et 8 juillet 1913, passé entre la Ville de Paris et l'Assistance publique, il a été stipulé que cette dernière devrait édifier du côté impair, entre la place des Vosges et la rue de Turenne, des constructions d'une architecture identique à celle de la place des Vosges. Le contrat n'a pas eu d'effet et l'actuel immeuble (1922) s'oppose par son style à la place des Vosges.", "historique": "L'arr. du 2 avril 1868, réunissait la rue Neuve Sainte-Catherine (comprise entre les rues de Turenne et Payenne) et la rue de Paradis au Marais (comprise entre les rues Vieille du Temple et des Archives) à la rue des Francs Bourgeois (comprise entre les rues Payenne et Vieille du Temple). L'arr. du 26 décembre 1893, réunissait à la rue des Francs Bourgeois une partie de la rue des Vosges (comprise entre la rue de Turenne et la place des Vosges). La rue de Paradis au Marais était, en 1787, la rue des Jardins. La rue des Francs Bourgeois était, plus anciennement, rue des Poulies, des Viez Poulies ou Vieilles Poulies, Richard des Poulies et Ferri des Poulies ; pendant la Révolution, rue des Francs Citoyens. La rue des Vosges, ouverte vers 1606, a été appelée successivement : rue Henri IV, rue de l'Echarpe Blanche, rue de l'Echarpe puis rue des Vosges.", "denomination": "Arrêté du 2 avril 1868, parties comprises entre les rues de Turenne et Payenne et entre les rues Vieille du Temple et des Archives. Arrêté du 26 décembre 1893, partie comprise entre la rue de Turenne et la place des Vosges.", "classement": null, "observation": "Largeur : 9 m entre la place des Vosges et la rue de Turenne ; 8 m entre la rue de Sévigné et la rue Payenne ; 13 m, le surplus.", "numerotage": "Arrêté du 3 janvier 1894 : nos 2, 2 bis, 2 ter, 1 et 1 bis.", "orig": "Maison d'aumône destinée à accueillir des bourgeois francs d'impôts du fait de leur pauvreté (emplacement des nos 32-36).", "declassement": "Arrêté municipal du 29 juin 1984, côté pair, angle des rues Vieille du Temple et des Francs Bourgeois.", "nivellement": "Décret du 21 mars 1913, entre la rue des Hospitalières Saint-Gervais et la rue Vieille du Temple.", "assainissement": null, "ouverture": null, "validite": "Dénomination actuelle" }, "geometry": { "type": "MultiPolygon", "coordinates": [ [ [ [ 2.362788186390646, 48.856949204894178 ], [ 2.362839621723402, 48.856900439027243 ], [ 2.362750015805783, 48.856881906524784 ], [ 2.362480180384166, 48.856969885311749 ], [ 2.362301663970964, 48.857028123023618 ], [ 2.362011128345635, 48.857122529606521 ], [ 2.36179631849906, 48.857192329357559 ], [ 2.361785672417053, 48.857195788136416 ], [ 2.361786629714382, 48.857196970490961 ], [ 2.361778027438365, 48.857199811524019 ], [ 2.361656467267785, 48.857245567773873 ], [ 2.361556190579507, 48.857282322545998 ], [ 2.361520448924985, 48.857295423337234 ], [ 2.361490068642329, 48.857306558867066 ], [ 2.361397572110368, 48.857340589518813 ], [ 2.361361768165317, 48.857353761877917 ], [ 2.361266181354087, 48.857388928901166 ], [ 2.361280716941373, 48.857404072393258 ], [ 2.361151337914034, 48.857458391369576 ], [ 2.361119141433528, 48.857471907579757 ], [ 2.361086946288075, 48.857485424687709 ], [ 2.360951940240118, 48.857542104773152 ], [ 2.360953012899021, 48.857543214902833 ], [ 2.360945426489068, 48.857546898595231 ], [ 2.360944036189515, 48.857545905483327 ], [ 2.360940360039263, 48.857547815855327 ], [ 2.360941779279071, 48.857549783117449 ], [ 2.360904688707464, 48.85756537851011 ], [ 2.360903150715073, 48.857564092320352 ], [ 2.360893484362953, 48.857569336964033 ], [ 2.360891460240643, 48.857567903382495 ], [ 2.360750699694078, 48.857626444736404 ], [ 2.360722341475289, 48.857589386635013 ], [ 2.36067894250617, 48.857611690680052 ], [ 2.360647145923355, 48.857628031957304 ], [ 2.360549861869885, 48.857678028603921 ], [ 2.360512504305382, 48.857697481556386 ], [ 2.360543302290778, 48.857729196216397 ], [ 2.360535938265838, 48.857732524029196 ], [ 2.360534400338117, 48.85773134395842 ], [ 2.360490218668757, 48.857753105939651 ], [ 2.360491536837594, 48.857754201197039 ], [ 2.360483768892712, 48.857757900977326 ], [ 2.360481894154481, 48.857756622875527 ], [ 2.360435701402134, 48.857779438918392 ], [ 2.360437088971615, 48.857780654160749 ], [ 2.360427933137322, 48.85778527374886 ], [ 2.360426545925294, 48.857784362488459 ], [ 2.36042067125789, 48.857787163141296 ], [ 2.360391428178853, 48.857801102344247 ], [ 2.360385129885056, 48.857804103984009 ], [ 2.360385732022331, 48.857804904925423 ], [ 2.360375886557509, 48.857810076621369 ], [ 2.360373850510405, 48.857808726607082 ], [ 2.360330024905845, 48.857829229543754 ], [ 2.360326368881502, 48.857830940348599 ], [ 2.36032752532583, 48.857831886350581 ], [ 2.360323317875967, 48.857833994418193 ], [ 2.360321745121211, 48.857832986833735 ], [ 2.360273427963946, 48.857856531621479 ], [ 2.360274399823731, 48.857857525202022 ], [ 2.360268577591571, 48.857860272166626 ], [ 2.360267328458099, 48.857858993808698 ], [ 2.360265528382758, 48.857859849359571 ], [ 2.360196599207077, 48.857892595784897 ], [ 2.360173298379776, 48.857872252028983 ], [ 2.360166843745561, 48.857875552304613 ], [ 2.360165495193067, 48.857874600777194 ], [ 2.360129987179948, 48.857893363803797 ], [ 2.36013132832586, 48.857894474476836 ], [ 2.360090359647062, 48.857916061028455 ], [ 2.360088039681075, 48.857914967604493 ], [ 2.36004561574344, 48.857936963656648 ], [ 2.359954120473927, 48.857984403340765 ], [ 2.359918231219403, 48.858003011374969 ], [ 2.359829913970997, 48.858048802366625 ], [ 2.35971455785181, 48.858107469398661 ], [ 2.359678398514377, 48.85812585917153 ], [ 2.359564543894132, 48.858183762449485 ], [ 2.359405307163348, 48.858265191585595 ], [ 2.359210204125252, 48.858366827490549 ], [ 2.359100787785225, 48.85842427833073 ], [ 2.359062930501963, 48.858444157136425 ], [ 2.358964157965121, 48.858496018744454 ], [ 2.358962684606132, 48.858496792386141 ], [ 2.358927263611833, 48.858515391834601 ], [ 2.358924827217491, 48.858516671146901 ], [ 2.358843823911825, 48.858559203567545 ], [ 2.35885129519887, 48.858593032137343 ], [ 2.35886000719343, 48.858632478390767 ], [ 2.358876190531621, 48.858705752307714 ], [ 2.35888722242029, 48.858697786521553 ], [ 2.358955653951826, 48.858648368766872 ], [ 2.359027257946884, 48.858596659335639 ], [ 2.359147888921287, 48.8585095451445 ], [ 2.359203071350246, 48.858469694611919 ], [ 2.359243769263206, 48.858446694942721 ], [ 2.359276789296923, 48.858428033080806 ], [ 2.359299777582364, 48.858415040956693 ], [ 2.359354229383253, 48.858384268067176 ], [ 2.359399307216524, 48.85835754420475 ], [ 2.359503205076707, 48.858309573271356 ], [ 2.359532536479768, 48.858296031374714 ], [ 2.359535253315713, 48.858294776933924 ], [ 2.359572884621514, 48.858277402354915 ], [ 2.359611240740234, 48.858308064979646 ], [ 2.359780354093953, 48.858223360822755 ], [ 2.359746703172894, 48.858195783010565 ], [ 2.359825075457837, 48.858158397261739 ], [ 2.359879127365936, 48.858132613378203 ], [ 2.359950785668274, 48.858098429288191 ], [ 2.359949069949926, 48.858097298622894 ], [ 2.359958012961267, 48.858093258014122 ], [ 2.359959729908177, 48.85809495437654 ], [ 2.359990103742236, 48.858080857647352 ], [ 2.359988130218616, 48.858078855933051 ], [ 2.359997596660461, 48.858074588786735 ], [ 2.359999043788409, 48.858076503146776 ], [ 2.360073919296989, 48.858040481730342 ], [ 2.360098785483225, 48.858060995755828 ], [ 2.360247682589931, 48.857981659858815 ], [ 2.360291041430205, 48.857958557138225 ], [ 2.360388359967021, 48.857906702839095 ], [ 2.360375551159291, 48.857895240518118 ], [ 2.360576827134941, 48.85779815310876 ], [ 2.360586345115625, 48.85780622616403 ], [ 2.360636468668028, 48.857780517173815 ], [ 2.360634333870624, 48.857778772721346 ], [ 2.360640023660689, 48.857776153638198 ], [ 2.360641649527649, 48.857777831517588 ], [ 2.360657563803208, 48.857769584072678 ], [ 2.360655590105882, 48.857767928617491 ], [ 2.360662043967626, 48.857764909807678 ], [ 2.360663749698225, 48.85776674370095 ], [ 2.360712672012208, 48.857741955489693 ], [ 2.360877084198393, 48.857667647205233 ], [ 2.361078252166684, 48.857593556532038 ], [ 2.361069160359376, 48.857583181656487 ], [ 2.36131947711102, 48.857478855144585 ], [ 2.361663488183766, 48.857333533750548 ], [ 2.361738707034633, 48.857304126929527 ], [ 2.361867938698059, 48.857247847746343 ], [ 2.361941315468651, 48.857224936869841 ], [ 2.36193947015694, 48.857222367481008 ], [ 2.361949711840237, 48.85721932113254 ], [ 2.361951555830677, 48.85722155325805 ], [ 2.362099112433977, 48.857173575399855 ], [ 2.362097885383204, 48.857171381640015 ], [ 2.36210977042091, 48.857167806227068 ], [ 2.362111091855124, 48.857169749571298 ], [ 2.36218774416686, 48.857145007840323 ], [ 2.362186320230091, 48.857142530636068 ], [ 2.362195925894482, 48.85713933158442 ], [ 2.362197467666773, 48.857141089936739 ], [ 2.362348858327293, 48.857091730118597 ], [ 2.362498031901378, 48.857043092166222 ], [ 2.362691003482956, 48.856980174488854 ], [ 2.362692212116782, 48.85698186990497 ], [ 2.362730459295648, 48.856969471008085 ], [ 2.362728954373422, 48.856967707462566 ], [ 2.362788186390646, 48.856949204894178 ] ] ], [ [ [ 2.357003044793178, 48.860078219267251 ], [ 2.357008792825679, 48.86007389820719 ], [ 2.357012944583126, 48.86006926009378 ], [ 2.357015178123114, 48.860063885000585 ], [ 2.357015654787503, 48.860058615584229 ], [ 2.357015652396786, 48.860052293155483 ], [ 2.357012937250629, 48.860052293855979 ], [ 2.357012934945315, 48.860048394271026 ], [ 2.357015171669436, 48.860048393698015 ], [ 2.357015169985976, 48.860045548152151 ], [ 2.357020440792587, 48.860045547692799 ], [ 2.357025229616919, 48.860037221178487 ], [ 2.35702315273264, 48.860035535433731 ], [ 2.357034968622829, 48.860028367262146 ], [ 2.357037204852208, 48.860029842516077 ], [ 2.357080797211105, 48.86000254048551 ], [ 2.357078879746713, 48.860000748575743 ], [ 2.357090695492279, 48.859993369950274 ], [ 2.357093208733231, 48.859994598471367 ], [ 2.357333581283948, 48.859840785336225 ], [ 2.357331991185089, 48.859838973603999 ], [ 2.357344046754959, 48.859831594442092 ], [ 2.357345803136842, 48.859832964587902 ], [ 2.357391709228497, 48.859802816738053 ], [ 2.357389952911612, 48.859801551816936 ], [ 2.357398574923138, 48.859796281169807 ], [ 2.357400571136736, 48.859797545580292 ], [ 2.357408795085451, 48.859792169369861 ], [ 2.357407828700286, 48.859771725595657 ], [ 2.357389935915905, 48.85976071592556 ], [ 2.357425008449272, 48.859736113724317 ], [ 2.357427066159205, 48.859737364974471 ], [ 2.357467955562744, 48.859706940137109 ], [ 2.357466226758407, 48.85970587591936 ], [ 2.357622937421334, 48.859597006648109 ], [ 2.3576208359326, 48.859595768656419 ], [ 2.357658946892217, 48.859569135777654 ], [ 2.357660391488421, 48.859570256924897 ], [ 2.357693000414834, 48.859546460724751 ], [ 2.357695316565682, 48.859544769790752 ], [ 2.357693322517233, 48.859543219403761 ], [ 2.357699475007646, 48.859539138807236 ], [ 2.35770138289889, 48.859539828055418 ], [ 2.357735737536199, 48.859514726365759 ], [ 2.357733521454252, 48.859513164894885 ], [ 2.35777152773512, 48.859485173401183 ], [ 2.357773160291244, 48.859486416068542 ], [ 2.357810433760656, 48.859458160717551 ], [ 2.357877131370426, 48.859408590401948 ], [ 2.357879754642104, 48.859406641200522 ], [ 2.357877358643665, 48.859405411525664 ], [ 2.357885608356683, 48.859399262879144 ], [ 2.357887738277548, 48.859400184448347 ], [ 2.357908893662501, 48.859384241894567 ], [ 2.357906564447058, 48.859383012578547 ], [ 2.357912884265148, 48.859378181013277 ], [ 2.357915080148506, 48.859379058867844 ], [ 2.357935304135563, 48.859364037640546 ], [ 2.357932841300573, 48.859362369625515 ], [ 2.357939561310758, 48.859357801916282 ], [ 2.357941624746704, 48.859359030704994 ], [ 2.35794621527551, 48.859355385993048 ], [ 2.357944417651293, 48.859354376272897 ], [ 2.357948741347225, 48.859351037706332 ], [ 2.357951070795474, 48.8593519162769 ], [ 2.357979078792143, 48.859330043299124 ], [ 2.357976882046084, 48.859328682490911 ], [ 2.357984001082519, 48.859323588103059 ], [ 2.357986662636563, 48.859325168147755 ], [ 2.357990188458626, 48.859322313645265 ], [ 2.357988191816645, 48.859321084316349 ], [ 2.35799590887064, 48.859315243079443 ], [ 2.357998371683401, 48.859316691652154 ], [ 2.358019127700661, 48.859301186716863 ], [ 2.358016399619105, 48.859299475011106 ], [ 2.358023865359136, 48.859294007452412 ], [ 2.358026105806779, 48.859295361299409 ], [ 2.358047115729644, 48.859279934165784 ], [ 2.358044875503748, 48.859278230473805 ], [ 2.358053239628221, 48.859272416986634 ], [ 2.358055941049649, 48.859273858744075 ], [ 2.358059178647711, 48.859271386715157 ], [ 2.358119391387814, 48.85922540584594 ], [ 2.358165872944349, 48.859253352391363 ], [ 2.358266408553555, 48.859177712253036 ], [ 2.358350121267115, 48.859114730090695 ], [ 2.358352255365252, 48.859116197578871 ], [ 2.358395347549376, 48.859084346165837 ], [ 2.358660005431819, 48.858888722959229 ], [ 2.358693077940218, 48.858864398345446 ], [ 2.358698677366732, 48.858860279657456 ], [ 2.358721512428496, 48.858843485279422 ], [ 2.358799838184248, 48.858785876309462 ], [ 2.358828455523256, 48.858764828395046 ], [ 2.358749138328668, 48.858762021914693 ], [ 2.358604922165998, 48.858756919562353 ], [ 2.358535788884188, 48.858754473302675 ], [ 2.358250090214382, 48.858965739111682 ], [ 2.358283972546009, 48.858998297362291 ], [ 2.358226204073631, 48.859042949601928 ], [ 2.35813825352852, 48.859110930014623 ], [ 2.358136811528246, 48.859110151538459 ], [ 2.358133621778108, 48.859112391794454 ], [ 2.358131571814667, 48.859113831448262 ], [ 2.358133341057272, 48.859115042467721 ], [ 2.358011986093809, 48.859203803824478 ], [ 2.358004754150149, 48.859199590250938 ], [ 2.357828380602872, 48.859329319247472 ], [ 2.357830133811749, 48.859330614723881 ], [ 2.357814783208612, 48.859342153728235 ], [ 2.35781331905706, 48.859341292389388 ], [ 2.357690537923614, 48.859431552162974 ], [ 2.357691994902604, 48.859432995343113 ], [ 2.357658499139127, 48.859457421724699 ], [ 2.357604320483721, 48.859496931560145 ], [ 2.357566735627808, 48.859524341586329 ], [ 2.357564422169456, 48.859523271533057 ], [ 2.35743854583727, 48.859615655769652 ], [ 2.357440280375671, 48.8596169178753 ], [ 2.357424371353586, 48.859627967281696 ], [ 2.357421698673268, 48.859626626391787 ], [ 2.357195642774728, 48.859784664423152 ], [ 2.357169880390866, 48.859802675782205 ], [ 2.357185012277982, 48.859812421460056 ], [ 2.35700664278421, 48.859936333183107 ], [ 2.35690111844687, 48.860009171830882 ], [ 2.357003055679492, 48.860103511686496 ], [ 2.3570075258288, 48.860100244091605 ], [ 2.357005126554712, 48.860090443597123 ], [ 2.357000654219406, 48.860090022954502 ], [ 2.357000650716061, 48.86008180289592 ], [ 2.357004005122966, 48.860081802033108 ], [ 2.357003044793178, 48.860078219267251 ] ] ], [ [ [ 2.362839621723402, 48.856900439027243 ], [ 2.362937570949519, 48.856920697664812 ], [ 2.363208017206504, 48.856837297890614 ], [ 2.363221797494456, 48.856858181280927 ], [ 2.363387712272685, 48.856805271254935 ], [ 2.363368832462664, 48.856777755026869 ], [ 2.363794756875359, 48.856652800032364 ], [ 2.364047709483379, 48.856578589336323 ], [ 2.364155827929319, 48.856546870028325 ], [ 2.364228728885902, 48.856525482313522 ], [ 2.364333307930891, 48.856454187922168 ], [ 2.364186728538335, 48.856463972040508 ], [ 2.364075220137555, 48.856497187868058 ], [ 2.36397187248257, 48.856527973755028 ], [ 2.363870367926694, 48.856558045373724 ], [ 2.363766529659854, 48.85658880778977 ], [ 2.363663557123218, 48.856619314807084 ], [ 2.363560312271813, 48.856649901228792 ], [ 2.363491181682669, 48.856670206887969 ], [ 2.363458811756788, 48.85667971440563 ], [ 2.363415090104724, 48.856692556571979 ], [ 2.363318249655852, 48.856721001326854 ], [ 2.363160869694717, 48.856767226845662 ], [ 2.363005971351397, 48.856810888729619 ], [ 2.362999418517076, 48.856801511399198 ], [ 2.362914891604594, 48.856829077057846 ], [ 2.362839621723402, 48.856900439027243 ] ] ], [ [ [ 2.364333307930891, 48.856454187922168 ], [ 2.364505160126294, 48.856442716661114 ], [ 2.364591618737206, 48.856428293345267 ], [ 2.36477945337459, 48.856396958071372 ], [ 2.364755838622374, 48.856316194273333 ], [ 2.36468903643488, 48.856327254175952 ], [ 2.364619903002496, 48.856338700074978 ], [ 2.364588183712633, 48.856343952030848 ], [ 2.364532666062345, 48.856353144460066 ], [ 2.364465119477408, 48.856364327992367 ], [ 2.364333307930891, 48.856454187922168 ] ] ] ] } },
{ "type": "Feature", "properties": { "id": "9340", "cvoie": null, "cdgi": null, "typo": "RUE DE BIRAGUE", "typo_min": "rue de Birague", "date_arret": "1864-08-24", "siecle": "19", "statut": "Voie publique de la Ville de Paris", "typvoie": "rue", "prevoie": "de", "nomvoie": "Birague", "arrdt": [ "04e" ], "quartier": [ "Arsenal" ], "feuille": [ "92D1", "92B3" ], "debut": "rue Saint-Antoine, 36.", "fin": "place des Vosges, 1.", "longueur": 112, "largeur": 11.8, "n_pair": "16", "n_impair": "11 bis", "alignement": "Non retenus au PSMV du Marais : Arrêté du pouvoir exécutif du 26 mars 1848.", "servitude": null, "historique": "Anciennement rue Royale Saint-Antoine, rue du Pavillon du Roi ; en 1792, rue des Fédérés puis, rue Nationale ; en 1800, rue des Vosges ; elle avait repris le nom de rue Royale Saint-Antoine en 1814.", "denomination": "Décret du 24 août 1864.", "classement": null, "observation": null, "numerotage": null, "orig": "René de Birague (1507-1583), cardinal et chancelier de France ; voisinage de l'emplacement de la fontaine qu'il avait fait achever et à laquelle il avait donné son nom.", "declassement": null, "nivellement": null, "assainissement": null, "ouverture": "Lettres patentes de juillet 1605.", "validite": "Dénomination actuelle" }, "geometry": { "type": "Polygon", "coordinates": [ [ [ 2.365244760706187, 48.854980091756268 ], [ 2.365387714211459, 48.854956345378589 ], [ 2.365358424223005, 48.854883070074393 ], [ 2.365350819934742, 48.854884251061605 ], [ 2.365350156919253, 48.854883073891564 ], [ 2.365337997528685, 48.854854519746894 ], [ 2.365275724637055, 48.854708292150804 ], [ 2.365263235392492, 48.854678964600275 ], [ 2.365232474743615, 48.854606732785882 ], [ 2.365209130027959, 48.854552363651415 ], [ 2.36519753918807, 48.854525369277034 ], [ 2.365172258298042, 48.854466493100794 ], [ 2.365146650105144, 48.854406856126324 ], [ 2.365097294609355, 48.854291911611355 ], [ 2.365079439390412, 48.854250327069913 ], [ 2.36504045562225, 48.854159537482495 ], [ 2.365003608331631, 48.854073720038073 ], [ 2.364976905889955, 48.854011532030732 ], [ 2.364824658084429, 48.854052993489361 ], [ 2.36485648643027, 48.854124769749156 ], [ 2.364864793714875, 48.854143502379031 ], [ 2.364899309386448, 48.854233086562957 ], [ 2.364911299457258, 48.85426420752119 ], [ 2.364963999978527, 48.854400989943457 ], [ 2.36498422642655, 48.854454327218228 ], [ 2.36500447800882, 48.854507730272843 ], [ 2.365035483301768, 48.854589492982178 ], [ 2.365055870984064, 48.854643255584534 ], [ 2.365159641976937, 48.854916188260191 ], [ 2.36516798184502, 48.854915039067542 ], [ 2.365169253913378, 48.854916116943798 ], [ 2.365206031159385, 48.854909870001883 ], [ 2.365205161970032, 48.85490872411394 ], [ 2.365212545086695, 48.854907575238656 ], [ 2.365212893643901, 48.854908721962012 ], [ 2.365221319473453, 48.854907228770116 ], [ 2.36522062407114, 48.854906025346367 ], [ 2.365228790177476, 48.854904819467883 ], [ 2.365228790498715, 48.85490602370102 ], [ 2.365234405578044, 48.854905017435513 ], [ 2.365236255598406, 48.854909891840904 ], [ 2.365232128647229, 48.85491057414017 ], [ 2.365233692088413, 48.854914696066963 ], [ 2.365220333443869, 48.854916904156958 ], [ 2.365236257449223, 48.854958852536072 ], [ 2.365239219932217, 48.854958328640663 ], [ 2.365241896811212, 48.85496491530013 ], [ 2.365238815490533, 48.854965461048934 ], [ 2.365244760706187, 48.854980091756268 ] ] ] } },
{ "type": "Feature", "properties": { "id": "11437", "cvoie": null, "cdgi": null, "typo": "PASSAGE JEAN BEAUSIRE", "typo_min": "passage Jean Beausire", "date_arret": null, "siecle": null, "statut": "Voie privée non inscrite à la liste des voies privées ouvertes à la circulation publique", "typvoie": "passage", "prevoie": null, "nomvoie": "Jean Beausire", "arrdt": [ "04e" ], "quartier": [ "Arsenal" ], "feuille": [ "92D2", "92B4" ], "debut": "rue Jean Beausire, 11.", "fin": "rue des Tournelles, 12.", "longueur": 54, "largeur": 9.0, "n_pair": null, "n_impair": null, "alignement": null, "servitude": null, "historique": null, "denomination": null, "classement": null, "observation": null, "numerotage": null, "orig": "Voisinage de la rue Jean Beausire ; Famille de bourgeois notables dont l'un des descendants, mort en 1743, fut maître des oeuvres et contrôleur général des bâtiments de la Ville. Sans parenté avec la famille d'architectes Beausire, active à Paris au XVIIe et XVIIIe siècle.", "declassement": null, "nivellement": null, "assainissement": null, "ouverture": null, "validite": "Dénomination actuelle" }, "geometry": { "type": "Polygon", "coordinates": [ [ [ 2.367931378040622, 48.854368167069204 ], [ 2.367944712235617, 48.854276947025788 ], [ 2.368082634674296, 48.85427771955586 ], [ 2.368082918220687, 48.854262767534422 ], [ 2.367946956407908, 48.854261593457963 ], [ 2.367949817304444, 48.854242024289114 ], [ 2.367815120669627, 48.854276989096157 ], [ 2.367613780864713, 48.854299717527745 ], [ 2.36759804741701, 48.85428965157228 ], [ 2.367581827764258, 48.854292246815042 ], [ 2.367509974032943, 48.854303745662222 ], [ 2.367373420470434, 48.854325596604198 ], [ 2.367370380477742, 48.854347663210781 ], [ 2.36737560892345, 48.854346838268398 ], [ 2.367458683499521, 48.854334870000571 ], [ 2.367584782914081, 48.854312758656981 ], [ 2.36758397880968, 48.854318037198318 ], [ 2.367906395577897, 48.854294890838432 ], [ 2.367908390803934, 48.854369939674541 ], [ 2.367931378040622, 48.854368167069204 ] ] ] } },
{ "type": "Feature", "properties": { "id": "12639", "cvoie": null, "cdgi": null, "typo": "RUE DU PAS DE LA MULE", "typo_min": "rue du Pas de la Mule", "date_arret": "1893-12-26", "siecle": "19", "statut": "Voie publique de la Ville de Paris", "typvoie": "rue", "prevoie": "du", "nomvoie": "Pas de la Mule", "arrdt": [ "03e", "04e" ], "quartier": [ "Archives", "Arsenal" ], "feuille": [ "92B4", "92B3" ], "debut": "boulevard Beaumarchais, 31.", "fin": "place des Vosges, 22.", "longueur": 120, "largeur": 13.0, "n_pair": "8", "n_impair": "15", "alignement": "Non retenus au PSMV du Marais : Arrêté du Président de la République du 17 janvier 1849.", "servitude": "Les arcades dépendant de la place des Vosges ont été exemptées de la servitude de reculement par arrêté du Président de la République du 17 janvier 1849.", "historique": "Précédemment rue des Vosges (arrêté préfectoral du 22 janvier 1862) et antérieurement rue du pas de la Mule. La partie comprise entre la rue des Tournelles et la place des Vosges a été construite en 1604, en même temps que la place des Vosges. Elle fut d'abord appelée rue Royale puis, petite rue Royale.", "denomination": "Arrêté du 26 décembre 1893.", "classement": null, "observation": null, "numerotage": "Arrêté du 3 janvier 1894.", "orig": "Origine incertaine ; peut-être nom d'un passage étroit débouchant de la place Royale.", "declassement": null, "nivellement": null, "assainissement": null, "ouverture": "Arrêt du Conseil du Roi du 15 juillet 1673, entre le boulevard Beaumarchais et la rue des Tournelles.", "validite": "Dénomination actuelle" }, "geometry": { "type": "MultiPolygon", "coordinates": [ [ [ [ 2.367303352985411, 48.855941588245813 ], [ 2.367376260410473, 48.855978085329035 ], [ 2.367676326175731, 48.855928665596899 ], [ 2.367831546222603, 48.855903101489709 ], [ 2.368071401537354, 48.855863597265717 ], [ 2.368195320809027, 48.855843187939236 ], [ 2.368195743205088, 48.85584904134253 ], [ 2.368223029619804, 48.855860876065883 ], [ 2.368228929670522, 48.855860874839941 ], [ 2.368267795307339, 48.855735012700499 ], [ 2.368259752885713, 48.855746246296178 ], [ 2.36823921313699, 48.85575350173638 ], [ 2.368157419466133, 48.855766666246602 ], [ 2.367860094461622, 48.855814520605946 ], [ 2.367509764467727, 48.855873225328807 ], [ 2.367376537447434, 48.855895549818939 ], [ 2.367303352985411, 48.855941588245813 ] ] ], [ [ [ 2.367213165630677, 48.855998322621311 ], [ 2.367303352985411, 48.855941588245813 ], [ 2.3672500220853, 48.855914890532517 ], [ 2.367143724061287, 48.855931874718557 ], [ 2.36703841461953, 48.855948702156432 ], [ 2.366937098029847, 48.855964890502847 ], [ 2.366851220450269, 48.855978611696891 ], [ 2.366731771758782, 48.855997697864694 ], [ 2.36675836620509, 48.856075195319939 ], [ 2.366767252388604, 48.856073739530864 ], [ 2.366766814870123, 48.856072507803766 ], [ 2.366774792375619, 48.856071356581943 ], [ 2.366775353565236, 48.85607250532388 ], [ 2.366849649363875, 48.856060458649381 ], [ 2.366930142658116, 48.856046699977597 ], [ 2.367012549327151, 48.856032614116884 ], [ 2.367123456407386, 48.856013656967775 ], [ 2.36717622622444, 48.856004636770436 ], [ 2.367213165630677, 48.855998322621311 ] ] ] ] } },
{ "type": "Feature", "properties": { "id": "12447", "cvoie": null, "cdgi": null, "typo": "RUE NECKER", "typo_min": "rue Necker", "date_arret": null, "siecle": null, "statut": "Voie publique de la Ville de Paris", "typvoie": "rue", "prevoie": null, "nomvoie": "Necker", "arrdt": [ "04e" ], "quartier": [ "Saint-Gervais" ], "feuille": [ "92A4", "92B3" ], "debut": "rue d'Ormesson, 2.", "fin": "rue de Jarente, 1.", "longueur": 46, "largeur": 5.8, "n_pair": "10", "n_impair": "5", "alignement": "Non retenus au PSMV du Marais : Ordonnance du 5 avril 1846.", "servitude": null, "historique": null, "denomination": null, "classement": null, "observation": null, "numerotage": null, "orig": "Ouverte lors de la création du marché Sainte-Catherine, sous le ministère de Jacques Necker (1732-1804).", "declassement": null, "nivellement": null, "assainissement": null, "ouverture": "Ouverte en 1788 (lettres patentes du 15 février 1783).", "validite": "Dénomination actuelle" }, "geometry": { "type": "Polygon", "coordinates": [ [ [ 2.363131379384622, 48.855169304186774 ], [ 2.363135536081217, 48.855160840031246 ], [ 2.363049709013189, 48.855186396036046 ], [ 2.363061655739071, 48.855189772838898 ], [ 2.363064872612552, 48.855194753481967 ], [ 2.363063787367584, 48.855195453696034 ], [ 2.363141761420819, 48.855323332874292 ], [ 2.363221228420521, 48.855449300714618 ], [ 2.363294203692848, 48.855563941692822 ], [ 2.363290927232938, 48.855570190936398 ], [ 2.363375938701336, 48.855545617013497 ], [ 2.363363657601123, 48.855542827539551 ], [ 2.363358409330949, 48.855534997746638 ], [ 2.363360295066422, 48.855534148000011 ], [ 2.36331592581649, 48.855463432485983 ], [ 2.36327011151318, 48.855390415915586 ], [ 2.363223433757855, 48.855316020518622 ], [ 2.363176900494053, 48.855241856999974 ], [ 2.363131379384622, 48.855169304186774 ] ] ] } },
{ "type": "Feature", "properties": { "id": "11151", "cvoie": null, "cdgi": null, "typo": "IMPASSE GUEMENEE", "typo_min": "impasse Guéménée", "date_arret": null, "siecle": null, "statut": "Voie publique de la Ville de Paris", "typvoie": "impasse", "prevoie": null, "nomvoie": "Guéménée", "arrdt": [ "04e" ], "quartier": [ "Arsenal" ], "feuille": [ "92D1", "92B3" ], "debut": "rue Saint-Antoine, 26.", "fin": null, "longueur": 78, "largeur": 8.7, "n_pair": "12", "n_impair": "11", "alignement": null, "servitude": null, "historique": "Elle existait sous le nom de cul-de-sac du Ha ! Ha ! au commencement du XVIIe siècle. En 1646, on la nommait rue Royale. Le Conseil municipal, par délib. du 6 janvier 1832, a décidé de lui maintenir sa largeur.", "denomination": null, "classement": null, "observation": null, "numerotage": null, "orig": "Cette voie servait de dégagement à l'Hôtel Guéménée.", "declassement": null, "nivellement": null, "assainissement": null, "ouverture": null, "validite": "Dénomination actuelle" }, "geometry": { "type": "Polygon", "coordinates": [ [ [ 2.365779473512814, 48.85389271680242 ], [ 2.365747248836008, 48.853808510530655 ], [ 2.365634954782974, 48.853838635315853 ], [ 2.36563984491021, 48.853841865633008 ], [ 2.36569709154436, 48.854025599167052 ], [ 2.365730873665905, 48.854133570971662 ], [ 2.365792248685588, 48.854331556734827 ], [ 2.365842300879544, 48.854501478410683 ], [ 2.365847238934503, 48.854518246011274 ], [ 2.365888098536815, 48.854512372141336 ], [ 2.365915575822001, 48.854508422104644 ], [ 2.365956728933266, 48.85450250659779 ], [ 2.365977894600197, 48.854499463824084 ], [ 2.365953439694713, 48.854417661423589 ], [ 2.365943500063457, 48.854384414583244 ], [ 2.365925422221376, 48.854326907771849 ], [ 2.365893018392244, 48.854224008497376 ], [ 2.365888330054986, 48.854209120064155 ], [ 2.365882201791229, 48.854189925097792 ], [ 2.365875220219955, 48.854168055432936 ], [ 2.365871935523555, 48.854157768326374 ], [ 2.365860868499256, 48.854123099016803 ], [ 2.365840162753766, 48.854058241337654 ], [ 2.365826802259892, 48.85401639023236 ], [ 2.365806276217866, 48.853962752909908 ], [ 2.365779473512814, 48.85389271680242 ] ] ] } },
{ "type": "Feature", "properties": { "id": "12569", "cvoie": null, "cdgi": null, "typo": "RUE D'ORMESSON", "typo_min": "rue d'Ormesson", "date_arret": null, "siecle": null, "statut": "Voie publique de la Ville de Paris", "typvoie": "rue", "prevoie": "d'", "nomvoie": "Ormesson", "arrdt": [ "04e" ], "quartier": [ "Saint-Gervais" ], "feuille": [ "92B3", "92A4" ], "debut": "rue de Turenne, 3.", "fin": "rue de Sévigné, 6.", "longueur": 95, "largeur": 7.8, "n_pair": "10", "n_impair": "15", "alignement": "Non retenus au PSMV du Marais : Ordonnance du 5 avril 1846.", "servitude": null, "historique": null, "denomination": null, "classement": null, "observation": null, "numerotage": null, "orig": "Henri François Le Fèvre d'Ormesson (1751-1807), conseiller d'Etat, était contrôleur des finances lorsque cette voie fut ouverte pour la création du marché Sainte-Catherine.", "declassement": null, "nivellement": null, "assainissement": null, "ouverture": "Ouverte en 1788 (lettres patentes du 15 février 1783).", "validite": "Dénomination actuelle" }, "geometry": { "type": "Polygon", "coordinates": [ [ [ 2.362182672165927, 48.855416189017497 ], [ 2.362212415846865, 48.855409415357123 ], [ 2.362224843330203, 48.855421616541193 ], [ 2.362226362406549, 48.855423109466585 ], [ 2.362335336170743, 48.855391779459687 ], [ 2.362444308429952, 48.855360450244653 ], [ 2.362552759133865, 48.855328851943881 ], [ 2.362932184594239, 48.855219903467997 ], [ 2.362940871315218, 48.855217034918653 ], [ 2.362942148728976, 48.855218341282175 ], [ 2.3630402849129, 48.855190273337726 ], [ 2.363039111366505, 48.855189166284738 ], [ 2.363049709013189, 48.855186396036046 ], [ 2.363135536081217, 48.855160840031246 ], [ 2.363245426554784, 48.855131469262808 ], [ 2.363255605669503, 48.855133168343485 ], [ 2.363203826825735, 48.855067920958362 ], [ 2.363097454919733, 48.855097446219965 ], [ 2.363036582023176, 48.855114342977799 ], [ 2.362895299548265, 48.855153557996289 ], [ 2.3627837087981, 48.855185644423976 ], [ 2.362618796789178, 48.8552334920616 ], [ 2.362537489530641, 48.855256752347742 ], [ 2.362447792826035, 48.855282413215257 ], [ 2.362435664212852, 48.855285883042882 ], [ 2.362371644312605, 48.855304198058654 ], [ 2.362359515689178, 48.855307667878506 ], [ 2.362097543814396, 48.855382595934678 ], [ 2.362001160142351, 48.85540993857925 ], [ 2.36203122018421, 48.855450682972162 ], [ 2.36211336358507, 48.855431974608258 ], [ 2.362182672165927, 48.855416189017497 ] ] ] } },
{ "type": "Feature", "properties": { "id": "11416", "cvoie": null, "cdgi": null, "typo": "RUE DE JARENTE", "typo_min": "rue de Jarente", "date_arret": null, "siecle": null, "statut": "Voie publique de la Ville de Paris", "typvoie": "rue", "prevoie": "de", "nomvoie": "Jarente", "arrdt": [ "04e" ], "quartier": [ "Saint-Gervais" ], "feuille": [ "92B3", "92A4" ], "debut": "rue de Turenne, 13.", "fin": "rue de Sévigné, 12.", "longueur": 98, "largeur": 10.0, "n_pair": "10", "n_impair": "11", "alignement": "Non retenus au PSMV du Marais : Ordonnance du 5 avril 1846.", "servitude": null, "historique": null, "denomination": null, "classement": null, "observation": null, "numerotage": null, "orig": "Ouverte en 1784, sur l'emplacement du prieuré de la Couture Sainte-Catherine, a reçu le nom de Louis François Alexandre de Jarente, prieur commendataire.", "declassement": null, "nivellement": null, "assainissement": null, "ouverture": "Lettres patentes du 6 janvier 1781.", "validite": "Dénomination actuelle" }, "geometry": { "type": "Polygon", "coordinates": [ [ [ 2.362357386320829, 48.855932823304791 ], [ 2.362450973148182, 48.855912350910039 ], [ 2.362451667102377, 48.855913668558884 ], [ 2.362548382619342, 48.855893569799811 ], [ 2.362547208908724, 48.855891138897505 ], [ 2.36269388462396, 48.855846743988515 ], [ 2.362682410064155, 48.855828599627969 ], [ 2.362738205611709, 48.855803464943229 ], [ 2.362789774671876, 48.855787696048949 ], [ 2.362863469690393, 48.855765307008831 ], [ 2.36290937256911, 48.855751362354269 ], [ 2.362915081196637, 48.855749627322155 ], [ 2.362914097985976, 48.855748223596834 ], [ 2.362967528684378, 48.855731561589039 ], [ 2.362968886724486, 48.855733297371231 ], [ 2.362970823687902, 48.855732717708847 ], [ 2.363086889785113, 48.855697965878676 ], [ 2.363094524096161, 48.855695680792195 ], [ 2.363134649075823, 48.855683665882154 ], [ 2.363146705846623, 48.855680056202921 ], [ 2.363153761537495, 48.855677943406548 ], [ 2.363328557207141, 48.855625606811408 ], [ 2.363411468785797, 48.855599002648354 ], [ 2.363420534914495, 48.855596875349882 ], [ 2.363422468424822, 48.855598362370237 ], [ 2.363551155963432, 48.855560134689625 ], [ 2.36354995982112, 48.855558644398471 ], [ 2.363560897767344, 48.855555689749494 ], [ 2.363574761509154, 48.855557673707992 ], [ 2.363526999120896, 48.855494926465447 ], [ 2.363524640285984, 48.855501592499294 ], [ 2.363512028677461, 48.855505442090298 ], [ 2.363510119060318, 48.855503784321641 ], [ 2.363385548531278, 48.855540485180548 ], [ 2.363386700355212, 48.85554203279608 ], [ 2.363375938701336, 48.855545617013497 ], [ 2.363290927232938, 48.855570190936398 ], [ 2.363167444158998, 48.855606766048815 ], [ 2.363052818380392, 48.855640000326183 ], [ 2.363053445491667, 48.855641212392001 ], [ 2.363042595563055, 48.855644767330176 ], [ 2.362932109910287, 48.855678688150093 ], [ 2.362852299529437, 48.855701424197406 ], [ 2.362850819524632, 48.855699297446137 ], [ 2.362847859038948, 48.855700209812625 ], [ 2.362845267390187, 48.855696928670987 ], [ 2.362658411534129, 48.855756321385677 ], [ 2.362631539244647, 48.855764553008811 ], [ 2.362555320535767, 48.855787902459589 ], [ 2.362318634980722, 48.855860409724464 ], [ 2.362357386320829, 48.855932823304791 ] ] ] } },
{ "type": "Feature", "properties": { "id": "13858", "cvoie": null, "cdgi": null, "typo": "RUE DES TOURNELLES", "typo_min": "rue des Tournelles", "date_arret": "1839-07-15", "siecle": "19", "statut": "Voie publique de la Ville de Paris", "typvoie": "rue", "prevoie": "des", "nomvoie": "Tournelles", "arrdt": [ "03e", "04e" ], "quartier": [ "Archives", "Arsenal" ], "feuille": [ "92D2", "92B2" ], "debut": "rue Saint-Antoine, 8.", "fin": "boulevard Beaumarchais, 77.", "longueur": 580, "largeur": 15.5, "n_pair": "88", "n_impair": "51", "alignement": "Retenus au PSMV du Marais : Ordonnance du 8 juin 1834, au droit du n° 47.\r\nNon retenus au PSMV du Marais : Décret du 28 juillet 1866 (UP), au droit du n° 1 et pan coupé, côté pair, à l'angle de la rue de la Bastille, côté impair. Arrêté du 1er mars 1933, sur une longueur de 5 m environ à partir de la limite séparative des nos 1 et 3. Ordonnance du 8 juin 1834, côté impair, sauf au droit des nos 47 et 49 et, côté pair, au droit des nos 2 à 74.\r\nNon retenus au POS et non repris au PLU : Arrêté du 1er mars 1933, côté pair de la partie A. Ordonnance du 8 juin 1834, au droit du n° 49 et entre la rue Saint-Gilles et le boulevard Beaumarchais.", "servitude": null, "historique": "L'arrêté du 15 juillet 1839, réunissait la petite rue Neuve Saint-Gilles (ouverte en 1637), comprise entre la rue Saint-Gilles et le boulevard Beaumarchais, à la rue des Tournelles, comprise entre les rues Saint-Antoine et Saint-Gilles. L'ancienne rue des Tournelles, portait, en 1546, le nom de rue Jean Beausire.", "denomination": "Arrêté du 15 juillet 1839, partie comprise entre la rue Saint-Gilles et le boulevard Beaumarchais.", "classement": null, "observation": "Largeur : 15,50 m (moindre) entre les rues Saint-Antoine et de la Bastille (A) ; 10 m le surplus. Le carrefour de cette voie avec la rue Saint-Antoine est orné de la statue de Beaumarchais.", "numerotage": null, "orig": "Longeait le palais des Tournelles.", "declassement": null, "nivellement": "Arrêté du 1er mars 1933, partie A.", "assainissement": null, "ouverture": "Ouverte en 1637 pour la partie comprise entre la rue Saint-Gilles et le boulevard Beaumarchais.", "validite": "Dénomination actuelle" }, "geometry": { "type": "MultiPolygon", "coordinates": [ [ [ [ 2.3672500220853, 48.855914890532517 ], [ 2.367303352985411, 48.855941588245813 ], [ 2.367376537447434, 48.855895549818939 ], [ 2.367370058846338, 48.855892575591234 ], [ 2.367364890616174, 48.855757320143255 ], [ 2.367362971014138, 48.855699338762257 ], [ 2.367360160909964, 48.855614461189177 ], [ 2.367357230866973, 48.855539013566101 ], [ 2.36735553017177, 48.855495219688315 ], [ 2.367354554872664, 48.855451061809532 ], [ 2.367353568746452, 48.855406448800309 ], [ 2.36735250474619, 48.855358259558848 ], [ 2.367349469058327, 48.855275351244273 ], [ 2.367345732163704, 48.855173305525241 ], [ 2.367345537566475, 48.855168005520703 ], [ 2.367344773018196, 48.855147124845104 ], [ 2.367340443593122, 48.855028890360664 ], [ 2.367339028685316, 48.85499590907262 ], [ 2.367338004557397, 48.854972050169167 ], [ 2.367335690021811, 48.854918089455971 ], [ 2.367350639553595, 48.854918085757035 ], [ 2.367348324405814, 48.854843633321558 ], [ 2.367347498890708, 48.854817110687371 ], [ 2.367346520813518, 48.854785642612825 ], [ 2.367345954435919, 48.854751022689236 ], [ 2.367345319256455, 48.854712191638029 ], [ 2.367344828925442, 48.854682196578743 ], [ 2.367328224923328, 48.854682200522362 ], [ 2.367326443753264, 48.854560294818285 ], [ 2.367331268577014, 48.854523458611602 ], [ 2.367338627328504, 48.854467287153248 ], [ 2.367354202508169, 48.854401151149673 ], [ 2.367365170177575, 48.854401547293364 ], [ 2.36737560892345, 48.854346838268398 ], [ 2.367370380477742, 48.854347663210781 ], [ 2.367373420470434, 48.854325596604198 ], [ 2.367383680748278, 48.854251123378646 ], [ 2.367396600107717, 48.854177086001499 ], [ 2.367409166381683, 48.854105074789821 ], [ 2.367418993599731, 48.85404875267426 ], [ 2.367437234281024, 48.853944224804501 ], [ 2.367451816527719, 48.853785060833971 ], [ 2.367419721843479, 48.853719679145101 ], [ 2.367372674532461, 48.853623835574119 ], [ 2.36733932190547, 48.853555891243211 ], [ 2.367269005062159, 48.853765033407484 ], [ 2.367280180141383, 48.853905579378861 ], [ 2.367289484674705, 48.854022618074325 ], [ 2.367278148266969, 48.854101080537887 ], [ 2.367273692765019, 48.854127704771301 ], [ 2.367265375314111, 48.854177414727268 ], [ 2.367255816234046, 48.854178307599021 ], [ 2.367235619347742, 48.854333116820108 ], [ 2.367231189239508, 48.854367073594361 ], [ 2.367225555387136, 48.854410259442886 ], [ 2.367223344792283, 48.854427206824823 ], [ 2.367206748395386, 48.854554412367918 ], [ 2.36720904406816, 48.854616310677699 ], [ 2.367213396314507, 48.85473364868006 ], [ 2.367214203119044, 48.854755421744478 ], [ 2.367214805916297, 48.854771660920676 ], [ 2.367216391972443, 48.85481444605076 ], [ 2.367218257486273, 48.854864744937508 ], [ 2.367214422550219, 48.854865512488928 ], [ 2.367215704053107, 48.854907676351893 ], [ 2.367216041999879, 48.854918790521801 ], [ 2.3672169609459, 48.854949061245009 ], [ 2.367223278085034, 48.855156888808295 ], [ 2.367224750230566, 48.855205351822583 ], [ 2.367227600052677, 48.855205350704594 ], [ 2.367227714631963, 48.855209270681755 ], [ 2.367230477425372, 48.855303411353582 ], [ 2.367230719288514, 48.855311664176405 ], [ 2.367228247355399, 48.855311971273409 ], [ 2.367229109465314, 48.855360278165278 ], [ 2.367231478965314, 48.855493089723517 ], [ 2.367233920349772, 48.855629971207165 ], [ 2.367240230801804, 48.855628831823864 ], [ 2.367242773570694, 48.855680602893756 ], [ 2.367244358889683, 48.855712903356299 ], [ 2.367246945411497, 48.855765561413051 ], [ 2.367239126150211, 48.855767154184903 ], [ 2.367240374773576, 48.8558652250573 ], [ 2.367247662045833, 48.855864232037085 ], [ 2.3672500220853, 48.855914890532517 ] ] ], [ [ [ 2.367303352985411, 48.855941588245813 ], [ 2.367213165630677, 48.855998322621311 ], [ 2.367247344023765, 48.85601521868201 ], [ 2.367247947317241, 48.856040397383445 ], [ 2.367248810821778, 48.856076358870524 ], [ 2.367249414684461, 48.85610149080739 ], [ 2.367249670852901, 48.856112157555735 ], [ 2.367250534327053, 48.856148121738372 ], [ 2.367252190842577, 48.856217096262029 ], [ 2.367252967128497, 48.856249466177353 ], [ 2.367253830574539, 48.856285433053451 ], [ 2.367254625229478, 48.856318535134783 ], [ 2.367263506637718, 48.856317362579041 ], [ 2.367269208313863, 48.856452668450522 ], [ 2.367264078040518, 48.856686242037938 ], [ 2.367269662055368, 48.856832811595737 ], [ 2.367270320389999, 48.856850092481551 ], [ 2.367268334589189, 48.856850092773549 ], [ 2.367268379061978, 48.856923983567228 ], [ 2.367275773922128, 48.857064537027206 ], [ 2.367277088284186, 48.857141602029486 ], [ 2.367277951591221, 48.857192173408848 ], [ 2.367279684589788, 48.857293800943665 ], [ 2.367280787606896, 48.857358416021405 ], [ 2.36728252615955, 48.857460372732035 ], [ 2.367283368643538, 48.857509741557038 ], [ 2.367285872701065, 48.857656520456082 ], [ 2.367263914990462, 48.857677547148455 ], [ 2.367351872244706, 48.857707391227301 ], [ 2.367454333163395, 48.857645038712619 ], [ 2.367421777984511, 48.857627717836444 ], [ 2.367419259103349, 48.857544208063821 ], [ 2.367418309562697, 48.857512739319155 ], [ 2.367417496254129, 48.857485766240259 ], [ 2.367416543806233, 48.85745420034884 ], [ 2.367413828474824, 48.857364196223671 ], [ 2.367413113661989, 48.857339438758807 ], [ 2.367412333078426, 48.857312464949302 ], [ 2.367411289741569, 48.857276373946519 ], [ 2.367409101344201, 48.857200671346504 ], [ 2.36740514295186, 48.857063750566006 ], [ 2.367407130123587, 48.857063750278932 ], [ 2.36740711685788, 48.857061699692196 ], [ 2.367406871704382, 48.857024303447972 ], [ 2.36740670448696, 48.856998673803261 ], [ 2.367406685569025, 48.856995629405397 ], [ 2.367403038626735, 48.856995269272495 ], [ 2.367399507105342, 48.856900873767813 ], [ 2.367398497511267, 48.856873904132875 ], [ 2.367395107119999, 48.856783265047753 ], [ 2.367393306276114, 48.856735141221279 ], [ 2.367392296688458, 48.856708171582298 ], [ 2.367391114571794, 48.856676553191306 ], [ 2.367389096775753, 48.856622613017706 ], [ 2.367388087192459, 48.856595643375968 ], [ 2.367386054985306, 48.856541319099797 ], [ 2.367396664053169, 48.85654131582902 ], [ 2.36739380472457, 48.856322859414242 ], [ 2.367381180724265, 48.856322798071169 ], [ 2.367378512663955, 48.856243278725721 ], [ 2.367377296895, 48.85620702489301 ], [ 2.367374432508021, 48.85612167491351 ], [ 2.367372123592192, 48.856052875908041 ], [ 2.367369820555564, 48.855984266692133 ], [ 2.367376260410473, 48.855978085329035 ], [ 2.367303352985411, 48.855941588245813 ] ] ], [ [ [ 2.367351872244706, 48.857707391227301 ], [ 2.367241960589496, 48.857774278342724 ], [ 2.367271651050614, 48.857794950380786 ], [ 2.367225757427018, 48.857924347933547 ], [ 2.367192191222177, 48.858018989664735 ], [ 2.367119080201224, 48.858225124926477 ], [ 2.367084259004682, 48.858323299801754 ], [ 2.367024352873985, 48.858492201626753 ], [ 2.367195827684333, 48.858518699473656 ], [ 2.36736632995905, 48.858545047136772 ], [ 2.367515121316261, 48.858568040354697 ], [ 2.367567058869773, 48.8586202683965 ], [ 2.367613911652476, 48.858443382183253 ], [ 2.367533641634393, 48.858479552443328 ], [ 2.367440489324552, 48.858465371094887 ], [ 2.367336992104248, 48.85844961508289 ], [ 2.367230322356496, 48.858433375443525 ], [ 2.367195277619213, 48.858396893330898 ], [ 2.3672354503406, 48.858282840852354 ], [ 2.367260209159802, 48.858212550087373 ], [ 2.367296022414847, 48.858110877435891 ], [ 2.367330829962881, 48.858015128853488 ], [ 2.367364360373507, 48.857909495055338 ], [ 2.367415527036317, 48.857758871913397 ], [ 2.367445100251829, 48.857739024026827 ], [ 2.367351872244706, 48.857707391227301 ] ] ] ] } },
{ "type": "Feature", "properties": { "id": "9217", "cvoie": null, "cdgi": null, "typo": "RUE DE BEARN", "typo_min": "rue de Béarn", "date_arret": "1867-02-26", "siecle": "19", "statut": "Voie publique de la Ville de Paris", "typvoie": "rue", "prevoie": "de", "nomvoie": "Béarn", "arrdt": [ "03e" ], "quartier": [ "Archives" ], "feuille": [ "92B3" ], "debut": "place des Vosges, 28.", "fin": "rue Saint-Gilles, 5.", "longueur": 181, "largeur": 13.4, "n_pair": "16", "n_impair": "15", "alignement": "Non retenus au PSMV du Marais : Arrêté du Pouvoir exécutif du 26 mars 1848.", "servitude": null, "historique": "Précédemment, rue de la chaussée des Minimes ; plus anciennement, rue du Pavillon du Roi, du Parc des Tournelles, du Parc Royal ; en 1792, rue des Fédérés puis, rue Nationale. La partie entre les rues des Vosges et des Minimes est indiquée sur le plan de Mérian (1615).", "denomination": "Arrêté du 26 février 1867.", "classement": null, "observation": null, "numerotage": null, "orig": "Appelée ainsi en l'honneur de Henri IV le Béarnais ; voisinage de la place Royale, aujourd'hui place des Vosges.", "declassement": null, "nivellement": null, "assainissement": null, "ouverture": "La partie entre les rues des Minimes et Saint-Gilles a été ouverte en 1805.", "validite": "Dénomination actuelle" }, "geometry": { "type": "MultiPolygon", "coordinates": [ [ [ [ 2.366032998381745, 48.857157672911825 ], [ 2.366137213888744, 48.85718539703624 ], [ 2.366211305377986, 48.857126647362328 ], [ 2.366184346944695, 48.857055565687581 ], [ 2.366140700435285, 48.856940481264601 ], [ 2.36610949657654, 48.856858202652091 ], [ 2.366078506232839, 48.856780115226364 ], [ 2.366031651171576, 48.856655565165568 ], [ 2.366005942362378, 48.856587226760134 ], [ 2.365971178208084, 48.856494817828015 ], [ 2.365938876393783, 48.856408953005058 ], [ 2.365933408026523, 48.856394419311485 ], [ 2.365919582758963, 48.856357666059793 ], [ 2.36590793318889, 48.856326699061498 ], [ 2.365902007593381, 48.856327674933432 ], [ 2.365899616111394, 48.856321590747974 ], [ 2.365903102923789, 48.856320993170179 ], [ 2.365901807391591, 48.85631769558286 ], [ 2.365907946518275, 48.856316644397729 ], [ 2.365897489502657, 48.856290046464231 ], [ 2.365895136295537, 48.856290448594592 ], [ 2.365892886239573, 48.856284726697019 ], [ 2.365895171173524, 48.856284334997071 ], [ 2.365886891657804, 48.856262030406896 ], [ 2.365884556475135, 48.856262407450828 ], [ 2.365882574347456, 48.85625706829719 ], [ 2.365693978105148, 48.856286240124767 ], [ 2.365721857754858, 48.856357468045879 ], [ 2.365724179747199, 48.856356943441817 ], [ 2.365782902662674, 48.856507877839448 ], [ 2.365848052752551, 48.856675334927253 ], [ 2.365899807590715, 48.856808359515767 ], [ 2.365923971992288, 48.856870216228018 ], [ 2.365932574294281, 48.856891204965919 ], [ 2.365975258968811, 48.856995350983631 ], [ 2.36599185738927, 48.857035852998962 ], [ 2.365986397794389, 48.857036944661871 ], [ 2.366005072200184, 48.857084374569972 ], [ 2.366009188961637, 48.857083310866358 ], [ 2.366036697562527, 48.857151275651489 ], [ 2.366032998381745, 48.857157672911825 ] ] ], [ [ [ 2.366137213888744, 48.85718539703624 ], [ 2.366065515483007, 48.857242249121704 ], [ 2.366112084004786, 48.857366763407121 ], [ 2.366128642238399, 48.857411035247765 ], [ 2.366175259923472, 48.857535678355404 ], [ 2.36624377310064, 48.85771886449885 ], [ 2.366288222487461, 48.857837711429596 ], [ 2.366464856240373, 48.857808843180194 ], [ 2.366440076747885, 48.85774278341917 ], [ 2.366392045336584, 48.857614738813524 ], [ 2.366374727495347, 48.857568574363789 ], [ 2.366350712580353, 48.857504553844258 ], [ 2.366332975038193, 48.857457267471347 ], [ 2.366309112076846, 48.857393648850923 ], [ 2.366291867010129, 48.857347676326015 ], [ 2.366241390114879, 48.857213110068393 ], [ 2.366137213888744, 48.85718539703624 ] ] ] ] } },
{ "type": "Feature", "properties": { "id": "14121", "cvoie": null, "cdgi": null, "typo": "PLACE DES VOSGES", "typo_min": "place des Vosges", "date_arret": "1870-09-16", "siecle": "19", "statut": "Voie publique de la Ville de Paris", "typvoie": "place", "prevoie": "des", "nomvoie": "Vosges", "arrdt": [ "03e", "04e" ], "quartier": [ "Archives", "Arsenal" ], "feuille": [ "92B3" ], "debut": "rue de Birague, 11 bis.", "fin": "rue de Béarn, 1.", "longueur": 140, "largeur": 140.0, "n_pair": null, "n_impair": null, "alignement": "Non retenus au PSMV du Marais : Arrêté du Pouvoir exécutif du 26 mars 1848. Décret du 15 novembre 1912, au droit de l'arcade du n° 19 située au coin de la rue des Francs Bourgeois.", "servitude": "Les maisons riveraines sont assujetties à une architecture déterminée par les lettres patentes de juillet 1605 et confirmée par l'arrêté du pouvoir exécutif du 26 mars 1848.", "historique": "Elle a été dénommée : place Royale à l'origine ; place des Fédérés, le 19 août 1792 ; place de l'Indivisibilité, le 4 juillet 1793 ; place des Vosges, le 26 fructidor an VIII ; place Royale, le 27 avril 1814 ; place des Vosges, le 14 mars 1848, et place Royale, de 1852 à 1870. La partie située au nord du jardin, dénommée rue des Vosges, par arr. préf. du 22 janvier 1862, a été de nouveau réunie à la place par arr. préf. du 26 décembre 1893. Le jardin public situé au milieu de la place a été créé en 1866.", "denomination": "Arrêté du maire de Paris, du 16 septembre 1870.", "classement": null, "observation": "Les galeries sous arcades sont ouvertes à la circulation publique (arr. du 23 juin 1959). Le milieu de la place est occupé par un jardin public, d'une superficie de 12370 m² environ, décoré de fontaines monumentales et d'une statue de Louis XIII, dénommé square Louis XIII (arr. du 18 novembre 1976).", "numerotage": "Arrêté du 3 janvier 1894, partie au nord du jardin.", "orig": "Donné en l'an VIII parce que le département des Vosges avait été le premier à acquitter la totalité de ses contributions.", "declassement": null, "nivellement": "Décret du 20 janvier 1855, partie au nord du jardin.", "assainissement": null, "ouverture": "Lettres patentes de juillet 1605.", "validite": "Dénomination actuelle" }, "geometry": { "type": "Polygon", "coordinates": [ [ [ 2.364803283235303, 48.856439512311958 ], [ 2.364856049759907, 48.856430719755622 ], [ 2.364855229539768, 48.85642857404936 ], [ 2.364863692776283, 48.856427163822069 ], [ 2.364864575098871, 48.856429469942249 ], [ 2.364909058848276, 48.8564214814864 ], [ 2.364908051424161, 48.856419039800066 ], [ 2.36491376777483, 48.856418013402482 ], [ 2.36491488504803, 48.856420723678148 ], [ 2.364959003166056, 48.856413323236879 ], [ 2.364958302981325, 48.856411504632433 ], [ 2.364965432024913, 48.856410308557521 ], [ 2.364966269626499, 48.856412482235179 ], [ 2.36501017603041, 48.856405118424235 ], [ 2.365009436197285, 48.856403197983113 ], [ 2.365017473431558, 48.856401850237596 ], [ 2.365018264793541, 48.856403904055924 ], [ 2.365062277714188, 48.856396521904735 ], [ 2.365061507487432, 48.85639452305923 ], [ 2.365068804505816, 48.856393299090279 ], [ 2.365069650014527, 48.85639549529288 ], [ 2.365113473092075, 48.856388144492215 ], [ 2.365112708150545, 48.856386159165289 ], [ 2.365119260854155, 48.856385059851249 ], [ 2.365120050857036, 48.85638711366169 ], [ 2.365165683003316, 48.856379946914089 ], [ 2.365164971089859, 48.856377971761688 ], [ 2.365171634908409, 48.85637692519655 ], [ 2.36517234947092, 48.856378906658442 ], [ 2.36522166143888, 48.856370737749884 ], [ 2.365268670841902, 48.856362951422021 ], [ 2.365267767518773, 48.856360577742144 ], [ 2.365275797706501, 48.8563592479289 ], [ 2.365276764386488, 48.856361791022636 ], [ 2.365322073505515, 48.856354286145056 ], [ 2.365321208486445, 48.856352012496565 ], [ 2.365329690711893, 48.856350607733212 ], [ 2.365330516116967, 48.856352776846862 ], [ 2.36537852589921, 48.856344540710637 ], [ 2.365426276158281, 48.856336349945103 ], [ 2.365425285930912, 48.85633383730557 ], [ 2.36543264746744, 48.856332574085215 ], [ 2.365433740841911, 48.85633534628451 ], [ 2.365478549219836, 48.856327658822288 ], [ 2.365477712369713, 48.856325533717055 ], [ 2.365485639321705, 48.856324174563127 ], [ 2.365486600456518, 48.856326614200526 ], [ 2.365528612426744, 48.856319907471963 ], [ 2.365527745779543, 48.856317542981998 ], [ 2.365535958354784, 48.856316232105364 ], [ 2.365536868508427, 48.856318717338901 ], [ 2.365582366788506, 48.856311453492339 ], [ 2.365581519902665, 48.856309144867218 ], [ 2.365588698740597, 48.856307998483494 ], [ 2.365589364875128, 48.856309816903789 ], [ 2.365635502951151, 48.856301943971594 ], [ 2.365634844690669, 48.856300262294532 ], [ 2.36564176361912, 48.856299082153186 ], [ 2.365642461549483, 48.856300863868356 ], [ 2.365687224291268, 48.856293225550402 ], [ 2.365685081560201, 48.856287757834465 ], [ 2.365693978105148, 48.856286240124767 ], [ 2.365882574347456, 48.85625706829719 ], [ 2.365888749618148, 48.8562560703662 ], [ 2.365888077891202, 48.856254262710081 ], [ 2.365894294134065, 48.856253257801143 ], [ 2.365896637880787, 48.856259568370376 ], [ 2.365939276208616, 48.85625267685279 ], [ 2.365938476509476, 48.856250521369695 ], [ 2.365946570453664, 48.856249213433728 ], [ 2.365947370164062, 48.856251368017482 ], [ 2.365992416042879, 48.856244087228411 ], [ 2.365991471190237, 48.856241539759225 ], [ 2.365998879600305, 48.856240342405023 ], [ 2.365999672695523, 48.856242480765061 ], [ 2.366041804356539, 48.856235671065441 ], [ 2.366040970313988, 48.85623342546608 ], [ 2.366047862520837, 48.856232311711594 ], [ 2.366048614694204, 48.856234341033158 ], [ 2.366093185315911, 48.856227136831137 ], [ 2.366092418554631, 48.856225074156626 ], [ 2.366099709526707, 48.85622389506036 ], [ 2.366100416886503, 48.856225799134528 ], [ 2.366146054031303, 48.856218422491366 ], [ 2.366145297853429, 48.856216385954404 ], [ 2.366151867782167, 48.85621532354849 ], [ 2.366152502496303, 48.856217037474636 ], [ 2.366197284715124, 48.856209690458691 ], [ 2.366249515137549, 48.856201121984597 ], [ 2.36624877974388, 48.856199169197915 ], [ 2.36625656664155, 48.856197891991428 ], [ 2.36625730867455, 48.856199859202825 ], [ 2.366300717023287, 48.856192737803674 ], [ 2.366299846961313, 48.856190427262142 ], [ 2.366308413640523, 48.856189021977364 ], [ 2.36630927844841, 48.856191316302755 ], [ 2.366355763583412, 48.856183689554292 ], [ 2.366354831423771, 48.85618121770063 ], [ 2.366361706075195, 48.856180089445523 ], [ 2.366362621043394, 48.856182518039304 ], [ 2.366405936504874, 48.856175411399128 ], [ 2.366405065119412, 48.856173097253915 ], [ 2.366412225179837, 48.856171922841583 ], [ 2.3664131203092, 48.856174301865686 ], [ 2.366456759414818, 48.856167142060428 ], [ 2.366455946121927, 48.856164982012004 ], [ 2.366463141690206, 48.856163801489188 ], [ 2.366464001217194, 48.856166082295225 ], [ 2.366511322075573, 48.856158318713142 ], [ 2.36656014239005, 48.85615030943319 ], [ 2.366559475622368, 48.856148540479104 ], [ 2.366567263867609, 48.856147263259551 ], [ 2.366568038889152, 48.856149320578673 ], [ 2.366612058969045, 48.856142097980332 ], [ 2.366611278647609, 48.856140028042532 ], [ 2.366619015004439, 48.856138758639119 ], [ 2.366619667253012, 48.856140488843955 ], [ 2.366665276920056, 48.856133005734222 ], [ 2.366664511106848, 48.856130975444941 ], [ 2.366672049446357, 48.856129738266013 ], [ 2.366672706951028, 48.856131484686685 ], [ 2.366722855980771, 48.856123257535302 ], [ 2.366721987198511, 48.856120952399607 ], [ 2.36673068222309, 48.856119526179484 ], [ 2.366731459910696, 48.856121588907804 ], [ 2.366776672142251, 48.856114171103613 ], [ 2.366763719703709, 48.856079795947075 ], [ 2.366760311068479, 48.856080355291596 ], [ 2.36675836620509, 48.856075195319939 ], [ 2.366731771758782, 48.855997697864694 ], [ 2.366728394403713, 48.855988731455319 ], [ 2.366732870959736, 48.855987996993903 ], [ 2.366721085718912, 48.855956721770795 ], [ 2.36671803215803, 48.855957222736862 ], [ 2.366715301715225, 48.855949977509589 ], [ 2.366717817218852, 48.855949564530434 ], [ 2.366708771669392, 48.855925559763079 ], [ 2.366706166034558, 48.855925987554023 ], [ 2.366704205385884, 48.855920781630282 ], [ 2.366707111453693, 48.855920305065787 ], [ 2.366696959436243, 48.855893367954756 ], [ 2.366694011023949, 48.85589385238903 ], [ 2.36669210315256, 48.85588878974098 ], [ 2.366695233191694, 48.855888275690084 ], [ 2.366684265272659, 48.855859169522475 ], [ 2.366673529388617, 48.85583059699659 ], [ 2.366670596178329, 48.855831064423121 ], [ 2.366668595030865, 48.855825602868435 ], [ 2.366671331611948, 48.855825165878528 ], [ 2.366661634537073, 48.855798702429553 ], [ 2.366658417293348, 48.85579921511863 ], [ 2.366656451763883, 48.855793850881966 ], [ 2.366659524275045, 48.855793359910606 ], [ 2.366649909017724, 48.855767118133123 ], [ 2.366646493762514, 48.855767663049818 ], [ 2.366644383124283, 48.855761903229876 ], [ 2.366648075589022, 48.855761313913582 ], [ 2.366637290264151, 48.855731878642864 ], [ 2.366626900536877, 48.855703872733628 ], [ 2.366623449524361, 48.855704444440939 ], [ 2.366621395888992, 48.855699041064746 ], [ 2.366624841438978, 48.855698470227921 ], [ 2.366624737132397, 48.855698193575186 ], [ 2.366614608915283, 48.855671547966899 ], [ 2.366611028174708, 48.855672140571578 ], [ 2.366609004902839, 48.855666818297316 ], [ 2.366612264714168, 48.855666278854301 ], [ 2.366611856634502, 48.855665204668348 ], [ 2.366602555174282, 48.855640733567412 ], [ 2.366598912977841, 48.855641336638669 ], [ 2.366596642754835, 48.855635363725654 ], [ 2.366599789209978, 48.855634843468678 ], [ 2.366588319241034, 48.855604666198943 ], [ 2.366577649835711, 48.855575790928064 ], [ 2.366575196961913, 48.855576210531332 ], [ 2.366573247015766, 48.855571247485017 ], [ 2.36657604951331, 48.855570768576712 ], [ 2.366566090945387, 48.855545418924031 ], [ 2.366563707718622, 48.855545827204196 ], [ 2.366561464315116, 48.855540115243627 ], [ 2.366563780621724, 48.85553971830084 ], [ 2.366561783092643, 48.855534633589905 ], [ 2.366553098953838, 48.855512526545589 ], [ 2.366550916499255, 48.855512899914267 ], [ 2.366550365239648, 48.855511495807612 ], [ 2.36654889516339, 48.855507755719849 ], [ 2.366551570642803, 48.855507298623458 ], [ 2.366539767959219, 48.855477251788592 ], [ 2.366529587724639, 48.855450631973127 ], [ 2.366527289324141, 48.855451013721101 ], [ 2.366524547375911, 48.85544382238605 ], [ 2.366526718772151, 48.855443461550223 ], [ 2.366516590891257, 48.855416908561871 ], [ 2.366513960640448, 48.855417345211897 ], [ 2.366512027009075, 48.85541227432806 ], [ 2.366514651797477, 48.855411838548562 ], [ 2.366480548905161, 48.855322425308458 ], [ 2.366477642792084, 48.855322908162748 ], [ 2.366475297081674, 48.85531675677445 ], [ 2.366478313800595, 48.855316256518798 ], [ 2.366466678953194, 48.855285751890698 ], [ 2.366455978636052, 48.855257636387869 ], [ 2.366454097830832, 48.855257973579242 ], [ 2.36645158116307, 48.855251871648591 ], [ 2.366453920909693, 48.855251451448844 ], [ 2.366442552909996, 48.855223886408929 ], [ 2.366439700964379, 48.855224398328346 ], [ 2.366437611921878, 48.855219332015615 ], [ 2.366441459594044, 48.855218641001414 ], [ 2.36643096928642, 48.855193207571737 ], [ 2.366428267589871, 48.855193692406552 ], [ 2.366426187794159, 48.855188650424907 ], [ 2.366429472720212, 48.855188060756142 ], [ 2.366418439673201, 48.855161308700374 ], [ 2.366416108118135, 48.855161728043427 ], [ 2.366413825786458, 48.855156193943316 ], [ 2.366417065639717, 48.855155612130403 ], [ 2.366406161047018, 48.855129169230203 ], [ 2.366403352803333, 48.855129674185385 ], [ 2.366401118135602, 48.855124255454157 ], [ 2.366404028807943, 48.855123733054405 ], [ 2.366391776504585, 48.855094025566295 ], [ 2.366381063218784, 48.855065862317211 ], [ 2.366378966627259, 48.855066237036866 ], [ 2.366376684577104, 48.855060680453285 ], [ 2.366379454549601, 48.855060184289577 ], [ 2.366369970203517, 48.855037097188401 ], [ 2.366368744415384, 48.85503411654328 ], [ 2.366366144109592, 48.855034557845393 ], [ 2.366364034750883, 48.855029146072042 ], [ 2.366366798942449, 48.855028676858545 ], [ 2.366356298452593, 48.855001733353077 ], [ 2.366353782554411, 48.855002182296751 ], [ 2.366351475436845, 48.854996558128214 ], [ 2.366354384706919, 48.854996038420275 ], [ 2.366344126353269, 48.854971038793664 ], [ 2.366341743835697, 48.854971502832989 ], [ 2.366340041538495, 48.854967696757669 ], [ 2.366338900626359, 48.854965357798896 ], [ 2.366341850406921, 48.85496486888367 ], [ 2.366331818898975, 48.854938475562825 ], [ 2.366329196880301, 48.854938909554392 ], [ 2.366326757672361, 48.854932492357079 ], [ 2.366329921847973, 48.854931968603537 ], [ 2.366320303674417, 48.854906665684723 ], [ 2.366317622925751, 48.854907110157193 ], [ 2.366315486154932, 48.854901487788936 ], [ 2.366317996192842, 48.854901072091053 ], [ 2.366308045225884, 48.854874894138007 ], [ 2.366305391800251, 48.854875333358834 ], [ 2.366303146760792, 48.854869424423129 ], [ 2.366305793361211, 48.854868986065533 ], [ 2.366294871725984, 48.854840256007201 ], [ 2.366292656350053, 48.854840648982645 ], [ 2.366290778596814, 48.854836029862682 ], [ 2.366289761721641, 48.854833802180252 ], [ 2.366291507169277, 48.85483349934929 ], [ 2.366277698398988, 48.854798876737142 ], [ 2.366168237590355, 48.854817887538289 ], [ 2.366169020538893, 48.854819850472765 ], [ 2.366159466992592, 48.854821509533735 ], [ 2.366158604716154, 48.854819345623639 ], [ 2.366118029111491, 48.854826392045332 ], [ 2.366118663954531, 48.854827981864126 ], [ 2.366108326453873, 48.854829777066861 ], [ 2.366107663878628, 48.854828114253657 ], [ 2.366066496878797, 48.854835263648404 ], [ 2.366067163453745, 48.854836933677824 ], [ 2.366058224493748, 48.854838486265891 ], [ 2.366057485197401, 48.854836632383446 ], [ 2.366009235298037, 48.854845012318684 ], [ 2.365960793792196, 48.854853232933372 ], [ 2.365961404877382, 48.854854758773158 ], [ 2.365953580305375, 48.854856123897733 ], [ 2.365952823701056, 48.854854236646986 ], [ 2.365911368091627, 48.854861468098782 ], [ 2.365911997685545, 48.854863040803124 ], [ 2.365901837618895, 48.854864813545177 ], [ 2.365901164355381, 48.854863133586541 ], [ 2.365876350815236, 48.854867461074086 ], [ 2.3658570509296, 48.854870827591228 ], [ 2.365857762530909, 48.854872604883184 ], [ 2.365849711236731, 48.854874009270276 ], [ 2.365849051208753, 48.854872361758162 ], [ 2.365832529321735, 48.854875243853918 ], [ 2.365799903477427, 48.854880934708085 ], [ 2.365752749884993, 48.854888814915121 ], [ 2.365753433926099, 48.854890504824574 ], [ 2.365745544985252, 48.85489189477623 ], [ 2.365744962858486, 48.854890453627895 ], [ 2.365701983479977, 48.854898021381928 ], [ 2.365702603988275, 48.854899556266453 ], [ 2.365693599187367, 48.854901141754247 ], [ 2.365692935042677, 48.854899496917533 ], [ 2.365688933212969, 48.854900201480213 ], [ 2.365657067433463, 48.85490581268499 ], [ 2.365648768750913, 48.854907274204905 ], [ 2.365649464703619, 48.85490899295732 ], [ 2.365639603531578, 48.854910729488942 ], [ 2.365638934057726, 48.854909074730784 ], [ 2.365591078687727, 48.854917501556699 ], [ 2.365543906487995, 48.854925337514686 ], [ 2.36554457871158, 48.854927102008787 ], [ 2.36553606389601, 48.854928516507961 ], [ 2.365535349366336, 48.854926644766671 ], [ 2.365490826507969, 48.854934040578947 ], [ 2.365491584606785, 48.854936027668501 ], [ 2.365481190657918, 48.854937754167103 ], [ 2.365480538243177, 48.854936041940057 ], [ 2.365440762366563, 48.854942648992882 ], [ 2.365441424045825, 48.854944383753093 ], [ 2.365434472892179, 48.854945538530643 ], [ 2.365433862719429, 48.854943938946242 ], [ 2.365389561076248, 48.854951297221945 ], [ 2.365391246283158, 48.854955717477495 ], [ 2.365387714211459, 48.854956345378589 ], [ 2.365244760706187, 48.854980091756268 ], [ 2.365193414983409, 48.854989178918018 ], [ 2.365193926946885, 48.854990672758511 ], [ 2.365182695425464, 48.85499234802144 ], [ 2.365181982329335, 48.854990583308528 ], [ 2.365178271426134, 48.854991123017605 ], [ 2.365177077106438, 48.854988138029952 ], [ 2.365137377820266, 48.85499505206721 ], [ 2.365138033804675, 48.854996694165628 ], [ 2.365127412084241, 48.854998544434878 ], [ 2.365126847317216, 48.854997133953646 ], [ 2.365084604917998, 48.855004491350734 ], [ 2.365085196140063, 48.855005967625189 ], [ 2.365077815429465, 48.85500725320675 ], [ 2.365077152818997, 48.855005595783886 ], [ 2.365034153770982, 48.855013084050974 ], [ 2.365034809763424, 48.855014725250655 ], [ 2.36502509219272, 48.85501641752613 ], [ 2.36502447057041, 48.855014863745858 ], [ 2.364981213368059, 48.8550223973903 ], [ 2.364981853520393, 48.855023996236667 ], [ 2.364971798589415, 48.855025747873363 ], [ 2.364971121418778, 48.855024055297918 ], [ 2.364928151024839, 48.85503153828293 ], [ 2.364928868606851, 48.855033269745178 ], [ 2.364920823495898, 48.855034721768263 ], [ 2.364920068851886, 48.855032900174116 ], [ 2.364871720378209, 48.855041621780778 ], [ 2.364826233906184, 48.855049788371446 ], [ 2.364826904236506, 48.855051482710039 ], [ 2.364817457265108, 48.855053112551168 ], [ 2.364816821293635, 48.855051506531275 ], [ 2.364774870552211, 48.85505874485429 ], [ 2.36477547082329, 48.855060260749703 ], [ 2.364766097593467, 48.855061878387296 ], [ 2.364765472207912, 48.855060298504547 ], [ 2.364720068813225, 48.855068131836624 ], [ 2.364720729940558, 48.855069798247087 ], [ 2.364714493870916, 48.855070874038987 ], [ 2.364712322302119, 48.855071249230789 ], [ 2.364711679749799, 48.855069624289058 ], [ 2.364668040894336, 48.855077153995424 ], [ 2.364668703317153, 48.855078825809159 ], [ 2.364667971265617, 48.855078952328242 ], [ 2.36466138282336, 48.855080089201017 ], [ 2.364660760078586, 48.855078516526575 ], [ 2.364616400091747, 48.855086170093053 ], [ 2.364617041355237, 48.855087788732995 ], [ 2.364611249156881, 48.855088787733564 ], [ 2.364610536517437, 48.855086987045631 ], [ 2.364560025098437, 48.85509570333663 ], [ 2.364515225097378, 48.855103449860209 ], [ 2.364516030683934, 48.855105451597616 ], [ 2.364506760923175, 48.855107076959229 ], [ 2.364505915604458, 48.855104980578851 ], [ 2.364466797385104, 48.855111840820676 ], [ 2.364462232841315, 48.855112641282304 ], [ 2.364463002760195, 48.855114550197499 ], [ 2.364453976112419, 48.855116132778029 ], [ 2.364453267072907, 48.855114372579159 ], [ 2.364411193218765, 48.855121751319004 ], [ 2.364411998834618, 48.85512375035924 ], [ 2.364402974909351, 48.855125332950401 ], [ 2.364402189154493, 48.855123381681231 ], [ 2.364359481552036, 48.855130871254211 ], [ 2.36436017868787, 48.855132713231384 ], [ 2.364355016574771, 48.855133564475658 ], [ 2.364354344487542, 48.855131791881547 ], [ 2.364350665461185, 48.855132398286344 ], [ 2.364300155179456, 48.855141349204445 ], [ 2.364300725464642, 48.855142752524003 ], [ 2.364295044927125, 48.855143758397979 ], [ 2.364296393214437, 48.855147077871521 ], [ 2.364294441423871, 48.855147423645406 ], [ 2.364306826323541, 48.855177895606694 ], [ 2.364309081831655, 48.855177455215568 ], [ 2.364310257414694, 48.855180073176754 ], [ 2.364311222565748, 48.855182177389864 ], [ 2.364308550138075, 48.855182607471946 ], [ 2.364319418993779, 48.855209659238547 ], [ 2.364322106665893, 48.855209208552047 ], [ 2.364324838722914, 48.855216291066718 ], [ 2.364321851959846, 48.855216792326715 ], [ 2.364330786628867, 48.85523995491458 ], [ 2.364333472950587, 48.855239503321357 ], [ 2.364335504797496, 48.855244772621347 ], [ 2.36433294411695, 48.855245203297613 ], [ 2.36434268735864, 48.855270458472688 ], [ 2.364345604478774, 48.855269968533776 ], [ 2.364346447377679, 48.85527215123988 ], [ 2.364347878151833, 48.8552758596703 ], [ 2.364345307919288, 48.855276291195473 ], [ 2.3643533628013, 48.85529716835228 ], [ 2.364356044682273, 48.855304119293841 ], [ 2.364358687298484, 48.855303675562048 ], [ 2.364360450970001, 48.855308249137657 ], [ 2.364357718210707, 48.855308708578924 ], [ 2.364367914646737, 48.855335136213526 ], [ 2.364370643307863, 48.85533467764958 ], [ 2.364372786149529, 48.855340233531663 ], [ 2.364370080710711, 48.855340687722261 ], [ 2.364379345757607, 48.855364701945419 ], [ 2.364381945074051, 48.855364232801293 ], [ 2.36438445532709, 48.855370282579671 ], [ 2.364381425749196, 48.85537082948057 ], [ 2.364392642461766, 48.85539786149883 ], [ 2.364395438068202, 48.855397389799677 ], [ 2.364397755606185, 48.855403372901314 ], [ 2.364395069265603, 48.855403825395229 ], [ 2.364405517838951, 48.85543081465908 ], [ 2.364416851833568, 48.855461194680736 ], [ 2.364419523153134, 48.855460744804624 ], [ 2.364421787752992, 48.855466599017056 ], [ 2.364419053612131, 48.855467059351746 ], [ 2.364428538875671, 48.855491571179542 ], [ 2.364431472416045, 48.855491076829033 ], [ 2.364433849347418, 48.855497219429992 ], [ 2.36443100593882, 48.855497698970296 ], [ 2.364440370992904, 48.855521898982502 ], [ 2.364443151570794, 48.855521430799826 ], [ 2.36444543602574, 48.855527333681849 ], [ 2.364442446487424, 48.855527837628109 ], [ 2.364453245133066, 48.855555740685709 ], [ 2.364465620148208, 48.855586368153581 ], [ 2.364467732810174, 48.855586019633947 ], [ 2.364469862595496, 48.855591641995545 ], [ 2.364467672088341, 48.855592003592029 ], [ 2.364477524986865, 48.855618000395005 ], [ 2.364480187081301, 48.855617525286718 ], [ 2.36448245164284, 48.855623048535804 ], [ 2.364479356559252, 48.855623601386689 ], [ 2.364489735763669, 48.855648910281715 ], [ 2.364492075510934, 48.855648492818375 ], [ 2.364494291098663, 48.85565389709263 ], [ 2.364491777878527, 48.855654346011349 ], [ 2.364502158424935, 48.85567965760972 ], [ 2.364502613710116, 48.855680768927144 ], [ 2.364505556756346, 48.855680278222778 ], [ 2.364507491718792, 48.855685336554949 ], [ 2.364504813618244, 48.855685782799554 ], [ 2.364512458397137, 48.855705765603375 ], [ 2.364515126417953, 48.855712738948718 ], [ 2.364517769009763, 48.855712298810765 ], [ 2.364519692104064, 48.85571732470288 ], [ 2.364517130082849, 48.855717751778542 ], [ 2.364526596265611, 48.855742494624337 ], [ 2.364529487407276, 48.855742013536599 ], [ 2.364531755231745, 48.855747940609838 ], [ 2.364529152247797, 48.855748373763653 ], [ 2.364539041097663, 48.855774221456286 ], [ 2.364541850307218, 48.855773753423414 ], [ 2.364543818272394, 48.855778900066163 ], [ 2.364541622251773, 48.855779266131414 ], [ 2.364552431705422, 48.855807520876681 ], [ 2.364563187872933, 48.855836010967124 ], [ 2.364565894786267, 48.855835549585279 ], [ 2.364568041261451, 48.855841034431727 ], [ 2.364565423117661, 48.855841480996069 ], [ 2.364576017998909, 48.85586855734811 ], [ 2.364578924313578, 48.855868061950169 ], [ 2.364581003404214, 48.855873372863705 ], [ 2.36457821591799, 48.855873847308331 ], [ 2.364587881634651, 48.855898549834926 ], [ 2.364590044017041, 48.8558981485155 ], [ 2.364592630440726, 48.855904214879125 ], [ 2.364590126551679, 48.855904680037746 ], [ 2.364602129932179, 48.855932825998096 ], [ 2.364613868610605, 48.85596189148584 ], [ 2.364616410332219, 48.855961453508165 ], [ 2.364618725499214, 48.855967299888327 ], [ 2.364615801352905, 48.855967804186086 ], [ 2.364625854033769, 48.855993188671036 ], [ 2.364629030852309, 48.855992640747168 ], [ 2.364630889872997, 48.8559973344356 ], [ 2.364627662519943, 48.855997891084691 ], [ 2.364638419940702, 48.856025055527091 ], [ 2.364641387788095, 48.856024544266035 ], [ 2.364643545631311, 48.856029992297117 ], [ 2.364640495838525, 48.856030517512743 ], [ 2.364651144854542, 48.856057407975001 ], [ 2.36465406763172, 48.856056904568483 ], [ 2.364656037702066, 48.856061880342537 ], [ 2.364652862253303, 48.856062427375029 ], [ 2.364662854111714, 48.856087661340098 ], [ 2.364665595524698, 48.856087165963842 ], [ 2.364667782767731, 48.856092438776948 ], [ 2.364664988083593, 48.856092943763194 ], [ 2.364677156000508, 48.856121909892622 ], [ 2.364688692922007, 48.856150985988009 ], [ 2.364691002412016, 48.856150592642642 ], [ 2.364692706126653, 48.856154946449763 ], [ 2.364690397999317, 48.85615533980237 ], [ 2.364700966794441, 48.856182330558191 ], [ 2.364703274922894, 48.85618193720542 ], [ 2.364704980002435, 48.856186291019434 ], [ 2.364702670510949, 48.856186684365049 ], [ 2.364713239318688, 48.856213675119051 ], [ 2.364715548811291, 48.856213281773265 ], [ 2.364717252540995, 48.856217634680434 ], [ 2.364714944400101, 48.856218028932815 ], [ 2.364725511857801, 48.856245019677701 ], [ 2.3647278213516, 48.856244626331709 ], [ 2.364729526446208, 48.856248979245834 ], [ 2.364727216941164, 48.856249373491181 ], [ 2.364737785774434, 48.856276364241502 ], [ 2.36474009526963, 48.856275970895261 ], [ 2.364741799003435, 48.856280323801862 ], [ 2.364739490859949, 48.85628071805467 ], [ 2.364751825554007, 48.856312221224215 ], [ 2.36475413506165, 48.856311826978406 ], [ 2.364755838622374, 48.856316194273333 ], [ 2.36477945337459, 48.856396958071372 ], [ 2.364792768195924, 48.856438959154168 ], [ 2.364802547933017, 48.856437444400235 ], [ 2.364803283235303, 48.856439512311958 ] ] ] } },
{ "type": "Feature", "properties": { "id": "13911", "cvoie": null, "cdgi": null, "typo": "RUE DE TURENNE", "typo_min": "rue de Turenne", "date_arret": "1865-10-02", "siecle": "19", "statut": "Voie publique de la Ville de Paris", "typvoie": "rue", "prevoie": "de", "nomvoie": "Turenne", "arrdt": [ "03e", "04e" ], "quartier": [ "Archives", "Arsenal", "Enfants-Rouges", "Saint-Gervais" ], "feuille": [ "92A4", "72D3" ], "debut": "rue Saint-Antoine, 72.", "fin": "rue Charlot, 70.", "longueur": 1130, "largeur": 13.0, "n_pair": "134", "n_impair": "133", "alignement": "Non retenus au PSMV du Marais : Arrêté du Président de la République du 17 janvier 1849, depuis le n° 18 exclu jusqu'à un point situé à 5 m environ avant la rue des Francs Bourgeois. Décret du 15 novembre 1912, côté pair, sur une longueur de 5 m environ avant la rue des Francs Bourgeois. Ordonnance des 10 mars 1836 et 8 juin 1834, partie B.", "servitude": null, "historique": "Précédemment rue du Val Sainte-Catherine dans la partie A et rue Saint-Louis dans la partie B. La partie A s'est appelée successivement : ruelle des Egouts (1590), rue des Egouts (1606), rue de l'Egout Couvert, rue de l'Egout Sainte-Catherine, rue du Val Sainte-Catherine (déc. min. du 17 août 1839). La partie comprise entre les rues des Francs Bourgeois et des Filles du Calvaire s'est appelée successivement : rue de l'Egout, rue de l'Egout Couvert, rue Neuve Saint-Louis, grande rue Saint-Louis, rue Saint-Louis au Marais, rue de Turenne (14 vendémiaire an IX), rue Saint-Louis (arr. du 26 avril 1814). La section comprise entre les rues des Filles du Calvaire et Charlot s'est appelée successivement : rue Boucherat et rue Saint-Louis (en partie, arr. du 11 mars 1851).", "denomination": "Décret du 2 octobre 1865.", "classement": null, "observation": "Largeur : 13 m entre les rues Saint-Antoine et des Francs Bourgeois (A) ; 15 m (moindre), le surplus (B).\r\nVoie ornée de la fontaine Saint-Louis au droit du n° 41 et de la fontaine Boucherat au droit du n° 133.", "numerotage": null, "orig": "Henri de La Tour d'Auvergne, vicomte de Turenne (1611-1675), maréchal-général, avait son hôtel dans cette rue.", "declassement": "Arrêté municipal du 2 mai 1986, au droit du n° 23.", "nivellement": "Décret du 15 novembre 1912, entre les rues de Jarente et des Francs Bourgeois. Décret du 26 mai 1856, partie B.", "assainissement": null, "ouverture": "Arrêt du Conseil du Roi des 23 novembre 1694, 22 décembre 1696 et 12 juillet 1698, entre les rues des Filles du Calvaire et Charlot. Arrêt du Conseil du Roi du 21 février 1701, ancienne partie de la rue de Normandie comprise entre les rues de Bretagne et Debelleyme (M). La partie M a été réunie à la rue de Turenne en 1830.", "validite": "Dénomination actuelle" }, "geometry": { "type": "MultiPolygon", "coordinates": [ [ [ [ 2.364333307930891, 48.856454187922168 ], [ 2.364228728885902, 48.856525482313522 ], [ 2.364298307224312, 48.856625053877778 ], [ 2.36431022780819, 48.856642113121687 ], [ 2.364312812802495, 48.856681475215176 ], [ 2.364316099296063, 48.856731483940962 ], [ 2.364325100757232, 48.856868502746451 ], [ 2.364334557558561, 48.857117565834237 ], [ 2.364340187457317, 48.857265847221043 ], [ 2.364340513014584, 48.857273459245917 ], [ 2.364341605743331, 48.857299071329159 ], [ 2.364347131849967, 48.857428492783704 ], [ 2.3643545323421, 48.857601795335015 ], [ 2.364359162747083, 48.857710238274308 ], [ 2.364367775305617, 48.857710236357157 ], [ 2.364368359496324, 48.857775188654706 ], [ 2.364370122792969, 48.857971513318745 ], [ 2.364371163466022, 48.858087196697262 ], [ 2.364379071659985, 48.858216886125547 ], [ 2.36438344066439, 48.858332352427013 ], [ 2.364393543951844, 48.858599300357355 ], [ 2.364398976087918, 48.858742814844653 ], [ 2.364403601130006, 48.858865008675345 ], [ 2.364404781330486, 48.858896192647535 ], [ 2.364407866089142, 48.858896055243164 ], [ 2.364409078239676, 48.858919816164438 ], [ 2.364410859163064, 48.858954716734011 ], [ 2.364415641509629, 48.859048489279985 ], [ 2.364420461545677, 48.859142972502809 ], [ 2.364425206726231, 48.859235995678141 ], [ 2.364434927245695, 48.859426530972122 ], [ 2.364433593753752, 48.859501989055929 ], [ 2.364435611936169, 48.859571186589683 ], [ 2.364440319325377, 48.8597325653353 ], [ 2.364444093628643, 48.859861943019894 ], [ 2.364446958538333, 48.859960169663871 ], [ 2.364448986904508, 48.8600332281205 ], [ 2.364451437946014, 48.860119125199333 ], [ 2.364453242691587, 48.860182358889091 ], [ 2.36445732996422, 48.860325640288792 ], [ 2.364457583026854, 48.860384674769122 ], [ 2.364467385009353, 48.860659290224135 ], [ 2.364469385390136, 48.860715316657767 ], [ 2.364472282629314, 48.860796486388722 ], [ 2.364474933755478, 48.860796485178803 ], [ 2.364475962409972, 48.860843451823527 ], [ 2.364478782544618, 48.860843451511037 ], [ 2.36447879826331, 48.86087032137231 ], [ 2.3644756087341, 48.860870322421157 ], [ 2.364476494509454, 48.86091447604732 ], [ 2.36447764959427, 48.861027061475518 ], [ 2.364482073670436, 48.861186545377691 ], [ 2.3644829683022, 48.861218799787558 ], [ 2.364484582132428, 48.86127701854457 ], [ 2.36449049966587, 48.861382795094777 ], [ 2.364501872038906, 48.8615990978507 ], [ 2.364503069677903, 48.861683616647966 ], [ 2.364507073923749, 48.861779417346987 ], [ 2.36451094879458, 48.86210339393508 ], [ 2.364499149647342, 48.86213851277833 ], [ 2.364469036424664, 48.862228141723541 ], [ 2.364460187707496, 48.862254480628927 ], [ 2.3644360687766, 48.862326265101579 ], [ 2.364427221422026, 48.862352601311564 ], [ 2.364403044400125, 48.862424559036818 ], [ 2.364367708717124, 48.862529729663457 ], [ 2.364549240585972, 48.86277197989132 ], [ 2.364552582774112, 48.862859044339082 ], [ 2.364555636537334, 48.862938577033724 ], [ 2.364556556082578, 48.862962536866256 ], [ 2.364558009394587, 48.863000400705573 ], [ 2.364562283635772, 48.86311174339869 ], [ 2.364567459201251, 48.863246530485419 ], [ 2.36457482140308, 48.863438298142555 ], [ 2.364535917916458, 48.863447603947044 ], [ 2.364688585450332, 48.863638905511024 ], [ 2.364782120724023, 48.863657257584983 ], [ 2.364780103085812, 48.863605963565888 ], [ 2.364776638977112, 48.86351790746081 ], [ 2.364772729505602, 48.863418530734506 ], [ 2.36476816563603, 48.863302507255185 ], [ 2.364765880617651, 48.863244413654122 ], [ 2.364764891234624, 48.863219242041914 ], [ 2.364762250110967, 48.863152121622242 ], [ 2.364761259368513, 48.863126950000691 ], [ 2.364759034713007, 48.863070390992767 ], [ 2.364761649416851, 48.86307036799829 ], [ 2.364758660599385, 48.862973632996884 ], [ 2.364756182486371, 48.862973633333304 ], [ 2.364752362444215, 48.862879337431231 ], [ 2.364749323760479, 48.862788147509299 ], [ 2.364746215040647, 48.862694877022818 ], [ 2.364743129719987, 48.862602259577123 ], [ 2.364738572555924, 48.862512078731086 ], [ 2.364734177906194, 48.862425115698166 ], [ 2.364729089209866, 48.862324424064425 ], [ 2.364723056588499, 48.862176170022231 ], [ 2.364716777617392, 48.86197311572397 ], [ 2.364713718866617, 48.861934776569186 ], [ 2.364709783782984, 48.861801638121051 ], [ 2.364705313058645, 48.86159058737438 ], [ 2.364697628086656, 48.86145343857914 ], [ 2.364696036287453, 48.861422567269123 ], [ 2.36469252486593, 48.861354510395451 ], [ 2.364693928253377, 48.861266922425742 ], [ 2.36468880458315, 48.861116243929999 ], [ 2.364684832570359, 48.860999445411728 ], [ 2.364681632071882, 48.860905336093658 ], [ 2.364677703323157, 48.860789798666403 ], [ 2.364676863797655, 48.86076139913839 ], [ 2.364673325481944, 48.860641678208928 ], [ 2.36467069070018, 48.860552597413331 ], [ 2.364669497219582, 48.860512203209893 ], [ 2.36466870022487, 48.860485234761327 ], [ 2.364667542207009, 48.860446068352218 ], [ 2.36466538147761, 48.860372995735332 ], [ 2.364663073330333, 48.860294911169277 ], [ 2.364659736278546, 48.860182051477018 ], [ 2.364647167195541, 48.860091794616608 ], [ 2.364636805415741, 48.859857872437054 ], [ 2.364642336544203, 48.859857871225522 ], [ 2.364639983099734, 48.859804629955399 ], [ 2.364637400922327, 48.859746227012451 ], [ 2.364635266441407, 48.859746227371318 ], [ 2.364633113484409, 48.859715442068492 ], [ 2.36463569367263, 48.859715441378015 ], [ 2.364635614248201, 48.859712565742413 ], [ 2.364634457758876, 48.859670259691363 ], [ 2.364632000246743, 48.859670260133754 ], [ 2.364631475784571, 48.859664535700198 ], [ 2.364631308645285, 48.859662705539918 ], [ 2.364633736172691, 48.859662704938344 ], [ 2.364633725593554, 48.859641442507524 ], [ 2.364630274447752, 48.859641443070466 ], [ 2.364630272421769, 48.859637250301375 ], [ 2.364630271390255, 48.859634876018362 ], [ 2.364633069652791, 48.859634875586451 ], [ 2.364632980417801, 48.859631351468956 ], [ 2.364631076289905, 48.859556020998461 ], [ 2.364629728558012, 48.859502685225628 ], [ 2.36462679263698, 48.859502685825852 ], [ 2.364625615550929, 48.859464863804916 ], [ 2.364628907212816, 48.859464863294811 ], [ 2.364626733118591, 48.859407423902987 ], [ 2.364619267688053, 48.859210180670949 ], [ 2.364617222292789, 48.859156160370588 ], [ 2.364619292692785, 48.859156159671926 ], [ 2.3646183229122, 48.859109275110754 ], [ 2.364613983131616, 48.859109275451495 ], [ 2.364611556019294, 48.859048556573839 ], [ 2.364615518259094, 48.859048555128012 ], [ 2.364612404728842, 48.858945099178065 ], [ 2.364612233786294, 48.858939445867492 ], [ 2.364608271565657, 48.858939446413942 ], [ 2.364607743600232, 48.858910763398619 ], [ 2.36461147956597, 48.858910762550202 ], [ 2.364609455495077, 48.858838342583418 ], [ 2.364606131477657, 48.85877003022788 ], [ 2.364601291722387, 48.85866451007481 ], [ 2.364598212733632, 48.858664510813803 ], [ 2.364598552733188, 48.858659989796273 ], [ 2.364601972467371, 48.858659989067839 ], [ 2.364600725839566, 48.858623625391566 ], [ 2.364597063490731, 48.858623626630404 ], [ 2.364597059582452, 48.85861590030769 ], [ 2.36460072056793, 48.858615899061576 ], [ 2.364599222808178, 48.858587051703793 ], [ 2.364595752640725, 48.85858705306368 ], [ 2.364595748272118, 48.858579364510888 ], [ 2.36459921842799, 48.8585793640503 ], [ 2.364599211152469, 48.858566102219818 ], [ 2.364595220328634, 48.858566103513191 ], [ 2.364593832647749, 48.858530130301325 ], [ 2.36459770897505, 48.858530129299446 ], [ 2.364595159589687, 48.858454852885281 ], [ 2.364591852999771, 48.858454853314868 ], [ 2.364591345862852, 48.85841731091493 ], [ 2.364595137671679, 48.858417310363734 ], [ 2.364592921877257, 48.85836262629936 ], [ 2.364591150426556, 48.858311070727446 ], [ 2.364587406554068, 48.858202087560727 ], [ 2.364587043854636, 48.858119286192206 ], [ 2.364579568402092, 48.857938761570544 ], [ 2.364575147257683, 48.857832007853922 ], [ 2.364572686585972, 48.857772596380428 ], [ 2.36456967308418, 48.857699842821816 ], [ 2.364566662966582, 48.857627147733979 ], [ 2.364565211871939, 48.857592131061935 ], [ 2.364560979396083, 48.857489916429586 ], [ 2.364557717907118, 48.857401290716822 ], [ 2.364549411706335, 48.857230452055049 ], [ 2.364544854686275, 48.857136748908339 ], [ 2.364536697126088, 48.857041789127877 ], [ 2.364530268028226, 48.856919655671263 ], [ 2.364522107071035, 48.856764635469915 ], [ 2.364513794540767, 48.856606737420485 ], [ 2.364505160126294, 48.856442716661114 ], [ 2.364333307930891, 48.856454187922168 ] ] ], [ [ [ 2.364186728538335, 48.856463972040508 ], [ 2.364333307930891, 48.856454187922168 ], [ 2.364465119477408, 48.856364327992367 ], [ 2.364440259195492, 48.856348954665684 ], [ 2.364398495361841, 48.856323128335553 ], [ 2.36429686850181, 48.85626028239443 ], [ 2.364255103458425, 48.856234455105671 ], [ 2.364204290165177, 48.856203032532598 ], [ 2.364188022148752, 48.856178478367802 ], [ 2.364083035077495, 48.856020025113246 ], [ 2.364002766942376, 48.855898707807178 ], [ 2.36396619602314, 48.855843434493231 ], [ 2.363961379764181, 48.855836155629767 ], [ 2.363908924325999, 48.855756872433155 ], [ 2.363896561886246, 48.855738188356213 ], [ 2.363843566003978, 48.855658088337442 ], [ 2.363753457405354, 48.855539901305541 ], [ 2.363704786834789, 48.85547606198967 ], [ 2.363610929654515, 48.855352955229407 ], [ 2.363487329924078, 48.855189061078555 ], [ 2.363364528959397, 48.855026225061366 ], [ 2.363249803838068, 48.85487409637615 ], [ 2.36308134639356, 48.85465072720632 ], [ 2.363098043200005, 48.854617151545227 ], [ 2.362894527686849, 48.854690134228846 ], [ 2.362908164038349, 48.854691968663694 ], [ 2.362959243785236, 48.854734967017301 ], [ 2.363135547262523, 48.854974604202546 ], [ 2.363137035336319, 48.854976627569293 ], [ 2.363138244465788, 48.854978279817864 ], [ 2.3631456506905, 48.854988402764796 ], [ 2.363203826825735, 48.855067920958362 ], [ 2.363255605669503, 48.855133168343485 ], [ 2.36330970540176, 48.855205797335202 ], [ 2.363361795258753, 48.855275729241455 ], [ 2.363414417621602, 48.855346373540847 ], [ 2.363467864753508, 48.855418127501757 ], [ 2.363519960431346, 48.85548806385129 ], [ 2.363521668624818, 48.85548746677474 ], [ 2.363526999120896, 48.855494926465447 ], [ 2.363574761509154, 48.855557673707992 ], [ 2.363579371239807, 48.855564336334787 ], [ 2.363577599653672, 48.855565213672449 ], [ 2.363674394828961, 48.855690389275395 ], [ 2.363747267461678, 48.855800262840589 ], [ 2.363748931944903, 48.855799897561006 ], [ 2.36375246448457, 48.855805264782866 ], [ 2.363754406050095, 48.85580821418462 ], [ 2.363768624549312, 48.855829815744798 ], [ 2.363771758329516, 48.855834578280799 ], [ 2.363773995601246, 48.855837978030415 ], [ 2.363772054523888, 48.855838783420879 ], [ 2.363844666585911, 48.855948376725735 ], [ 2.363846722774662, 48.855947966761043 ], [ 2.363859768957974, 48.855945367744795 ], [ 2.363912299040922, 48.856031496302698 ], [ 2.363921619990428, 48.856046904958774 ], [ 2.363935564704794, 48.856069955690778 ], [ 2.363959209805556, 48.856109043037648 ], [ 2.36400071142573, 48.856177645737837 ], [ 2.364049085349286, 48.856257609562249 ], [ 2.364114203963786, 48.856355691618667 ], [ 2.364186728538335, 48.856463972040508 ] ] ], [ [ [ 2.364688585450332, 48.863638905511024 ], [ 2.364583000525764, 48.86361818976458 ], [ 2.364583934661013, 48.863643861111775 ], [ 2.364584474829613, 48.863658694167263 ], [ 2.364585014987553, 48.863673528121872 ], [ 2.364585937849784, 48.863698894530131 ], [ 2.364589938047213, 48.863808798544483 ], [ 2.364593655293648, 48.863910945102027 ], [ 2.364594701608613, 48.863939713479539 ], [ 2.364599777380301, 48.864058443945588 ], [ 2.364604227403932, 48.864162541449517 ], [ 2.364605328313984, 48.864188287415409 ], [ 2.364608387992142, 48.864259859951829 ], [ 2.364618258795589, 48.864490733416673 ], [ 2.364619708527649, 48.864524650863864 ], [ 2.364620849776055, 48.864551337748658 ], [ 2.364833061409743, 48.864759309578226 ], [ 2.364832521470453, 48.864746016216117 ], [ 2.364827241443338, 48.86461615088033 ], [ 2.364821225411595, 48.864468168842478 ], [ 2.364817576320791, 48.864378392280933 ], [ 2.36481151552585, 48.864239675912216 ], [ 2.364807069285711, 48.864137916739644 ], [ 2.364804865432627, 48.864087469836477 ], [ 2.364803471746173, 48.864055542924362 ], [ 2.364801112219427, 48.864001541882956 ], [ 2.364794561339016, 48.863851600848676 ], [ 2.364846972273779, 48.863837371691368 ], [ 2.364688585450332, 48.863638905511024 ] ] ] ] } }
]
}
