{
"type": "FeatureCollection",
"name": "plan_delagrive_1728_voies",
"crs": { "type": "name", "properties": { "name": "urn:ogc:def:crs:EPSG::2154" } },
"features": [
{ "type": "Feature", "properties": { "gid": 2052, "streetname": "R des Tournelles", "note": null }, "geometry": { "type": "MultiLineString", "coordinates": [ [ [ 653569.017595057724975, 6861716.643847434781492 ], [ 653572.325289791915566, 6861729.315367009490728 ], [ 653567.478705489658751, 6861778.750526892021298 ], [ 653569.417339210631326, 6861838.848172240890563 ], [ 653576.202557233744301, 6861954.196878635324538 ] ] ] } },
{ "type": "Feature", "properties": { "gid": 2053, "streetname": "R des Tournelles", "note": null }, "geometry": { "type": "MultiLineString", "coordinates": [ [ [ 653576.202557233744301, 6861954.196878635324538 ], [ 653579.575941170216538, 6862069.977920525707304 ] ] ] } },
{ "type": "Feature", "properties": { "gid": 2058, "streetname": "R du Pas de la mule", "note": null }, "geometry": { "type": "MultiLineString", "coordinates": [ [ [ 653576.202557233744301, 6861954.196878635324538 ], [ 653605.612301419489086, 6861944.332747656852007 ], [ 653636.60529212327674, 6861935.727252702228725 ], [ 653659.276093773776665, 6861934.562652143649757 ] ] ] } },
{ "type": "Feature", "properties": { "gid": 2059, "streetname": null, "note": null }, "geometry": { "type": "MultiLineString", "coordinates": [ [ [ 653576.202557233744301, 6861954.196878635324538 ], [ 653528.871711737592705, 6861966.087015786208212 ] ] ] } },
{ "type": "Feature", "properties": { "gid": 2063, "streetname": "R du Parc roial", "note": null }, "geometry": { "type": "MultiLineString", "coordinates": [ [ [ 653467.900114692281932, 6861986.732340161688626 ], [ 653472.536568464827724, 6862011.521238196641207 ], [ 653486.195086194900796, 6862054.672692119143903 ] ] ] } },
{ "type": "Feature", "properties": { "gid": 2064, "streetname": "R du Parc roial", "note": null }, "geometry": { "type": "MultiLineString", "coordinates": [ [ [ 653486.195086194900796, 6862054.672692119143903 ], [ 653496.370832337765023, 6862093.91902294754982 ] ] ] } },
{ "type": "Feature", "properties": { "gid": 2065, "streetname": "R du Foin", "note": null }, "geometry": { "type": "MultiLineString", "coordinates": [ [ [ 653370.580416692653671, 6862085.589705925434828 ], [ 653436.504370682872832, 6862067.853485209867358 ], [ 653486.195086194900796, 6862054.672692119143903 ] ] ] } },
{ "type": "Feature", "properties": { "gid": 3000, "streetname": "rue neuve Sainte Catherine", "note": null }, "geometry": { "type": "MultiLineString", "coordinates": [ [ [ 653251.515009122085758, 6862060.46032097376883 ], [ 653352.948669173871167, 6862014.687011720612645 ] ] ] } },
{ "type": "Feature", "properties": { "gid": 3067, "streetname": "rue de l'Egout Sainte Catherine", "note": null }, "geometry": { "type": "MultiLineString", "coordinates": [ [ [ 653246.429873603046872, 6861800.411168936640024 ], [ 653254.44450113363564, 6861819.070184330455959 ], [ 653308.640102881006896, 6861927.461387827061117 ], [ 653352.948669173871167, 6862014.687011720612645 ] ] ] } },
{ "type": "Feature", "properties": { "gid": 3083, "streetname": "rue de l'Echarpe", "note": null }, "geometry": { "type": "MultiLineString", "coordinates": [ [ [ 653352.948669173871167, 6862014.687011720612645 ], [ 653365.655593243660405, 6862011.144645718857646 ] ] ] } },
{ "type": "Feature", "properties": { "gid": 3084, "streetname": "rue de l'Echarpe", "note": null }, "geometry": { "type": "MultiLineString", "coordinates": [ [ [ 653365.655593243660405, 6862011.144645718857646 ], [ 653401.947467150865123, 6862001.02741832844913 ] ] ] } },
{ "type": "Feature", "properties": { "gid": 3087, "streetname": "rue Saint Louis", "note": null }, "geometry": { "type": "MultiLineString", "coordinates": [ [ [ 653365.655593243660405, 6862011.144645718857646 ], [ 653369.280586998327635, 6862037.317337316460907 ], [ 653370.580416692653671, 6862085.589705925434828 ] ] ] } },
{ "type": "Feature", "properties": { "gid": 3088, "streetname": "rue Saint Louis", "note": null }, "geometry": { "type": "MultiLineString", "coordinates": [ [ [ 653370.580416692653671, 6862085.589705925434828 ], [ 653370.9127531707054, 6862126.88123810198158 ] ] ] } },
{ "type": "Feature", "properties": { "gid": 3104, "streetname": "Place Roiale", "note": null }, "geometry": { "type": "MultiLineString", "coordinates": [ [ [ 653517.358879751292989, 6861970.489501147530973 ], [ 653487.394108662498184, 6861845.996800356544554 ], [ 653427.928880963823758, 6861859.725733991712332 ], [ 653365.426017279271036, 6861873.993790047243237 ], [ 653387.219117329688743, 6861947.560540959239006 ], [ 653401.947467150865123, 6862001.02741832844913 ] ] ] } },
{ "type": "Feature", "properties": { "gid": 3105, "streetname": "Place Roiale", "note": null }, "geometry": { "type": "MultiLineString", "coordinates": [ [ [ 653467.900114692281932, 6861986.732340161688626 ], [ 653517.358879751292989, 6861970.489501147530973 ] ] ] } },
{ "type": "Feature", "properties": { "gid": 3106, "streetname": "Place Roiale", "note": null }, "geometry": { "type": "MultiLineString", "coordinates": [ [ [ 653401.947467150865123, 6862001.02741832844913 ], [ 653467.900114692281932, 6861986.732340161688626 ] ] ] } }
]
}
