{
"type": "FeatureCollection",
"name": "z",
"crs": { "type": "name", "properties": { "name": "urn:ogc:def:crs:OGC:1.3:CRS84" } },
"features": [
{ "type": "Feature", "properties": { "name": null }, "geometry": { "type": "Polygon", "coordinates": [ [ [ 2.36416855508582, 48.857324162664106 ], [ 2.367674979018668, 48.856751744929682 ], [ 2.367694752085958, 48.854093385881541 ], [ 2.363674228403559, 48.854891342086802 ], [ 2.362758076285766, 48.855129859135566 ], [ 2.36416855508582, 48.857324162664106 ] ] ] } }
]
}
