{
"type": "FeatureCollection",
"name": "atlas_jacoubet_1836_voies",
"crs": { "type": "name", "properties": { "name": "urn:ogc:def:crs:OGC:1.3:CRS84" } },
"features": [
{ "type": "Feature", "properties": { "gid": 1, "nom_entier": "Rue du Faubourg du Roule" }, "geometry": { "type": "MultiLineString", "coordinates": [ [ [ 2.297995884358128, 48.87776620689278 ], [ 2.298710053202309, 48.877584140403449 ] ] ] } },
{ "type": "Feature", "properties": { "gid": 142, "nom_entier": "Avenue de Neuilly" }, "geometry": { "type": "MultiLineString", "coordinates": [ [ [ 2.295086332384016, 48.873760309902259 ], [ 2.297019030430725, 48.873131973248334 ] ] ] } },
{ "type": "Feature", "properties": { "gid": 222, "nom_entier": "Rue du Chemin de Pantin" }, "geometry": { "type": "MultiLineString", "coordinates": [ [ [ 2.369693121404569, 48.882705480510531 ], [ 2.370117475615959, 48.882822860808282 ] ] ] } },
{ "type": "Feature", "properties": { "gid": 283, "nom_entier": "Rue du Faubourg du Temple" }, "geometry": { "type": "MultiLineString", "coordinates": [ [ [ 2.376695796611673, 48.871981699184197 ], [ 2.377058197444601, 48.872097451358101 ] ] ] } },
{ "type": "Feature", "properties": { "gid": 366, "nom_entier": "Rue de Ménilmontant" }, "geometry": { "type": "MultiLineString", "coordinates": [ [ [ 2.382606497516179, 48.866992606786809 ], [ 2.38320729812737, 48.867148618576827 ] ] ] } },
{ "type": "Feature", "properties": { "gid": 467, "nom_entier": "Rue de l'Hôpital Saint-Louis" }, "geometry": { "type": "MultiLineString", "coordinates": [ [ [ 2.370094607433037, 48.877864906444515 ], [ 2.370263070600592, 48.878008498173912 ] ] ] } },
{ "type": "Feature", "properties": { "gid": 490, "nom_entier": "Rue de l'Orillon" }, "geometry": { "type": "MultiLineString", "coordinates": [ [ [ 2.37805192224816, 48.87075896074554 ], [ 2.378333207611874, 48.870844178296217 ] ] ] } },
{ "type": "Feature", "properties": { "gid": 496, "nom_entier": "Rue des Trois Couronnes" }, "geometry": { "type": "MultiLineString", "coordinates": [ [ [ 2.380307696795317, 48.868929056428421 ], [ 2.380664682242622, 48.869144984995287 ] ] ] } },
{ "type": "Feature", "properties": { "gid": 522, "nom_entier": "Rue des Amandiers" }, "geometry": { "type": "MultiLineString", "coordinates": [ [ [ 2.387133364345092, 48.862971559749198 ], [ 2.387206781512477, 48.863203283168325 ] ] ] } },
{ "type": "Feature", "properties": { "gid": 540, "nom_entier": "Chemin de Ronde" }, "geometry": { "type": "MultiLineString", "coordinates": [ [ [ 2.389334936590531, 48.858407898191366 ], [ 2.389440917627408, 48.858294386356448 ], [ 2.389671433572804, 48.85831600774965 ], [ 2.391313618597748, 48.857822762143023 ], [ 2.392026795128723, 48.8575979093619 ], [ 2.393518602518999, 48.856812596145261 ], [ 2.394103629977522, 48.856520198263148 ], [ 2.394162088270436, 48.856436746751584 ] ] ] } },
{ "type": "Feature", "properties": { "gid": 556, "nom_entier": "Rue de Charonne" }, "geometry": { "type": "MultiLineString", "coordinates": [ [ [ 2.394162088270436, 48.856436746751584 ], [ 2.394531700291508, 48.856539297587062 ] ] ] } },
{ "type": "Feature", "properties": { "gid": 567, "nom_entier": "Rue de Montreuil" }, "geometry": { "type": "MultiLineString", "coordinates": [ [ [ 2.39824993443213, 48.85133452159549 ], [ 2.398553342975182, 48.851385486229404 ] ] ] } },
{ "type": "Feature", "properties": { "gid": 673, "nom_entier": null }, "geometry": { "type": "MultiLineString", "coordinates": [ [ [ 2.398317216705904, 48.84817772505054 ], [ 2.399231477337306, 48.84809468101286 ] ] ] } },
{ "type": "Feature", "properties": { "gid": 675, "nom_entier": "Avenue des Triomphes" }, "geometry": { "type": "MultiLineString", "coordinates": [ [ [ 2.398587131455317, 48.850376414788478 ], [ 2.398799228096177, 48.850547655912948 ] ] ] } },
{ "type": "Feature", "properties": { "gid": 2234, "nom_entier": "Boulevard Extérieur" }, "geometry": { "type": "MultiLineString", "coordinates": [ [ [ 2.389628856564937, 48.858486685332551 ], [ 2.392040384462129, 48.85779627164974 ], [ 2.393755376654604, 48.85691341764015 ], [ 2.394531700291508, 48.856539297587062 ] ] ] } },
{ "type": "Feature", "properties": { "gid": 2235, "nom_entier": "Boulevard Extérieur" }, "geometry": { "type": "MultiLineString", "coordinates": [ [ [ 2.394531700291508, 48.856539297587062 ], [ 2.39470005148209, 48.85639326549439 ], [ 2.394745688489988, 48.856087978851974 ], [ 2.395792013020166, 48.85478509553338 ], [ 2.396714821344922, 48.853603786378848 ], [ 2.397837313152015, 48.852256827722869 ], [ 2.398553342975182, 48.851385486229404 ] ] ] } },
{ "type": "Feature", "properties": { "gid": 2238, "nom_entier": "Boulevard Extérieur" }, "geometry": { "type": "MultiLineString", "coordinates": [ [ [ 2.398553342975182, 48.851385486229404 ], [ 2.398799228096177, 48.850547655912948 ] ] ] } },
{ "type": "Feature", "properties": { "gid": 2239, "nom_entier": "Boulevard Extérieur" }, "geometry": { "type": "MultiLineString", "coordinates": [ [ [ 2.398799228096177, 48.850547655912948 ], [ 2.399315867931295, 48.848859112467331 ], [ 2.399231477337306, 48.84809468101286 ] ] ] } },
{ "type": "Feature", "properties": { "gid": 2240, "nom_entier": "Boulevard Extérieur" }, "geometry": { "type": "MultiLineString", "coordinates": [ [ [ 2.399231477337306, 48.84809468101286 ], [ 2.399160526713593, 48.8473668413802 ], [ 2.400853702376161, 48.846144920634003 ], [ 2.402334110451508, 48.845121889183567 ], [ 2.402340232879116, 48.84496908533017 ] ] ] } },
{ "type": "Feature", "properties": { "gid": 2242, "nom_entier": null }, "geometry": { "type": "MultiLineString", "coordinates": [ [ [ 2.389334936590531, 48.858407898191366 ], [ 2.389628856564937, 48.858486685332551 ] ] ] } },
{ "type": "Feature", "properties": { "gid": 2243, "nom_entier": "Boulevard Extérieur" }, "geometry": { "type": "MultiLineString", "coordinates": [ [ [ 2.387206781512477, 48.863203283168325 ], [ 2.38744692542226, 48.862913857056597 ], [ 2.387999554942708, 48.861739058997131 ], [ 2.388924497361839, 48.859969470764391 ] ] ] } },
{ "type": "Feature", "properties": { "gid": 2244, "nom_entier": "Boulevard Extérieur" }, "geometry": { "type": "MultiLineString", "coordinates": [ [ [ 2.388924497361839, 48.859969470764391 ], [ 2.389628856564937, 48.858486685332551 ] ] ] } },
{ "type": "Feature", "properties": { "gid": 2245, "nom_entier": "Boulevard Extérieur" }, "geometry": { "type": "MultiLineString", "coordinates": [ [ [ 2.377058197444601, 48.872097451358101 ], [ 2.377407532411421, 48.871677546046534 ], [ 2.377472707885937, 48.871508463756733 ], [ 2.378333207611874, 48.870844178296217 ] ] ] } },
{ "type": "Feature", "properties": { "gid": 2246, "nom_entier": "Boulevard Extérieur" }, "geometry": { "type": "MultiLineString", "coordinates": [ [ [ 2.378333207611874, 48.870844178296217 ], [ 2.379794172577754, 48.869606886266304 ], [ 2.380429321932102, 48.869301884012785 ], [ 2.380664682242622, 48.869144984995287 ] ] ] } },
{ "type": "Feature", "properties": { "gid": 2247, "nom_entier": "Boulevard Extérieur" }, "geometry": { "type": "MultiLineString", "coordinates": [ [ [ 2.380664682242622, 48.869144984995287 ], [ 2.380838453172168, 48.868884613227721 ], [ 2.382151609544475, 48.867852649585849 ], [ 2.382478689926046, 48.867607148409135 ], [ 2.383007405399908, 48.867398792191302 ], [ 2.38320729812737, 48.867148618576827 ] ] ] } },
{ "type": "Feature", "properties": { "gid": 2250, "nom_entier": "Boulevard Extérieur" }, "geometry": { "type": "MultiLineString", "coordinates": [ [ [ 2.38320729812737, 48.867148618576827 ], [ 2.383511214677775, 48.86644873733713 ], [ 2.385548920945427, 48.864653898950259 ], [ 2.387206781512477, 48.863203283168325 ] ] ] } },
{ "type": "Feature", "properties": { "gid": 2251, "nom_entier": "Boulevard Extérieur" }, "geometry": { "type": "MultiLineString", "coordinates": [ [ [ 2.375100368295558, 48.873776344616147 ], [ 2.376551838582306, 48.87246465036197 ], [ 2.376864749242888, 48.872352406484396 ], [ 2.377058197444601, 48.872097451358101 ] ] ] } },
{ "type": "Feature", "properties": { "gid": 2252, "nom_entier": null }, "geometry": { "type": "MultiLineString", "coordinates": [ [ [ 2.374487529027508, 48.874114436144289 ], [ 2.37476001164204, 48.87409994471134 ] ] ] } },
{ "type": "Feature", "properties": { "gid": 2253, "nom_entier": null }, "geometry": { "type": "MultiLineString", "coordinates": [ [ [ 2.374965289331037, 48.873680007352675 ], [ 2.375100368295558, 48.873776344616147 ] ] ] } },
{ "type": "Feature", "properties": { "gid": 2254, "nom_entier": "Boulevard Extérieur" }, "geometry": { "type": "MultiLineString", "coordinates": [ [ [ 2.370263070600592, 48.878008498173912 ], [ 2.371338306407575, 48.877089513573132 ], [ 2.373253244654768, 48.875419235180992 ], [ 2.374661676013679, 48.874193439540392 ], [ 2.37476001164204, 48.87409994471134 ] ] ] } },
{ "type": "Feature", "properties": { "gid": 2255, "nom_entier": "Boulevard Extérieur" }, "geometry": { "type": "MultiLineString", "coordinates": [ [ [ 2.37476001164204, 48.87409994471134 ], [ 2.375100368295558, 48.873776344616147 ] ] ] } },
{ "type": "Feature", "properties": { "gid": 2256, "nom_entier": "Boulevard Extérieur" }, "geometry": { "type": "MultiLineString", "coordinates": [ [ [ 2.368609990583529, 48.884015822401963 ], [ 2.369148119106624, 48.883743699061725 ], [ 2.369564438796589, 48.88379310723753 ], [ 2.370063344011307, 48.883281919802258 ], [ 2.369922724258811, 48.883070099668679 ], [ 2.370117475615959, 48.882822860808282 ] ] ] } },
{ "type": "Feature", "properties": { "gid": 2257, "nom_entier": null }, "geometry": { "type": "MultiLineString", "coordinates": [ [ [ 2.368430640637497, 48.88382036340348 ], [ 2.368609990583529, 48.884015822401963 ] ] ] } },
{ "type": "Feature", "properties": { "gid": 2258, "nom_entier": "Boulevard Extérieur" }, "geometry": { "type": "MultiLineString", "coordinates": [ [ [ 2.364621261425997, 48.884411326688635 ], [ 2.365527889650454, 48.884313371492134 ], [ 2.368393976130531, 48.884117445283955 ], [ 2.368609990583529, 48.884015822401963 ] ] ] } },
{ "type": "Feature", "properties": { "gid": 2261, "nom_entier": null }, "geometry": { "type": "MultiLineString", "coordinates": [ [ [ 2.364528781934509, 48.884246246955641 ], [ 2.364621261425997, 48.884411326688635 ] ] ] } },
{ "type": "Feature", "properties": { "gid": 2262, "nom_entier": "Boulevard Extérieur" }, "geometry": { "type": "MultiLineString", "coordinates": [ [ [ 2.359419707791955, 48.884797438171574 ], [ 2.360489527982446, 48.884786492531745 ], [ 2.360826397990838, 48.884446674895706 ], [ 2.364621261425997, 48.884411326688635 ] ] ] } },
{ "type": "Feature", "properties": { "gid": 2263, "nom_entier": null }, "geometry": { "type": "MultiLineString", "coordinates": [ [ [ 2.359383541264683, 48.884298514326893 ], [ 2.359419707791955, 48.884797438171574 ] ] ] } },
{ "type": "Feature", "properties": { "gid": 2264, "nom_entier": "Boulevard Extérieur" }, "geometry": { "type": "MultiLineString", "coordinates": [ [ [ 2.34959496299477, 48.88375294800062 ], [ 2.350705523465802, 48.88385062880208 ], [ 2.352729369158758, 48.883994901171626 ], [ 2.35543044863916, 48.884203889323672 ], [ 2.358236860822723, 48.884410603657493 ], [ 2.358590115559791, 48.884792996381208 ], [ 2.359419707791955, 48.884797438171574 ] ] ] } },
{ "type": "Feature", "properties": { "gid": 2265, "nom_entier": null }, "geometry": { "type": "MultiLineString", "coordinates": [ [ [ 2.349616375008341, 48.883549363994106 ], [ 2.34959496299477, 48.88375294800062 ] ] ] } },
{ "type": "Feature", "properties": { "gid": 2266, "nom_entier": "Boulevard Extérieur" }, "geometry": { "type": "MultiLineString", "coordinates": [ [ [ 2.346870127281123, 48.88342704845126 ], [ 2.348530856954044, 48.883644399313489 ], [ 2.34959496299477, 48.88375294800062 ] ] ] } },
{ "type": "Feature", "properties": { "gid": 2267, "nom_entier": null }, "geometry": { "type": "MultiLineString", "coordinates": [ [ [ 2.346855112073582, 48.88309166619662 ], [ 2.346870127281123, 48.88342704845126 ] ] ] } },
{ "type": "Feature", "properties": { "gid": 2268, "nom_entier": "Boulevard Extérieur" }, "geometry": { "type": "MultiLineString", "coordinates": [ [ [ 2.339658278073735, 48.882101561983781 ], [ 2.340236565109595, 48.882160297397213 ], [ 2.341885405759935, 48.882480439047143 ], [ 2.34444997823271, 48.882986104977086 ], [ 2.346870127281123, 48.88342704845126 ] ] ] } },
{ "type": "Feature", "properties": { "gid": 2269, "nom_entier": null }, "geometry": { "type": "MultiLineString", "coordinates": [ [ [ 2.339660455438128, 48.881945781427632 ], [ 2.339658278073735, 48.882101561983781 ] ] ] } },
{ "type": "Feature", "properties": { "gid": 2271, "nom_entier": "Boulevard Extérieur" }, "geometry": { "type": "MultiLineString", "coordinates": [ [ [ 2.337641747870318, 48.882383436110707 ], [ 2.33862675637705, 48.882250012408534 ], [ 2.339658278073735, 48.882101561983781 ] ] ] } },
{ "type": "Feature", "properties": { "gid": 2273, "nom_entier": null }, "geometry": { "type": "MultiLineString", "coordinates": [ [ [ 2.337410461709756, 48.882169650436509 ], [ 2.337641747870318, 48.882383436110707 ] ] ] } },
{ "type": "Feature", "properties": { "gid": 2274, "nom_entier": "Boulevard Extérieur" }, "geometry": { "type": "MultiLineString", "coordinates": [ [ [ 2.332731429265331, 48.88386776003852 ], [ 2.332985997385733, 48.883719893948992 ], [ 2.334099912090438, 48.883388642833111 ], [ 2.335934666318128, 48.882835025123704 ], [ 2.337202789365199, 48.882461550899336 ], [ 2.337641747870318, 48.882383436110707 ] ] ] } },
{ "type": "Feature", "properties": { "gid": 2275, "nom_entier": null }, "geometry": { "type": "MultiLineString", "coordinates": [ [ [ 2.332591756471694, 48.883656092144633 ], [ 2.332731429265331, 48.88386776003852 ] ] ] } },
{ "type": "Feature", "properties": { "gid": 2276, "nom_entier": "Boulevard Extérieur" }, "geometry": { "type": "MultiLineString", "coordinates": [ [ [ 2.327383411282103, 48.883676746247765 ], [ 2.327878839543118, 48.88379340114998 ], [ 2.32814441972711, 48.883772672712524 ], [ 2.329485103638373, 48.884638398937113 ], [ 2.331648411587344, 48.884086686578875 ], [ 2.33228657457402, 48.883911106283492 ], [ 2.332463134814734, 48.883935698548797 ], [ 2.332731429265331, 48.88386776003852 ] ] ] } },
{ "type": "Feature", "properties": { "gid": 2277, "nom_entier": "Boulevard Extérieur" }, "geometry": { "type": "MultiLineString", "coordinates": [ [ [ 2.316640209371316, 48.881121815212921 ], [ 2.316845440118922, 48.881206307812725 ], [ 2.31907904702303, 48.881718962656954 ], [ 2.32159003707287, 48.882277585646563 ], [ 2.324697232315359, 48.882978388975189 ], [ 2.326671132430782, 48.883395004347626 ], [ 2.326929700286977, 48.883590875006604 ], [ 2.327383411282103, 48.883676746247765 ] ] ] } },
{ "type": "Feature", "properties": { "gid": 2279, "nom_entier": "Boulevard Extérieur" }, "geometry": { "type": "MultiLineString", "coordinates": [ [ [ 2.303322919325845, 48.879050887833387 ], [ 2.304478088728445, 48.879263131907479 ], [ 2.30640957957087, 48.879679838077095 ], [ 2.309303252391588, 48.880260379378576 ], [ 2.314180003292087, 48.880871668382198 ], [ 2.315841030585712, 48.881050593043042 ], [ 2.316014365649164, 48.880998813016816 ], [ 2.316208316653208, 48.880980479196303 ], [ 2.316502341973502, 48.881037706023704 ], [ 2.316640209371316, 48.881121815212921 ] ] ] } },
{ "type": "Feature", "properties": { "gid": 2280, "nom_entier": null }, "geometry": { "type": "MultiLineString", "coordinates": [ [ [ 2.303410026943213, 48.878861360579002 ], [ 2.303322919325845, 48.879050887833387 ] ] ] } },
{ "type": "Feature", "properties": { "gid": 2282, "nom_entier": "Boulevard Extérieur" }, "geometry": { "type": "MultiLineString", "coordinates": [ [ [ 2.295086332384016, 48.873760309902259 ], [ 2.296579597498159, 48.875739669360946 ], [ 2.297995884358128, 48.87776620689278 ] ] ] } },
{ "type": "Feature", "properties": { "gid": 2283, "nom_entier": "Boulevard Extérieur" }, "geometry": { "type": "MultiLineString", "coordinates": [ [ [ 2.297995884358128, 48.87776620689278 ], [ 2.297561239068594, 48.877884038052336 ], [ 2.298033377274296, 48.878470062492738 ], [ 2.298878555954377, 48.87824726825059 ], [ 2.302180455738333, 48.878833150944885 ], [ 2.303322919325845, 48.879050887833387 ] ] ] } },
{ "type": "Feature", "properties": { "gid": 2285, "nom_entier": "Boulevard Extérieur" }, "geometry": { "type": "MultiLineString", "coordinates": [ [ [ 2.288630063416542, 48.865087086353661 ], [ 2.289089223943965, 48.865682798040176 ], [ 2.290453288376894, 48.867532332957239 ], [ 2.291638533215559, 48.869071107138218 ], [ 2.291984038931843, 48.869050931987481 ], [ 2.29245094952077, 48.869081467312007 ], [ 2.292978519857588, 48.869295669455511 ], [ 2.293211217482909, 48.869522015473478 ], [ 2.293934876674147, 48.870490053559209 ], [ 2.294914394587118, 48.871842877953924 ], [ 2.295485161084454, 48.872601697105758 ], [ 2.295086332384016, 48.873760309902259 ] ] ] } },
{ "type": "Feature", "properties": { "gid": 2991, "nom_entier": "Chemin de Ronde" }, "geometry": { "type": "MultiLineString", "coordinates": [ [ [ 2.332591756471694, 48.883656092144633 ], [ 2.33271342102609, 48.8836271778735 ], [ 2.333427357534959, 48.883421255525299 ], [ 2.334947663562356, 48.882971461481375 ], [ 2.336239902657526, 48.882558228396043 ], [ 2.336617914445919, 48.882440352723336 ], [ 2.337034958056436, 48.882289957719628 ], [ 2.337071937344013, 48.882219501780106 ], [ 2.337410461709756, 48.882169650436509 ] ] ] } },
{ "type": "Feature", "properties": { "gid": 3236, "nom_entier": "Chemin de Ronde" }, "geometry": { "type": "MultiLineString", "coordinates": [ [ [ 2.339660455438128, 48.881945781427632 ], [ 2.339746740861045, 48.881975587858889 ], [ 2.340100092026351, 48.881937641662205 ], [ 2.34111497089637, 48.8821408500364 ] ] ] } },
{ "type": "Feature", "properties": { "gid": 3576, "nom_entier": null }, "geometry": { "type": "MultiLineString", "coordinates": [ [ [ 2.327564579774822, 48.883341096919807 ], [ 2.327383411282103, 48.883676746247765 ] ] ] } },
{ "type": "Feature", "properties": { "gid": 3621, "nom_entier": "Boulevard Extérieur" }, "geometry": { "type": "MultiLineString", "coordinates": [ [ [ 2.370117475615959, 48.882822860808282 ], [ 2.370127770477549, 48.881785255043063 ], [ 2.370233864091593, 48.880324913339109 ], [ 2.370259446094065, 48.878905806870456 ], [ 2.370262224017539, 48.878218087147737 ] ] ] } },
{ "type": "Feature", "properties": { "gid": 3622, "nom_entier": "Boulevard Extérieur" }, "geometry": { "type": "MultiLineString", "coordinates": [ [ [ 2.370262224017539, 48.878218087147737 ], [ 2.370263070600592, 48.878008498173912 ] ] ] } },
{ "type": "Feature", "properties": { "gid": 3623, "nom_entier": "Rue de la Butte Chaumont" }, "geometry": { "type": "MultiLineString", "coordinates": [ [ [ 2.369964486465531, 48.878411107869411 ], [ 2.370262224017539, 48.878218087147737 ] ] ] } },
{ "type": "Feature", "properties": { "gid": 3983, "nom_entier": "Rue de la Roquette" }, "geometry": { "type": "MultiLineString", "coordinates": [ [ [ 2.38866190191859, 48.859901867791208 ], [ 2.388924497361839, 48.859969470764391 ] ] ] } }
]
}
