{
"type": "FeatureCollection",
"name": "atlas_verniquet_1791_voies",
"crs": { "type": "name", "properties": { "name": "urn:ogc:def:crs:OGC:1.3:CRS84" } },
"features": [
{ "type": "Feature", "properties": { "gid": 8, "streetname": null, "note": null }, "geometry": { "type": "MultiLineString", "coordinates": [ [ [ 2.297618198927455, 48.877991309809538 ], [ 2.298009796137568, 48.877838110020903 ] ] ] } },
{ "type": "Feature", "properties": { "gid": 47, "streetname": "rue de la Voirie", "note": null }, "geometry": { "type": "MultiLineString", "coordinates": [ [ [ 2.369990575697165, 48.878385515381041 ], [ 2.370340868968371, 48.878188299061094 ] ] ] } },
{ "type": "Feature", "properties": { "gid": 52, "streetname": null, "note": null }, "geometry": { "type": "MultiLineString", "coordinates": [ [ [ 2.370340868968371, 48.878188299061094 ], [ 2.370260704820351, 48.882765442718657 ] ] ] } },
{ "type": "Feature", "properties": { "gid": 234, "streetname": "rue de Chartres", "note": null }, "geometry": { "type": "MultiLineString", "coordinates": [ [ [ 2.303362933800922, 48.879006330952201 ], [ 2.303104728450111, 48.879144239556688 ] ] ] } },
{ "type": "Feature", "properties": { "gid": 250, "streetname": null, "note": null }, "geometry": { "type": "MultiLineString", "coordinates": [ [ [ 2.316494593060044, 48.881326739903749 ], [ 2.308993844019414, 48.880411847676889 ], [ 2.303104728450111, 48.879144239556688 ] ] ] } },
{ "type": "Feature", "properties": { "gid": 693, "streetname": null, "note": null }, "geometry": { "type": "MultiLineString", "coordinates": [ [ [ 2.389429784864051, 48.85839043030272 ], [ 2.389450180211506, 48.858343114315744 ], [ 2.389470749572291, 48.858299634389617 ], [ 2.391919057567903, 48.857607341070903 ], [ 2.394032622213194, 48.856524135702095 ], [ 2.394099824259961, 48.856444602111146 ] ] ] } },
{ "type": "Feature", "properties": { "gid": 727, "streetname": null, "note": null }, "geometry": { "type": "MultiLineString", "coordinates": [ [ [ 2.288618749356216, 48.865011542563487 ], [ 2.291722053468024, 48.869026342057666 ], [ 2.292594183706693, 48.869045864703445 ], [ 2.293131710487707, 48.869381698045963 ], [ 2.295628995841129, 48.872834773317102 ], [ 2.295000815662077, 48.873812561988103 ] ] ] } },
{ "type": "Feature", "properties": { "gid": 793, "streetname": "Rue des Rats", "note": null }, "geometry": { "type": "MultiLineString", "coordinates": [ [ [ 2.389429784864051, 48.85839043030272 ], [ 2.389607398467908, 48.858423735095911 ] ] ] } },
{ "type": "Feature", "properties": { "gid": 804, "streetname": null, "note": null }, "geometry": { "type": "MultiLineString", "coordinates": [ [ [ 2.394356840123719, 48.856520079215869 ], [ 2.392128799329518, 48.857733558578261 ], [ 2.389607398467908, 48.858423735095911 ] ] ] } },
{ "type": "Feature", "properties": { "gid": 932, "streetname": "rue du Rocher", "note": null }, "geometry": { "type": "MultiLineString", "coordinates": [ [ [ 2.316494593060044, 48.881326739903749 ], [ 2.316654683478992, 48.881180966715888 ] ] ] } },
{ "type": "Feature", "properties": { "gid": 969, "streetname": "rue Royale", "note": null }, "geometry": { "type": "MultiLineString", "coordinates": [ [ [ 2.337694538490673, 48.882342500744578 ], [ 2.337427151397474, 48.882149006825053 ] ] ] } },
{ "type": "Feature", "properties": { "gid": 970, "streetname": null, "note": null }, "geometry": { "type": "MultiLineString", "coordinates": [ [ [ 2.339668149736733, 48.882039512484212 ], [ 2.337694538490673, 48.882342500744578 ] ] ] } },
{ "type": "Feature", "properties": { "gid": 1016, "streetname": "Rue de Montreuil", "note": null }, "geometry": { "type": "MultiLineString", "coordinates": [ [ [ 2.398279982973712, 48.85130210993794 ], [ 2.398514901423246, 48.851339584055324 ] ] ] } },
{ "type": "Feature", "properties": { "gid": 1088, "streetname": null, "note": null }, "geometry": { "type": "MultiLineString", "coordinates": [ [ [ 2.379021729562443, 48.870023261144837 ], [ 2.379234161701318, 48.870085134127187 ] ] ] } },
{ "type": "Feature", "properties": { "gid": 1099, "streetname": null, "note": null }, "geometry": { "type": "MultiLineString", "coordinates": [ [ [ 2.379234161701318, 48.870085134127187 ], [ 2.378325693296277, 48.87080258340729 ] ] ] } },
{ "type": "Feature", "properties": { "gid": 1123, "streetname": null, "note": null }, "geometry": { "type": "MultiLineString", "coordinates": [ [ [ 2.379742009317402, 48.869449052160576 ], [ 2.379931695855757, 48.869524618717023 ] ] ] } },
{ "type": "Feature", "properties": { "gid": 1133, "streetname": null, "note": null }, "geometry": { "type": "MultiLineString", "coordinates": [ [ [ 2.379931695855757, 48.869524618717023 ], [ 2.379234161701318, 48.870085134127187 ] ] ] } },
{ "type": "Feature", "properties": { "gid": 1150, "streetname": "Rue de Menil montant", "note": null }, "geometry": { "type": "MultiLineString", "coordinates": [ [ [ 2.382765653058378, 48.867013062616692 ], [ 2.383194418791901, 48.867119731322454 ] ] ] } },
{ "type": "Feature", "properties": { "gid": 1151, "streetname": null, "note": null }, "geometry": { "type": "MultiLineString", "coordinates": [ [ [ 2.387611723411372, 48.862992411214293 ], [ 2.383460019162456, 48.866472022002235 ], [ 2.383194418791901, 48.867119731322454 ] ] ] } },
{ "type": "Feature", "properties": { "gid": 1177, "streetname": "Rue des Trois Couronnes", "note": "c" }, "geometry": { "type": "MultiLineString", "coordinates": [ [ [ 2.380452769872952, 48.868891606338465 ], [ 2.380667152280275, 48.869019621701874 ] ] ] } },
{ "type": "Feature", "properties": { "gid": 1199, "streetname": null, "note": null }, "geometry": { "type": "MultiLineString", "coordinates": [ [ [ 2.383194418791901, 48.867119731322454 ], [ 2.382961844880855, 48.867503995441005 ], [ 2.382529342113214, 48.867591978283549 ], [ 2.380667152280275, 48.869019621701874 ] ] ] } },
{ "type": "Feature", "properties": { "gid": 1210, "streetname": null, "note": null }, "geometry": { "type": "MultiLineString", "coordinates": [ [ [ 2.380667152280275, 48.869019621701874 ], [ 2.379931695855757, 48.869524618717023 ] ] ] } },
{ "type": "Feature", "properties": { "gid": 1215, "streetname": null, "note": null }, "geometry": { "type": "MultiLineString", "coordinates": [ [ [ 2.388935743084633, 48.859497785861009 ], [ 2.38921075392749, 48.859485784940489 ] ] ] } },
{ "type": "Feature", "properties": { "gid": 1452, "streetname": "Avenue des Triomphes", "note": null }, "geometry": { "type": "MultiLineString", "coordinates": [ [ [ 2.398642220010652, 48.850326485594749 ], [ 2.398820898462326, 48.850452059786406 ] ] ] } },
{ "type": "Feature", "properties": { "gid": 1474, "streetname": null, "note": null }, "geometry": { "type": "MultiLineString", "coordinates": [ [ [ 2.398820898462326, 48.850452059786406 ], [ 2.398514901423246, 48.851339584055324 ] ] ] } },
{ "type": "Feature", "properties": { "gid": 1495, "streetname": "route de Meaux", "note": null }, "geometry": { "type": "MultiLineString", "coordinates": [ [ [ 2.369892804890162, 48.882671950613982 ], [ 2.370260704820351, 48.882765442718657 ] ] ] } },
{ "type": "Feature", "properties": { "gid": 1508, "streetname": "Rue de Charonne", "note": null }, "geometry": { "type": "MultiLineString", "coordinates": [ [ [ 2.394099824259961, 48.856444602111146 ], [ 2.394356840123719, 48.856520079215869 ] ] ] } },
{ "type": "Feature", "properties": { "gid": 1510, "streetname": null, "note": null }, "geometry": { "type": "MultiLineString", "coordinates": [ [ [ 2.398514901423246, 48.851339584055324 ], [ 2.394356840123719, 48.856520079215869 ] ] ] } },
{ "type": "Feature", "properties": { "gid": 1561, "streetname": null, "note": null }, "geometry": { "type": "MultiLineString", "coordinates": [ [ [ 2.399194179622038, 48.848080824370804 ], [ 2.399376671234056, 48.848847496950007 ], [ 2.398820898462326, 48.850452059786406 ] ] ] } },
{ "type": "Feature", "properties": { "gid": 1710, "streetname": null, "note": null }, "geometry": { "type": "MultiLineString", "coordinates": [ [ [ 2.389607398467908, 48.858423735095911 ], [ 2.38921075392749, 48.859485784940489 ] ] ] } },
{ "type": "Feature", "properties": { "gid": 1830, "streetname": null, "note": null }, "geometry": { "type": "MultiLineString", "coordinates": [ [ [ 2.370260704820351, 48.882765442718657 ], [ 2.369894849440449, 48.883204600264165 ], [ 2.36997828178411, 48.883533865626099 ], [ 2.369595631921613, 48.883753500860088 ], [ 2.369096348739894, 48.883775593858729 ], [ 2.368742502058467, 48.883921645053945 ] ] ] } },
{ "type": "Feature", "properties": { "gid": 1952, "streetname": null, "note": null }, "geometry": { "type": "MultiLineString", "coordinates": [ [ [ 2.38921075392749, 48.859485784940489 ], [ 2.387611723411372, 48.862992411214293 ] ] ] } },
{ "type": "Feature", "properties": { "gid": 1973, "streetname": "rue de Riom", "note": null }, "geometry": { "type": "MultiLineString", "coordinates": [ [ [ 2.378126282504833, 48.870743206943352 ], [ 2.378325693296277, 48.87080258340729 ] ] ] } },
{ "type": "Feature", "properties": { "gid": 1977, "streetname": null, "note": null }, "geometry": { "type": "MultiLineString", "coordinates": [ [ [ 2.378325693296277, 48.87080258340729 ], [ 2.37750787529955, 48.871490448771439 ], [ 2.377125659838617, 48.87209427983192 ] ] ] } },
{ "type": "Feature", "properties": { "gid": 1979, "streetname": "rue du Buisson Saint Louis", "note": null }, "geometry": { "type": "MultiLineString", "coordinates": [ [ [ 2.374969035807035, 48.87367931223578 ], [ 2.37508034223882, 48.873829232578053 ] ] ] } },
{ "type": "Feature", "properties": { "gid": 1980, "streetname": null, "note": null }, "geometry": { "type": "MultiLineString", "coordinates": [ [ [ 2.377125659838617, 48.87209427983192 ], [ 2.377009342628955, 48.872291893937629 ], [ 2.376626749471773, 48.872434718557045 ], [ 2.37508034223882, 48.873829232578053 ] ] ] } },
{ "type": "Feature", "properties": { "gid": 2020, "streetname": "Chemin de la Chopinette", "note": "la partie final (autre tableau) est Rue de la Chopinette" }, "geometry": { "type": "MultiLineString", "coordinates": [ [ [ 2.374752113072045, 48.874104436845656 ], [ 2.374394478049107, 48.874180234354924 ] ] ] } },
{ "type": "Feature", "properties": { "gid": 2023, "streetname": null, "note": null }, "geometry": { "type": "MultiLineString", "coordinates": [ [ [ 2.37508034223882, 48.873829232578053 ], [ 2.374752113072045, 48.874104436845656 ] ] ] } },
{ "type": "Feature", "properties": { "gid": 2025, "streetname": null, "note": null }, "geometry": { "type": "MultiLineString", "coordinates": [ [ [ 2.374752113072045, 48.874104436845656 ], [ 2.370337393612399, 48.87799181856797 ], [ 2.37033824536715, 48.878039972967855 ] ] ] } },
{ "type": "Feature", "properties": { "gid": 2026, "streetname": null, "note": null }, "geometry": { "type": "MultiLineString", "coordinates": [ [ [ 2.37033824536715, 48.878039972967855 ], [ 2.370340868968371, 48.878188299061094 ] ] ] } },
{ "type": "Feature", "properties": { "gid": 2168, "streetname": "Avenue des Champs Elisees", "note": null }, "geometry": { "type": "MultiLineString", "coordinates": [ [ [ 2.296801153182277, 48.873224649724634 ], [ 2.295000815662077, 48.873812561988103 ] ] ] } },
{ "type": "Feature", "properties": { "gid": 2244, "streetname": "Rue du Fauxbourg Saint Martin", "note": "c" }, "geometry": { "type": "MultiLineString", "coordinates": [ [ [ 2.368742502058467, 48.883921645053945 ], [ 2.368585849316887, 48.883799986017799 ] ] ] } },
{ "type": "Feature", "properties": { "gid": 2257, "streetname": "rue du Chateau Landon", "note": null }, "geometry": { "type": "MultiLineString", "coordinates": [ [ [ 2.364586852764738, 48.884216988248909 ], [ 2.364686209035516, 48.884358483423227 ] ] ] } },
{ "type": "Feature", "properties": { "gid": 2260, "streetname": null, "note": null }, "geometry": { "type": "MultiLineString", "coordinates": [ [ [ 2.361579990910837, 48.884424218006622 ], [ 2.360859454969016, 48.884458189349139 ], [ 2.360575484356362, 48.884798449922677 ], [ 2.359409285925757, 48.884826457192581 ] ] ] } },
{ "type": "Feature", "properties": { "gid": 2263, "streetname": null, "note": null }, "geometry": { "type": "MultiLineString", "coordinates": [ [ [ 2.359409285925757, 48.884826457192581 ], [ 2.35864482758371, 48.884798828230963 ], [ 2.358195413511055, 48.884711101148149 ], [ 2.358028839999343, 48.884381842366452 ], [ 2.349594587728679, 48.883717195110897 ] ] ] } },
{ "type": "Feature", "properties": { "gid": 2264, "streetname": null, "note": null }, "geometry": { "type": "MultiLineString", "coordinates": [ [ [ 2.349594587728679, 48.883717195110897 ], [ 2.348950393314333, 48.883681386653841 ], [ 2.348484214511426, 48.883896496627713 ], [ 2.347902047143724, 48.88387735559634 ], [ 2.347494471524056, 48.883579840514884 ], [ 2.34692828939292, 48.883426185023502 ] ] ] } },
{ "type": "Feature", "properties": { "gid": 2265, "streetname": null, "note": null }, "geometry": { "type": "MultiLineString", "coordinates": [ [ [ 2.34692828939292, 48.883426185023502 ], [ 2.342650835682806, 48.882580444194176 ] ] ] } },
{ "type": "Feature", "properties": { "gid": 2266, "streetname": null, "note": null }, "geometry": { "type": "MultiLineString", "coordinates": [ [ [ 2.340798018554551, 48.882214047866668 ], [ 2.340231941762885, 48.882102098878427 ], [ 2.339668149736733, 48.882039512484212 ] ] ] } },
{ "type": "Feature", "properties": { "gid": 2267, "streetname": null, "note": null }, "geometry": { "type": "MultiLineString", "coordinates": [ [ [ 2.342650835682806, 48.882580444194176 ], [ 2.340798018554551, 48.882214047866668 ] ] ] } },
{ "type": "Feature", "properties": { "gid": 2269, "streetname": "rue Sainte Anne", "note": null }, "geometry": { "type": "MultiLineString", "coordinates": [ [ [ 2.349606035003823, 48.883569689814962 ], [ 2.349594587728679, 48.883717195110897 ] ] ] } },
{ "type": "Feature", "properties": { "gid": 2273, "streetname": "rue de Rochechouard", "note": null }, "geometry": { "type": "MultiLineString", "coordinates": [ [ [ 2.346892517756209, 48.883271116904936 ], [ 2.34692828939292, 48.883426185023502 ] ] ] } },
{ "type": "Feature", "properties": { "gid": 2276, "streetname": "rue du Fauxbourg Saint Lazare", "note": null }, "geometry": { "type": "MultiLineString", "coordinates": [ [ [ 2.35937960996325, 48.88429835468974 ], [ 2.359409285925757, 48.884826457192581 ] ] ] } },
{ "type": "Feature", "properties": { "gid": 2277, "streetname": "rue de Clichy", "note": null }, "geometry": { "type": "MultiLineString", "coordinates": [ [ [ 2.327362123871494, 48.883569980389588 ], [ 2.327489702697459, 48.883299026285854 ] ] ] } },
{ "type": "Feature", "properties": { "gid": 2303, "streetname": null, "note": null }, "geometry": { "type": "MultiLineString", "coordinates": [ [ [ 2.327362123871494, 48.883569980389588 ], [ 2.326551313016305, 48.883435826937372 ], [ 2.316494593060044, 48.881326739903749 ] ] ] } },
{ "type": "Feature", "properties": { "gid": 2461, "streetname": "rue du Fauxbourg du Roule", "note": null }, "geometry": { "type": "MultiLineString", "coordinates": [ [ [ 2.29829029719463, 48.877762097284915 ], [ 2.298009796137568, 48.877838110020903 ] ] ] } },
{ "type": "Feature", "properties": { "gid": 2462, "streetname": null, "note": null }, "geometry": { "type": "MultiLineString", "coordinates": [ [ [ 2.303104728450111, 48.879144239556688 ], [ 2.298977439584666, 48.878278718311918 ], [ 2.297980551930625, 48.878508259459032 ], [ 2.297618198927455, 48.877991309809538 ] ] ] } },
{ "type": "Feature", "properties": { "gid": 2464, "streetname": null, "note": null }, "geometry": { "type": "MultiLineString", "coordinates": [ [ [ 2.297618198927455, 48.877991309809538 ], [ 2.297772006874489, 48.877672685533177 ], [ 2.295000815662077, 48.873812561988103 ] ] ] } },
{ "type": "Feature", "properties": { "gid": 2484, "streetname": "Rue de l' Hôpital Saint Louis", "note": "c" }, "geometry": { "type": "MultiLineString", "coordinates": [ [ [ 2.370124455307645, 48.87787430263748 ], [ 2.37033824536715, 48.878039972967855 ] ] ] } },
{ "type": "Feature", "properties": { "gid": 2548, "streetname": "chemin de la Chapelle", "note": null }, "geometry": { "type": "MultiLineString", "coordinates": [ [ [ 2.361587888899929, 48.884277040182411 ], [ 2.361579990910837, 48.884424218006622 ] ] ] } },
{ "type": "Feature", "properties": { "gid": 2687, "streetname": null, "note": null }, "geometry": { "type": "MultiLineString", "coordinates": [ [ [ 2.337694538490673, 48.882342500744578 ], [ 2.337102926464063, 48.882447683227625 ], [ 2.332662503535261, 48.883797089984512 ] ] ] } },
{ "type": "Feature", "properties": { "gid": 2688, "streetname": null, "note": null }, "geometry": { "type": "MultiLineString", "coordinates": [ [ [ 2.332662503535261, 48.883797089984512 ], [ 2.329481057770132, 48.884658261670772 ], [ 2.328181281638252, 48.883839103130967 ], [ 2.327362123871494, 48.883569980389588 ] ] ] } },
{ "type": "Feature", "properties": { "gid": 2690, "streetname": "Rue Blanche", "note": null }, "geometry": { "type": "MultiLineString", "coordinates": [ [ [ 2.332552626013292, 48.883635890816663 ], [ 2.332662503535261, 48.883797089984512 ] ] ] } },
{ "type": "Feature", "properties": { "gid": 2720, "streetname": null, "note": null }, "geometry": { "type": "MultiLineString", "coordinates": [ [ [ 2.368742502058467, 48.883921645053945 ], [ 2.368397573269908, 48.884159957460476 ], [ 2.364686209035516, 48.884358483423227 ] ] ] } },
{ "type": "Feature", "properties": { "gid": 2734, "streetname": null, "note": null }, "geometry": { "type": "MultiLineString", "coordinates": [ [ [ 2.364686209035516, 48.884358483423227 ], [ 2.361579990910837, 48.884424218006622 ] ] ] } },
{ "type": "Feature", "properties": { "gid": 2875, "streetname": "rue des Martyrs", "note": null }, "geometry": { "type": "MultiLineString", "coordinates": [ [ [ 2.339668149736733, 48.882039512484212 ], [ 2.339654247845574, 48.881906279175112 ] ] ] } },
{ "type": "Feature", "properties": { "gid": 3013, "streetname": "rue du Fauxbourg du Temple", "note": null }, "geometry": { "type": "MultiLineString", "coordinates": [ [ [ 2.376764470209848, 48.871983096502333 ], [ 2.377125659838617, 48.87209427983192 ] ] ] } },
{ "type": "Feature", "properties": { "gid": 3345, "streetname": "rue des Amandiers", "note": null }, "geometry": { "type": "MultiLineString", "coordinates": [ [ [ 2.387249691289429, 48.862887787746786 ], [ 2.387611723411372, 48.862992411214293 ] ] ] } },
{ "type": "Feature", "properties": { "gid": 3434, "streetname": null, "note": null }, "geometry": { "type": "MultiLineString", "coordinates": [ [ [ 2.337694538490673, 48.882342500744578 ], [ 2.337977480655415, 48.88256832804732 ], [ 2.338731984229427, 48.883504974778504 ], [ 2.339056743733987, 48.883945409590993 ] ] ] } },
{ "type": "Feature", "properties": { "gid": 3435, "streetname": null, "note": null }, "geometry": { "type": "MultiLineString", "coordinates": [ [ [ 2.339056743733987, 48.883945409590993 ], [ 2.339662870753907, 48.88373379074293 ], [ 2.33974931594013, 48.883516399161721 ] ] ] } },
{ "type": "Feature", "properties": { "gid": 3436, "streetname": null, "note": null }, "geometry": { "type": "MultiLineString", "coordinates": [ [ [ 2.33974931594013, 48.883516399161721 ], [ 2.33969507950869, 48.88327789730009 ], [ 2.339668149736733, 48.882039512484212 ] ] ] } },
{ "type": "Feature", "properties": { "gid": 3437, "streetname": null, "note": null }, "geometry": { "type": "MultiLineString", "coordinates": [ [ [ 2.33974931594013, 48.883516399161721 ], [ 2.339888686063763, 48.883293489469771 ] ] ] } },
{ "type": "Feature", "properties": { "gid": 3438, "streetname": null, "note": null }, "geometry": { "type": "MultiLineString", "coordinates": [ [ [ 2.339888686063763, 48.883293489469771 ], [ 2.340015682123458, 48.883177993119247 ], [ 2.340319150199574, 48.882865935051271 ], [ 2.340444401978593, 48.882714117186687 ], [ 2.340728436326165, 48.882371086206177 ], [ 2.340798018554551, 48.882214047866668 ] ] ] } },
{ "type": "Feature", "properties": { "gid": 3439, "streetname": null, "note": null }, "geometry": { "type": "MultiLineString", "coordinates": [ [ [ 2.339888686063763, 48.883293489469771 ], [ 2.340146928527921, 48.883248434426825 ], [ 2.34025966215748, 48.883215649203407 ], [ 2.340673397607089, 48.883065420467993 ], [ 2.340905322680703, 48.883011504120489 ], [ 2.341152478599507, 48.882972195701662 ], [ 2.341545159838065, 48.882919162649124 ], [ 2.34188977842319, 48.882835362546693 ], [ 2.342360468386813, 48.882708680331376 ], [ 2.342650835682806, 48.882580444194176 ] ] ] } },
{ "type": "Feature", "properties": { "gid": 3440, "streetname": null, "note": null }, "geometry": { "type": "MultiLineString", "coordinates": [ [ [ 2.339056743733987, 48.883945409590993 ], [ 2.3386868008752, 48.884114756494483 ], [ 2.338464994003722, 48.884238442274082 ], [ 2.338247442852387, 48.884373770794639 ], [ 2.337718587719801, 48.884742674961863 ], [ 2.337483627147366, 48.884861202530502 ] ] ] } },
{ "type": "Feature", "properties": { "gid": 3441, "streetname": null, "note": null }, "geometry": { "type": "MultiLineString", "coordinates": [ [ [ 2.334895134068936, 48.885777148096118 ], [ 2.333881765788216, 48.886141163968539 ], [ 2.33342149647721, 48.886309991892887 ], [ 2.333258006087215, 48.886349750279692 ] ] ] } },
{ "type": "Feature", "properties": { "gid": 3442, "streetname": null, "note": null }, "geometry": { "type": "MultiLineString", "coordinates": [ [ [ 2.337483627147366, 48.884861202530502 ], [ 2.336992290586314, 48.885050206695162 ], [ 2.336580527461819, 48.885216410506445 ], [ 2.336026845185976, 48.885458079776186 ], [ 2.335615631658906, 48.885580709684312 ], [ 2.334895134068936, 48.885777148096118 ] ] ] } },
{ "type": "Feature", "properties": { "gid": 3443, "streetname": null, "note": null }, "geometry": { "type": "MultiLineString", "coordinates": [ [ [ 2.334895134068936, 48.885777148096118 ], [ 2.334931853440642, 48.886006113452744 ], [ 2.334700515329056, 48.886184932408945 ], [ 2.333815289417923, 48.886516979405727 ], [ 2.333690250760006, 48.886649909272535 ], [ 2.333824435169905, 48.887179348478128 ], [ 2.333945462077319, 48.8873601257758 ], [ 2.334058869194047, 48.887447903656174 ], [ 2.334208108459817, 48.887489402230557 ], [ 2.334375040986055, 48.887525189171264 ], [ 2.334586466099158, 48.887526364318035 ], [ 2.335142421354789, 48.887453925198884 ], [ 2.335469035244087, 48.887403450101019 ], [ 2.335883519738866, 48.887370890935806 ], [ 2.336368626591406, 48.887327102171866 ], [ 2.336800210666287, 48.887335303240874 ], [ 2.337293977887794, 48.887303178309296 ] ] ] } },
{ "type": "Feature", "properties": { "gid": 3444, "streetname": null, "note": null }, "geometry": { "type": "MultiLineString", "coordinates": [ [ [ 2.337483627147366, 48.884861202530502 ], [ 2.337525713288146, 48.885015395540165 ], [ 2.337837517014346, 48.885435427026231 ], [ 2.337948489115787, 48.885714911712441 ], [ 2.337751660257645, 48.885952025469415 ], [ 2.337863667187476, 48.886150178488158 ], [ 2.338082049794072, 48.886296631203216 ], [ 2.338371940629266, 48.886362141343163 ] ] ] } },
{ "type": "Feature", "properties": { "gid": 3445, "streetname": null, "note": null }, "geometry": { "type": "MultiLineString", "coordinates": [ [ [ 2.339029163847896, 48.886638832195885 ], [ 2.339238447650757, 48.886808471701023 ], [ 2.339420494264498, 48.887041868389346 ] ] ] } },
{ "type": "Feature", "properties": { "gid": 3446, "streetname": null, "note": null }, "geometry": { "type": "MultiLineString", "coordinates": [ [ [ 2.338371940629266, 48.886362141343163 ], [ 2.338636658939111, 48.886328744993463 ] ] ] } },
{ "type": "Feature", "properties": { "gid": 3447, "streetname": null, "note": null }, "geometry": { "type": "MultiLineString", "coordinates": [ [ [ 2.338636658939111, 48.886328744993463 ], [ 2.338838680013189, 48.886376339180082 ], [ 2.339029163847896, 48.886638832195885 ] ] ] } },
{ "type": "Feature", "properties": { "gid": 3448, "streetname": null, "note": null }, "geometry": { "type": "MultiLineString", "coordinates": [ [ [ 2.337293977887794, 48.887303178309296 ], [ 2.337436405800617, 48.887187770440569 ], [ 2.337826010786054, 48.887033060983555 ], [ 2.338171419413855, 48.886889725575777 ], [ 2.338516826140117, 48.886746389152862 ] ] ] } },
{ "type": "Feature", "properties": { "gid": 3449, "streetname": null, "note": null }, "geometry": { "type": "MultiLineString", "coordinates": [ [ [ 2.338516826140117, 48.886746389152862 ], [ 2.338755487430654, 48.886683799552458 ], [ 2.339029163847896, 48.886638832195885 ] ] ] } },
{ "type": "Feature", "properties": { "gid": 3450, "streetname": null, "note": null }, "geometry": { "type": "MultiLineString", "coordinates": [ [ [ 2.338516826140117, 48.886746389152862 ], [ 2.338371940629266, 48.886362141343163 ] ] ] } },
{ "type": "Feature", "properties": { "gid": 3451, "streetname": null, "note": null }, "geometry": { "type": "MultiLineString", "coordinates": [ [ [ 2.338636658939111, 48.886328744993463 ], [ 2.338813875270622, 48.886248386422139 ], [ 2.339318651353627, 48.886042019693832 ], [ 2.339619193335838, 48.885962340366333 ], [ 2.340026695370979, 48.885784483130685 ] ] ] } },
{ "type": "Feature", "properties": { "gid": 3452, "streetname": null, "note": null }, "geometry": { "type": "MultiLineString", "coordinates": [ [ [ 2.340026695370979, 48.885784483130685 ], [ 2.339918068459439, 48.885319099380325 ] ] ] } },
{ "type": "Feature", "properties": { "gid": 3453, "streetname": null, "note": null }, "geometry": { "type": "MultiLineString", "coordinates": [ [ [ 2.340026695370979, 48.885784483130685 ], [ 2.340079329044921, 48.885802202671755 ], [ 2.340152476395109, 48.885939136344902 ] ] ] } },
{ "type": "Feature", "properties": { "gid": 3454, "streetname": null, "note": null }, "geometry": { "type": "MultiLineString", "coordinates": [ [ [ 2.340152476395109, 48.885939136344902 ], [ 2.340178057207215, 48.886006090126244 ] ] ] } },
{ "type": "Feature", "properties": { "gid": 3455, "streetname": null, "note": null }, "geometry": { "type": "MultiLineString", "coordinates": [ [ [ 2.340152476395109, 48.885939136344902 ], [ 2.340258443406158, 48.885919385951219 ], [ 2.340928303710785, 48.88589402605492 ] ] ] } },
{ "type": "Feature", "properties": { "gid": 3456, "streetname": null, "note": null }, "geometry": { "type": "MultiLineString", "coordinates": [ [ [ 2.339420494264498, 48.887041868389346 ], [ 2.339742328464415, 48.887020404304472 ], [ 2.339901264073636, 48.886992231601823 ], [ 2.3401971483686, 48.886932859504384 ], [ 2.340431403856834, 48.886870242302109 ], [ 2.340644224111339, 48.886761028164791 ], [ 2.34074167755649, 48.886717991246947 ], [ 2.341112327605149, 48.886667743233239 ] ] ] } },
{ "type": "Feature", "properties": { "gid": 3457, "streetname": null, "note": null }, "geometry": { "type": "MultiLineString", "coordinates": [ [ [ 2.34692828939292, 48.883426185023502 ], [ 2.346929043781126, 48.883681414916154 ], [ 2.34705199681042, 48.884414122252331 ], [ 2.347205531399381, 48.88481583650865 ], [ 2.347378069706559, 48.885107267618885 ], [ 2.347429540367456, 48.885217934537138 ], [ 2.347523673306668, 48.88543922026922 ], [ 2.347651296682688, 48.885800123698772 ] ] ] } }
]
}
