{
"type": "FeatureCollection",
"name": "atlas_vasserot_1810_voies",
"crs": { "type": "name", "properties": { "name": "urn:ogc:def:crs:OGC:1.3:CRS84" } },
"features": [
{ "type": "Feature", "properties": { "geo_point_2d": { "lon": 2.3771367472799998, "lat": 48.870456187999999 }, "id": "2549", "geo_fid": 2549, "geo_creati": 1530173617440, "geo_modifi": 1530173617440, "id_alpage": "TR2549", "type": "Rue", "nom": "Orillon", "ref_scan": "ADO75CA_ANO398", "ref_scan2": null, "article": "de l'", "nom2_scan2": null, "nom_entier": "Rue de l'Orillon", "code_fiab": "1", "identifi": 2549, "oid": 1230401 }, "geometry": { "type": "LineString", "coordinates": [ [ 2.378401436139197, 48.870785542538115 ], [ 2.378057702917551, 48.870699965265452 ], [ 2.377773827275349, 48.870629203721336 ], [ 2.377544206985167, 48.870557702913757 ], [ 2.377514892115089, 48.870550069441656 ], [ 2.377231018174101, 48.870479396475851 ], [ 2.377229519820991, 48.870480835836844 ], [ 2.376977688912688, 48.870419233666951 ], [ 2.376980138915015, 48.870414556596714 ], [ 2.376707982140938, 48.870334076181429 ], [ 2.376483289832426, 48.870284873498719 ], [ 2.37625859803937, 48.870235760301284 ], [ 2.375875315527495, 48.870118715433989 ] ] } },
{ "type": "Feature", "properties": { "geo_point_2d": { "lon": 2.3352386362200002, "lat": 48.883058961499998 }, "id": "3042", "geo_fid": 3042, "geo_creati": 1530173617510, "geo_modifi": 1530173617510, "id_alpage": "TR3047", "type": "Boulevard", "nom": "Extérieur", "ref_scan": "ADO75CA_ANO107", "ref_scan2": null, "article": null, "nom2_scan2": null, "nom_entier": "Boulevard Extérieur", "code_fiab": "1", "identifi": 3047, "oid": 1230894 }, "geometry": { "type": "LineString", "coordinates": [ [ 2.332722678681056, 48.883774055969241 ], [ 2.337551569918735, 48.88240041526074 ], [ 2.337760324387234, 48.882370918327084 ] ] } },
{ "type": "Feature", "properties": { "geo_point_2d": { "lon": 2.34407319481, "lat": 48.882958436199999 }, "id": "3045", "geo_fid": 3045, "geo_creati": 1530173617510, "geo_modifi": 1530173617510, "id_alpage": "TR3050", "type": "Boulevard", "nom": "Extérieur", "ref_scan": "ADO75CA_ANO136", "ref_scan2": null, "article": null, "nom2_scan2": null, "nom_entier": "Boulevard Extérieur", "code_fiab": "1", "identifi": 3050, "oid": 1230897 }, "geometry": { "type": "LineString", "coordinates": [ [ 2.34122557460007, 48.882428043198694 ], [ 2.342095106831506, 48.882586731038124 ], [ 2.346668394417968, 48.883446418864551 ], [ 2.346923110094687, 48.883471667082183 ] ] } },
{ "type": "Feature", "properties": { "geo_point_2d": { "lon": 2.2983235344100001, "lat": 48.877693436199998 }, "id": "3053", "geo_fid": 3053, "geo_creati": 1530173617510, "geo_modifi": 1530173617510, "id_alpage": "TR3058", "type": "Rue", "nom": "Faubourg du Roule", "ref_scan": "ADO75CA_ANO056", "ref_scan2": null, "article": "du", "nom2_scan2": null, "nom_entier": "Rue du Faubourg du Roule", "code_fiab": "1", "identifi": 3058, "oid": 1230905 }, "geometry": { "type": "LineString", "coordinates": [ [ 2.298573488210273, 48.877634837395014 ], [ 2.298439851670217, 48.877666176720602 ], [ 2.298073577634028, 48.877752022253446 ] ] } },
{ "type": "Feature", "properties": { "geo_point_2d": { "lon": 2.3033200427499998, "lat": 48.8790553969 }, "id": "3055", "geo_fid": 3055, "geo_creati": 1530173617510, "geo_modifi": 1530173617510, "id_alpage": "TR3060", "type": "Rue", "nom": "Chartres", "ref_scan": "ADO75CA_ANO024", "ref_scan2": null, "article": "de", "nom2_scan2": null, "nom_entier": "Rue de Chartres", "code_fiab": "1", "identifi": 3060, "oid": 1230907 }, "geometry": { "type": "LineString", "coordinates": [ [ 2.303284371524974, 48.879081195429755 ], [ 2.303355713983758, 48.87902959835106 ] ] } },
{ "type": "Feature", "properties": { "geo_point_2d": { "lon": 2.31645707737, "lat": 48.8813353635 }, "id": "3056", "geo_fid": 3056, "geo_creati": 1530173617510, "geo_modifi": 1530173617510, "id_alpage": "TR3061", "type": "Rue", "nom": "Rocher", "ref_scan": "ADO75CA_ANO027", "ref_scan2": null, "article": "du", "nom2_scan2": null, "nom_entier": "Rue du Rocher", "code_fiab": "1", "identifi": 3061, "oid": 1230908 }, "geometry": { "type": "LineString", "coordinates": [ [ 2.316554261550976, 48.881250354924802 ], [ 2.316359893181733, 48.881420372050179 ] ] } },
{ "type": "Feature", "properties": { "geo_point_2d": { "lon": 2.3376305850999999, "lat": 48.882279597699998 }, "id": "3061", "geo_fid": 3061, "geo_creati": 1530173617510, "geo_modifi": 1530173617510, "id_alpage": "TR3066", "type": "Rue", "nom": "Pigale", "ref_scan": "ADO75CA_ANO107", "ref_scan2": null, "article": null, "nom2_scan2": null, "nom_entier": "Rue Pigale", "code_fiab": "1", "identifi": 3066, "oid": 1230913 }, "geometry": { "type": "LineString", "coordinates": [ [ 2.337760324387234, 48.882370918327084 ], [ 2.337500845816531, 48.882188276987613 ] ] } },
{ "type": "Feature", "properties": { "geo_point_2d": { "lon": 2.3220260142, "lat": 48.882351067400002 }, "id": "3069", "geo_fid": 3069, "geo_creati": 1530173617511, "geo_modifi": 1530173617511, "id_alpage": "TR3074", "type": "Chemin", "nom": "Ronde", "ref_scan": "ADO75CA_ANO028", "ref_scan2": null, "article": "de", "nom2_scan2": null, "nom_entier": "Chemin de Ronde", "code_fiab": "3", "identifi": 3074, "oid": 1230921 }, "geometry": { "type": "LineString", "coordinates": [ [ 2.316554261550976, 48.881250354924802 ], [ 2.316645062264888, 48.881268626549897 ], [ 2.323210976102776, 48.882589752700937 ], [ 2.3263433911453, 48.883256275079844 ], [ 2.326715896397233, 48.883325374080897 ], [ 2.326867265845972, 48.88324859001861 ], [ 2.327041935633473, 48.883248605716553 ], [ 2.327391126703205, 48.883310056618818 ], [ 2.327486980543763, 48.883326971152336 ] ] } },
{ "type": "Feature", "properties": { "geo_point_2d": { "lon": 2.3879168010299998, "lat": 48.859638212599997 }, "id": "1792", "geo_fid": 1792, "geo_creati": 1530173617328, "geo_modifi": 1530173617328, "id_alpage": "TR1792", "type": "Rue", "nom": "Saint André Popincourt", "ref_scan": "ADO75CA_ANO493", "ref_scan2": null, "article": null, "nom2_scan2": null, "nom_entier": "Rue Saint André Popincourt", "code_fiab": "1", "identifi": 1792, "oid": 1229644 }, "geometry": { "type": "LineString", "coordinates": [ [ 2.386867912636814, 48.859365911042886 ], [ 2.386938391528701, 48.859383506121468 ], [ 2.387791786948316, 48.859607050247092 ], [ 2.388628826596093, 48.85982223212914 ], [ 2.388966098381487, 48.859908949528673 ] ] } },
{ "type": "Feature", "properties": { "geo_point_2d": { "lon": 2.32742791624, "lat": 48.883442072999998 }, "id": "2935", "geo_fid": 2935, "geo_creati": 1530173617495, "geo_modifi": 1530173617495, "id_alpage": "TR2939", "type": "Rue", "nom": "Clichy", "ref_scan": "ADO75CA_ANO029", "ref_scan2": null, "article": "de", "nom2_scan2": null, "nom_entier": "Rue de Clichy", "code_fiab": "1", "identifi": 2939, "oid": 1230787 }, "geometry": { "type": "LineString", "coordinates": [ [ 2.327486980543763, 48.883326971152336 ], [ 2.327368851932858, 48.883557174817518 ] ] } },
{ "type": "Feature", "properties": { "geo_point_2d": { "lon": 2.38503203922, "lat": 48.864925434200003 }, "id": "3415", "geo_fid": 3415, "geo_creati": 1530173617544, "geo_modifi": 1530173617544, "id_alpage": "TR3420", "type": "Chemin", "nom": "Ronde", "ref_scan": "ADO75CA_ANO495", "ref_scan2": null, "article": "de", "nom2_scan2": null, "nom_entier": "Chemin de Ronde", "code_fiab": "1", "identifi": 3420, "oid": 1231267 }, "geometry": { "type": "LineString", "coordinates": [ [ 2.382724327436896, 48.866963162727167 ], [ 2.387339751009619, 48.862887705757466 ] ] } },
{ "type": "Feature", "properties": { "geo_point_2d": { "lon": 2.3882110206, "lat": 48.861434762499997 }, "id": "3416", "geo_fid": 3416, "geo_creati": 1530173617544, "geo_modifi": 1530173617544, "id_alpage": "TR3421", "type": "Chemin", "nom": "Ronde", "ref_scan": "ADO75CA_ANO493", "ref_scan2": null, "article": "de", "nom2_scan2": null, "nom_entier": "Chemin de Ronde", "code_fiab": "1", "identifi": 3421, "oid": 1231268 }, "geometry": { "type": "LineString", "coordinates": [ [ 2.387339751009619, 48.862887705757466 ], [ 2.387834972124439, 48.862266359809773 ], [ 2.388966098381487, 48.859908949528673 ] ] } },
{ "type": "Feature", "properties": { "geo_point_2d": { "lon": 2.33856499458, "lat": 48.882079902100003 }, "id": "3063", "geo_fid": 3063, "geo_creati": 1530173617510, "geo_modifi": 1530173617510, "id_alpage": "TR3068", "type": "Chemin", "nom": "Ronde", "ref_scan": "ADO75CA_ANO106", "ref_scan2": null, "article": "de", "nom2_scan2": null, "nom_entier": "Chemin de Ronde", "code_fiab": "3", "identifi": 3068, "oid": 1230915 }, "geometry": { "type": "LineString", "coordinates": [ [ 2.339629143335865, 48.881971527279781 ], [ 2.337500845816531, 48.882188276987613 ] ] } },
{ "type": "Feature", "properties": { "geo_point_2d": { "lon": 2.3953745535099999, "lat": 48.8535665442 }, "id": "3417", "geo_fid": 3417, "geo_creati": 1530173617544, "geo_modifi": 1530173617544, "id_alpage": "TR3422", "type": "Sentier", "nom": "Bureau", "ref_scan": "ADO75CA_ANO575", "ref_scan2": null, "article": "du", "nom2_scan2": null, "nom_entier": "Sentier du Bureau", "code_fiab": "1", "identifi": 3422, "oid": 1231269 }, "geometry": { "type": "LineString", "coordinates": [ [ 2.394202572914384, 48.853307235435992 ], [ 2.394279039208583, 48.853322574809638 ], [ 2.39439379482861, 48.853335107222023 ], [ 2.394504217352629, 48.853371562340023 ], [ 2.394905787627174, 48.853468031963068 ], [ 2.395220250089357, 48.853537925989585 ], [ 2.395451825061333, 48.853578455241852 ], [ 2.396327209228643, 48.853779892130845 ], [ 2.396546669797355, 48.853830407358593 ] ] } },
{ "type": "Feature", "properties": { "geo_point_2d": { "lon": 2.3988781743800001, "lat": 48.8492169795 }, "id": "3425", "geo_fid": 3425, "geo_creati": 1530173617544, "geo_modifi": 1530173617544, "id_alpage": "TR3430", "type": "Chemin", "nom": "Ronde", "ref_scan": "ADO75CA_ANO571", "ref_scan2": null, "article": "de", "nom2_scan2": null, "nom_entier": "Chemin de Ronde", "code_fiab": "1", "identifi": 3430, "oid": 1231277 }, "geometry": { "type": "LineString", "coordinates": [ [ 2.398821846516125, 48.850492002493361 ], [ 2.399272053466226, 48.848845280838766 ], [ 2.398557598227417, 48.848919856871369 ], [ 2.398420412926875, 48.848278839202877 ], [ 2.398393963521142, 48.848155653061418 ] ] } },
{ "type": "Feature", "properties": { "geo_point_2d": { "lon": 2.2966970363699999, "lat": 48.871749062799999 }, "id": "4338", "geo_fid": 4338, "geo_creati": 1530173617629, "geo_modifi": 1530173617629, "id_alpage": "TR4348", "type": null, "nom": null, "ref_scan": "ADO75CA_ANO057", "ref_scan2": null, "article": null, "nom2_scan2": null, "nom_entier": null, "code_fiab": "6", "identifi": 4348, "oid": 1232190 }, "geometry": { "type": "LineString", "coordinates": [ [ 2.296460879902852, 48.87319241562686 ], [ 2.29677988602402, 48.872352608393975 ], [ 2.296804203748332, 48.872288678718746 ], [ 2.296828383185962, 48.872227087098281 ], [ 2.296828464745525, 48.872126728304004 ], [ 2.296842455094602, 48.872021698210162 ], [ 2.296852895359044, 48.871923591259225 ], [ 2.29684602630086, 48.871820891899922 ], [ 2.296821849856574, 48.871711351948306 ], [ 2.296794267290524, 48.8715995626047 ], [ 2.296777146369931, 48.871531121898769 ], [ 2.296732234436844, 48.871439829818186 ], [ 2.296694288120946, 48.871332533139466 ], [ 2.296673486753552, 48.871264091112238 ], [ 2.296656250343428, 48.871170470714731 ], [ 2.296645975610592, 48.871065521953334 ], [ 2.296639256414797, 48.870946905511104 ], [ 2.296635807172484, 48.870830448484888 ], [ 2.296639433435549, 48.870730090952314 ], [ 2.296635978553914, 48.87062055832336 ], [ 2.296639588061283, 48.870540704200096 ], [ 2.296646472960413, 48.870456264950271 ], [ 2.296670789928541, 48.870392335305283 ], [ 2.296715836522845, 48.870317082174012 ], [ 2.296733309129833, 48.87028786201013 ] ] } },
{ "type": "Feature", "properties": { "geo_point_2d": { "lon": 2.3974709990599998, "lat": 48.851131068199997 }, "id": "1078", "geo_fid": 1078, "geo_creati": 1530173617245, "geo_modifi": 1530173617245, "id_alpage": "TR1078", "type": "Rue", "nom": "Montreuil", "ref_scan": "ADO75CA_ANO575", "ref_scan2": null, "article": "de", "nom2_scan2": null, "nom_entier": "Rue de Montreuil", "code_fiab": "1", "identifi": 1078, "oid": 1228930 }, "geometry": { "type": "LineString", "coordinates": [ [ 2.396417074351448, 48.850969349413489 ], [ 2.397111469347597, 48.851069705799993 ], [ 2.397577046441562, 48.851145718940408 ], [ 2.39798156872002, 48.851214478583486 ], [ 2.398523877885438, 48.851299619584452 ] ] } },
{ "type": "Feature", "properties": { "geo_point_2d": { "lon": 2.3630001380799999, "lat": 48.884338039100001 }, "id": "3251", "geo_fid": 3251, "geo_creati": 1530173617527, "geo_modifi": 1530173617527, "id_alpage": "TR3256", "type": "Chemin", "nom": "Ronde", "ref_scan": "ADO75CA_ANO329", "ref_scan2": null, "article": "de", "nom2_scan2": null, "nom_entier": "Chemin de Ronde", "code_fiab": "1", "identifi": 3256, "oid": 1231103 }, "geometry": { "type": "LineString", "coordinates": [ [ 2.3615653300149, 48.884359315895281 ], [ 2.364434946137033, 48.884316762342813 ] ] } },
{ "type": "Feature", "properties": { "geo_point_2d": { "lon": 2.37030801455, "lat": 48.877991424500003 }, "id": "4286", "geo_fid": 4286, "geo_creati": 1530173617627, "geo_modifi": 1530173617627, "id_alpage": "TR4296", "type": "Rue", "nom": "Hôpital Saint Louis", "ref_scan": "ADO75CA_ANO300", "ref_scan2": null, "article": "de l'", "nom2_scan2": null, "nom_entier": "Rue de l'Hôpital Saint Louis", "code_fiab": "1", "identifi": 4296, "oid": 1232138 }, "geometry": { "type": "LineString", "coordinates": [ [ 2.370423147165911, 48.87810237395427 ], [ 2.370270075429193, 48.877954847697282 ], [ 2.370192857816302, 48.877880500161659 ] ] } },
{ "type": "Feature", "properties": { "geo_point_2d": { "lon": 2.3258659490900002, "lat": 48.882803524300002 }, "id": "4343", "geo_fid": 4343, "geo_creati": 1530173617629, "geo_modifi": 1530173617629, "id_alpage": "TR4353", "type": null, "nom": null, "ref_scan": "ADO75CA_ANO028", "ref_scan2": null, "article": null, "nom2_scan2": null, "nom_entier": null, "code_fiab": "6", "identifi": 4353, "oid": 1232195 }, "geometry": { "type": "LineString", "coordinates": [ [ 2.326240291341997, 48.883328566735102 ], [ 2.326212906269429, 48.883228475056143 ], [ 2.326185248699202, 48.883127933708145 ], [ 2.326042118060588, 48.882945817084803 ], [ 2.32583777526297, 48.882723316858446 ], [ 2.325561713041912, 48.882500808969532 ], [ 2.325428782459415, 48.882446838967475 ], [ 2.325428801667119, 48.882365904433811 ], [ 2.325428804057408, 48.882355832580721 ] ] } },
{ "type": "Feature", "properties": { "geo_point_2d": { "lon": 2.3299801324999998, "lat": 48.884175727900001 }, "id": "3043", "geo_fid": 3043, "geo_creati": 1530173617510, "geo_modifi": 1530173617510, "id_alpage": "TR3048", "type": "Boulevard", "nom": "Extérieur", "ref_scan": "ADO75CA_ANO108", "ref_scan2": null, "article": null, "nom2_scan2": null, "nom_entier": "Boulevard Extérieur", "code_fiab": "1", "identifi": 3048, "oid": 1230895 }, "geometry": { "type": "LineString", "coordinates": [ [ 2.327368851932858, 48.883557174817518 ], [ 2.329242336267302, 48.884622059831464 ], [ 2.329400917353768, 48.884642933922891 ], [ 2.332722678681056, 48.883774055969241 ] ] } },
{ "type": "Feature", "properties": { "geo_point_2d": { "lon": 2.34117620488, "lat": 48.882297020899998 }, "id": "3065", "geo_fid": 3065, "geo_creati": 1530173617511, "geo_modifi": 1530173617511, "id_alpage": "TR3070", "type": "Ruelle", "nom": "Beauregard", "ref_scan": "ADO75CA_ANO136", "ref_scan2": null, "article": null, "nom2_scan2": null, "nom_entier": "Ruelle Beauregard", "code_fiab": "1", "identifi": 3070, "oid": 1230917 }, "geometry": { "type": "LineString", "coordinates": [ [ 2.341126835167518, 48.882165998577626 ], [ 2.34122557460007, 48.882428043198694 ] ] } },
{ "type": "Feature", "properties": { "geo_point_2d": { "lon": 2.3666916773, "lat": 48.884394647699999 }, "id": "3250", "geo_fid": 3250, "geo_creati": 1530173617527, "geo_modifi": 1530173617527, "id_alpage": "TR3255", "type": null, "nom": null, "ref_scan": "ADO75CA_ANO331", "ref_scan2": null, "article": null, "nom2_scan2": null, "nom_entier": null, "code_fiab": "3", "identifi": 3255, "oid": 1231102 }, "geometry": { "type": "LineString", "coordinates": [ [ 2.364537867203821, 48.884512779229404 ], [ 2.365208879625717, 48.884505782361387 ], [ 2.367916575547893, 48.884351311387093 ], [ 2.36870552517206, 48.884114587987597 ], [ 2.368801071096338, 48.884051522602256 ] ] } },
{ "type": "Feature", "properties": { "geo_point_2d": { "lon": 2.3933502389200001, "lat": 48.856197462200001 }, "id": "3420", "geo_fid": 3420, "geo_creati": 1530173617544, "geo_modifi": 1530173617544, "id_alpage": "TR3425", "type": "Rue", "nom": "Charonne", "ref_scan": "ADO75CA_ANO492", "ref_scan2": null, "article": "de", "nom2_scan2": null, "nom_entier": "Rue de Charonne", "code_fiab": "1", "identifi": 3425, "oid": 1231272 }, "geometry": { "type": "LineString", "coordinates": [ [ 2.392326957076373, 48.85592054249026 ], [ 2.392478798662508, 48.855944299833453 ], [ 2.392663923450839, 48.855995738411671 ], [ 2.392832413658513, 48.856039271194625 ], [ 2.393401157136275, 48.856202750313827 ], [ 2.393746071274829, 48.856313100687835 ], [ 2.393985467022379, 48.856389599950397 ], [ 2.394364057422971, 48.856510633056622 ] ] } },
{ "type": "Feature", "properties": { "geo_point_2d": { "lon": 2.3482569661400001, "lat": 48.883603461600003 }, "id": "3050", "geo_fid": 3050, "geo_creati": 1530173617510, "geo_modifi": 1530173617510, "id_alpage": "TR3055", "type": "Boulevard", "nom": "Extérieur", "ref_scan": "ADO75CA_ANO135", "ref_scan2": null, "article": null, "nom2_scan2": null, "nom_entier": "Boulevard Extérieur", "code_fiab": "1", "identifi": 3055, "oid": 1230902 }, "geometry": { "type": "LineString", "coordinates": [ [ 2.346923110094687, 48.883471667082183 ], [ 2.349590822177887, 48.883735256020195 ] ] } },
{ "type": "Feature", "properties": { "geo_point_2d": { "lon": 2.39753527384, "lat": 48.852565013499998 }, "id": "3423", "geo_fid": 3423, "geo_creati": 1530173617544, "geo_modifi": 1530173617544, "id_alpage": "TR3428", "type": "Chemin", "nom": "Ronde", "ref_scan": "ADO75CA_ANO575", "ref_scan2": null, "article": "de", "nom2_scan2": null, "nom_entier": "Chemin de Ronde", "code_fiab": "1", "identifi": 3428, "oid": 1231275 }, "geometry": { "type": "LineString", "coordinates": [ [ 2.396546669797355, 48.853830407358593 ], [ 2.398523877885438, 48.851299619584452 ] ] } },
{ "type": "Feature", "properties": { "geo_point_2d": { "lon": 2.3986989150000002, "lat": 48.850908911399998 }, "id": "3424", "geo_fid": 3424, "geo_creati": 1530173617544, "geo_modifi": 1530173617544, "id_alpage": "TR3429", "type": "Chemin", "nom": "Ronde", "ref_scan": "ADO75CA_ANO572", "ref_scan2": null, "article": "de", "nom2_scan2": null, "nom_entier": "Chemin de Ronde", "code_fiab": "1", "identifi": 3429, "oid": 1231276 }, "geometry": { "type": "LineString", "coordinates": [ [ 2.398523877885438, 48.851299619584452 ], [ 2.398640882327999, 48.851149917769909 ], [ 2.398821846516125, 48.850492002493361 ] ] } },
{ "type": "Feature", "properties": { "geo_point_2d": { "lon": 2.3399665933199998, "lat": 48.881172793300003 }, "id": "2827", "geo_fid": 2827, "geo_creati": 1530173617490, "geo_modifi": 1530173617490, "id_alpage": "TR2827", "type": "Rue", "nom": "Martyrs", "ref_scan": "ADO75CA_ANO106", "ref_scan2": null, "article": "des", "nom2_scan2": null, "nom_entier": "Rue des Martyrs", "code_fiab": "1", "identifi": 2827, "oid": 1230679 }, "geometry": { "type": "LineString", "coordinates": [ [ 2.339629143335865, 48.881971527279781 ], [ 2.339642776171997, 48.881925574161691 ], [ 2.339751025195515, 48.881662894290095 ], [ 2.339828462183756, 48.881476922976354 ], [ 2.339936709243567, 48.881214153003015 ], [ 2.340090491723125, 48.880888162930589 ], [ 2.340140251562804, 48.880767299434268 ], [ 2.34023050216863, 48.880578989413308 ], [ 2.34034447653438, 48.880393376493352 ] ] } },
{ "type": "Feature", "properties": { "geo_point_2d": { "lon": 2.3593486212700001, "lat": 48.884019107 }, "id": "2841", "geo_fid": 2841, "geo_creati": 1530173617491, "geo_modifi": 1530173617491, "id_alpage": "TR2841", "type": "Rue", "nom": "Faubourg Saint Denis", "ref_scan": "ADO75CA_ANO184", "ref_scan2": null, "article": "du", "nom2_scan2": null, "nom_entier": "Rue du Faubourg Saint Denis", "code_fiab": "1", "identifi": 2841, "oid": 1230693 }, "geometry": { "type": "LineString", "coordinates": [ [ 2.359425489112558, 48.884391136392836 ], [ 2.359395689211645, 48.88422531629989 ], [ 2.359391861789833, 48.884204184134916 ], [ 2.359368486534451, 48.884073524349731 ], [ 2.359281350369618, 48.883756547592299 ], [ 2.359272848036964, 48.883647737241425 ] ] } },
{ "type": "Feature", "properties": { "geo_point_2d": { "lon": 2.3545224792899999, "lat": 48.884150797099998 }, "id": "3051", "geo_fid": 3051, "geo_creati": 1530173617510, "geo_modifi": 1530173617510, "id_alpage": "TR3056", "type": null, "nom": null, "ref_scan": "ADO75CA_ANO184", "ref_scan2": null, "article": null, "nom2_scan2": null, "nom_entier": null, "code_fiab": "3", "identifi": 3056, "oid": 1230903 }, "geometry": { "type": "LineString", "coordinates": [ [ 2.349590822177887, 48.883735256020195 ], [ 2.349994854046052, 48.883775229199152 ], [ 2.359400200086885, 48.88455570820333 ], [ 2.359454879414643, 48.884555337867283 ] ] } },
{ "type": "Feature", "properties": { "geo_point_2d": { "lon": 2.3032491094699998, "lat": 48.879106679300001 }, "id": "3054", "geo_fid": 3054, "geo_creati": 1530173617510, "geo_modifi": 1530173617510, "id_alpage": "TR3059", "type": "Rue", "nom": "Chartres", "ref_scan": "ADO75CA_ANO024", "ref_scan2": null, "article": "de", "nom2_scan2": null, "nom_entier": "Rue de Chartres", "code_fiab": "1", "identifi": 3059, "oid": 1230906 }, "geometry": { "type": "LineString", "coordinates": [ [ 2.303213847406452, 48.879132163216667 ], [ 2.303284371524974, 48.879081195429755 ] ] } },
{ "type": "Feature", "properties": { "geo_point_2d": { "lon": 2.3697882852899999, "lat": 48.882688712300002 }, "id": "3300", "geo_fid": 3300, "geo_creati": 1530173617529, "geo_modifi": 1530173617529, "id_alpage": "TR3305", "type": "Rue", "nom": "Chemin de Pantin", "ref_scan": "ADO75CA_ANO299", "ref_scan2": null, "article": "du", "nom2_scan2": null, "nom_entier": "Rue du Chemin de Pantin", "code_fiab": "1", "identifi": 3305, "oid": 1231152 }, "geometry": { "type": "LineString", "coordinates": [ [ 2.36959933482616, 48.882637192850069 ], [ 2.369977235745691, 48.882740231709946 ] ] } },
{ "type": "Feature", "properties": { "geo_point_2d": { "lon": 2.3818856365399999, "lat": 48.868022783900003 }, "id": "3462", "geo_fid": 3462, "geo_creati": 1530173617546, "geo_modifi": 1530173617546, "id_alpage": "TR3469", "type": "Chemin", "nom": "Ronde", "ref_scan": "ADO75CA_ANO395", "ref_scan2": null, "article": "de", "nom2_scan2": null, "nom_entier": "Chemin de Ronde", "code_fiab": "1", "identifi": 3469, "oid": 1231314 }, "geometry": { "type": "LineString", "coordinates": [ [ 2.380794067564524, 48.869008051925064 ], [ 2.380913278989503, 48.868934805596723 ], [ 2.382789026070017, 48.867207739074182 ], [ 2.382707410195052, 48.86709590209805 ], [ 2.382716836419624, 48.866969730401159 ], [ 2.382724327436896, 48.866963162727167 ] ] } },
{ "type": "Feature", "properties": { "geo_point_2d": { "lon": 2.29411685057, "lat": 48.870841725299996 }, "id": "2880", "geo_fid": 2880, "geo_creati": 1530173617493, "geo_modifi": 1530173617493, "id_alpage": "TR2881", "type": "Boulevard", "nom": "Extérieur", "ref_scan": "ADO75CA_ANO059", "ref_scan2": null, "article": null, "nom2_scan2": null, "nom_entier": "Boulevard Extérieur", "code_fiab": "1", "identifi": 2881, "oid": 1230732 }, "geometry": { "type": "LineString", "coordinates": [ [ 2.291866844002544, 48.868819499494116 ], [ 2.293167232524618, 48.869341406724374 ], [ 2.295760837344756, 48.873035060744868 ], [ 2.295981833699074, 48.873349796240177 ] ] } },
{ "type": "Feature", "properties": { "geo_point_2d": { "lon": 2.2980653428000002, "lat": 48.874293965100001 }, "id": "2900", "geo_fid": 2900, "geo_creati": 1530173617494, "geo_modifi": 1530173617494, "id_alpage": "TR2903", "type": "Chemin", "nom": "Ronde", "ref_scan": "ADO75CA_ANO056", "ref_scan2": null, "article": "de", "nom2_scan2": null, "nom_entier": "Chemin de Ronde", "code_fiab": "1", "identifi": 2903, "oid": 1230752 }, "geometry": { "type": "LineString", "coordinates": [ [ 2.30145816999602, 48.872106869028357 ], [ 2.301274501240212, 48.872163195763804 ], [ 2.297215820088212, 48.87340769861467 ], [ 2.29714088695149, 48.873518642587527 ], [ 2.297140777520452, 48.873654342788264 ], [ 2.297103284234779, 48.873827079897801 ], [ 2.297103144866859, 48.873999740193838 ], [ 2.296990786444646, 48.874197091019049 ], [ 2.296878447203738, 48.874369711743888 ], [ 2.296691251778595, 48.874554625858067 ], [ 2.296429386084139, 48.874690232884205 ], [ 2.296167382629615, 48.874825839261277 ], [ 2.29807235235269, 48.8777497736519 ] ] } },
{ "type": "Feature", "properties": { "geo_point_2d": { "lon": 2.3403795537900001, "lat": 48.882077050100001 }, "id": "3064", "geo_fid": 3064, "geo_creati": 1530173617511, "geo_modifi": 1530173617511, "id_alpage": "TR3069", "type": "Chemin", "nom": "Ronde", "ref_scan": "ADO75CA_ANO136", "ref_scan2": null, "article": "de", "nom2_scan2": null, "nom_entier": "Chemin de Ronde", "code_fiab": "1", "identifi": 3069, "oid": 1230916 }, "geometry": { "type": "LineString", "coordinates": [ [ 2.341131881034875, 48.882177059458201 ], [ 2.340839812871927, 48.882126709813129 ], [ 2.340140463217576, 48.882049842008072 ], [ 2.339760041953876, 48.882008844260397 ], [ 2.339629143335865, 48.881971527279781 ] ] } },
{ "type": "Feature", "properties": { "geo_point_2d": { "lon": 2.34824691713, "lat": 48.883481385899998 }, "id": "3068", "geo_fid": 3068, "geo_creati": 1530173617511, "geo_modifi": 1530173617511, "id_alpage": "TR3073", "type": "Chemin", "nom": "Ronde", "ref_scan": "ADO75CA_ANO135", "ref_scan2": null, "article": "de", "nom2_scan2": null, "nom_entier": "Chemin de Ronde", "code_fiab": "1", "identifi": 3073, "oid": 1230920 }, "geometry": { "type": "LineString", "coordinates": [ [ 2.349608791728419, 48.883617359431 ], [ 2.346885042539431, 48.883345412431225 ] ] } },
{ "type": "Feature", "properties": { "geo_point_2d": { "lon": 2.36652669363, "lat": 48.884214455699997 }, "id": "3249", "geo_fid": 3249, "geo_creati": 1530173617527, "geo_modifi": 1530173617527, "id_alpage": "TR3254", "type": "Chemin", "nom": "Ronde", "ref_scan": "ADO75CA_ANO331", "ref_scan2": null, "article": "de", "nom2_scan2": null, "nom_entier": "Chemin de Ronde", "code_fiab": "1", "identifi": 3254, "oid": 1231101 }, "geometry": { "type": "LineString", "coordinates": [ [ 2.364434946137033, 48.884316762342813 ], [ 2.366051582994126, 48.884292714983964 ], [ 2.367719279544872, 48.884150286844196 ], [ 2.36832884899267, 48.884020087674585 ], [ 2.368562191135993, 48.883861572055345 ] ] } },
{ "type": "Feature", "properties": { "geo_point_2d": { "lon": 2.3795775535699999, "lat": 48.869867934799998 }, "id": "3293", "geo_fid": 3293, "geo_creati": 1530173617528, "geo_modifi": 1530173617528, "id_alpage": "TR3298", "type": "Chemin", "nom": "Ronde", "ref_scan": "ADO75CA_ANO396", "ref_scan2": null, "article": "de", "nom2_scan2": null, "nom_entier": "Chemin de Ronde", "code_fiab": "1", "identifi": 3298, "oid": 1231145 }, "geometry": { "type": "LineString", "coordinates": [ [ 2.378401436139197, 48.870785542538115 ], [ 2.380117348060473, 48.869423052595835 ], [ 2.380794067564524, 48.869008051925064 ] ] } },
{ "type": "Feature", "properties": { "geo_point_2d": { "lon": 2.39875857487, "lat": 48.851336453199998 }, "id": "3613", "geo_fid": 3613, "geo_creati": 1530173617562, "geo_modifi": 1530173617562, "id_alpage": "TR3620", "type": "Rue", "nom": "Montreuil", "ref_scan": "ADO75CA_ANO575", "ref_scan2": null, "article": "de", "nom2_scan2": null, "nom_entier": "Rue de Montreuil", "code_fiab": "1", "identifi": 3620, "oid": 1231465 }, "geometry": { "type": "LineString", "coordinates": [ [ 2.398523877885438, 48.851299619584452 ], [ 2.398993271857036, 48.851373286794853 ] ] } },
{ "type": "Feature", "properties": { "geo_point_2d": { "lon": 2.3759316179300001, "lat": 48.871717055300003 }, "id": "2552", "geo_fid": 2552, "geo_creati": 1530173617440, "geo_modifi": 1530173617440, "id_alpage": "TR2552", "type": "Rue", "nom": "Faubourg du Temple", "ref_scan": "ADO75CA_ANO294", "ref_scan2": null, "article": "du", "nom2_scan2": null, "nom_entier": "Rue du Faubourg du Temple", "code_fiab": "1", "identifi": 2552, "oid": 1230404 }, "geometry": { "type": "LineString", "coordinates": [ [ 2.376848927769639, 48.872033922359279 ], [ 2.376705339803227, 48.871984422162001 ], [ 2.37663075055182, 48.871958728723918 ], [ 2.376582477805441, 48.871940669988994 ], [ 2.376422119657274, 48.871887398268548 ], [ 2.37634875746321, 48.871861524370807 ], [ 2.37627376180202, 48.871838618584071 ], [ 2.375825541714482, 48.871675732822972 ], [ 2.375170754663495, 48.871457878636868 ], [ 2.3750283963126, 48.871407566579229 ], [ 2.375013533276649, 48.871402355716711 ] ] } },
{ "type": "Feature", "properties": { "geo_point_2d": { "lon": 2.3097701768299999, "lat": 48.880371558 }, "id": "2912", "geo_fid": 2912, "geo_creati": 1530173617494, "geo_modifi": 1530173617494, "id_alpage": "TR2915", "type": "Boulevard", "nom": "Extérieur", "ref_scan": "ADO75CA_ANO026", "ref_scan2": null, "article": null, "nom2_scan2": null, "nom_entier": "Boulevard Extérieur", "code_fiab": "1", "identifi": 2915, "oid": 1230764 }, "geometry": { "type": "LineString", "coordinates": [ [ 2.303213847406452, 48.879132163216667 ], [ 2.309415912359352, 48.880422229086541 ], [ 2.315712013516835, 48.881300468788154 ], [ 2.316359893181733, 48.881420372050179 ] ] } },
{ "type": "Feature", "properties": { "geo_point_2d": { "lon": 2.3298875514700002, "lat": 48.883965700399997 }, "id": "3058", "geo_fid": 3058, "geo_creati": 1530173617510, "geo_modifi": 1530173617510, "id_alpage": "TR3063", "type": "Chemin", "nom": "Ronde", "ref_scan": "ADO75CA_ANO108", "ref_scan2": null, "article": "de", "nom2_scan2": null, "nom_entier": "Chemin de Ronde", "code_fiab": "3", "identifi": 3063, "oid": 1230910 }, "geometry": { "type": "LineString", "coordinates": [ [ 2.332574335578409, 48.883646982808713 ], [ 2.331676955001325, 48.883880753658062 ], [ 2.329377216846187, 48.884479534460112 ], [ 2.328265074836894, 48.883774243082826 ], [ 2.328149598284023, 48.883682688017458 ], [ 2.328268526733337, 48.883535576398202 ], [ 2.327486980543763, 48.883326971152336 ] ] } },
{ "type": "Feature", "properties": { "geo_point_2d": { "lon": 2.34403810406, "lat": 48.882709873899998 }, "id": "3067", "geo_fid": 3067, "geo_creati": 1530173617511, "geo_modifi": 1530173617511, "id_alpage": "TR3072", "type": "Chemin", "nom": "Ronde", "ref_scan": "ADO75CA_ANO136", "ref_scan2": null, "article": "de", "nom2_scan2": null, "nom_entier": "Chemin de Ronde", "code_fiab": "1", "identifi": 3072, "oid": 1230919 }, "geometry": { "type": "LineString", "coordinates": [ [ 2.346885042539431, 48.883345412431225 ], [ 2.346824909053288, 48.883339482301743 ], [ 2.346689616818308, 48.883189494918803 ], [ 2.341131881034875, 48.882177059458201 ] ] } },
{ "type": "Feature", "properties": { "geo_point_2d": { "lon": 2.35451714042, "lat": 48.884004247900002 }, "id": "3092", "geo_fid": 3092, "geo_creati": 1530173617512, "geo_modifi": 1530173617512, "id_alpage": "TR3097", "type": "Chemin", "nom": "Ronde de la Barrière Saint Denis", "ref_scan": "ADO75CA_ANO184", "ref_scan2": null, "article": "de", "nom2_scan2": null, "nom_entier": "Chemin de Ronde de la Barrière Saint Denis", "code_fiab": "1", "identifi": 3097, "oid": 1230944 }, "geometry": { "type": "LineString", "coordinates": [ [ 2.349608791728419, 48.883617359431 ], [ 2.359425489112558, 48.884391136392836 ] ] } },
{ "type": "Feature", "properties": { "geo_point_2d": { "lon": 2.3604954095599999, "lat": 48.884375226099998 }, "id": "3257", "geo_fid": 3257, "geo_creati": 1530173617527, "geo_modifi": 1530173617527, "id_alpage": "TR3262", "type": "Chemin", "nom": "Ronde", "ref_scan": "ADO75CA_ANO326", "ref_scan2": null, "article": "de", "nom2_scan2": null, "nom_entier": "Chemin de Ronde", "code_fiab": "1", "identifi": 3262, "oid": 1231109 }, "geometry": { "type": "LineString", "coordinates": [ [ 2.359425489112558, 48.884391136392836 ], [ 2.3615653300149, 48.884359315895281 ] ] } },
{ "type": "Feature", "properties": { "geo_point_2d": { "lon": 2.3969121967799998, "lat": 48.854013469599998 }, "id": "3612", "geo_fid": 3612, "geo_creati": 1530173617562, "geo_modifi": 1530173617562, "id_alpage": "TR3619", "type": null, "nom": null, "ref_scan": "ADO75CA_ANO575", "ref_scan2": null, "article": null, "nom2_scan2": null, "nom_entier": null, "code_fiab": "3", "identifi": 3619, "oid": 1231464 }, "geometry": { "type": "LineString", "coordinates": [ [ 2.394831121701128, 48.856653652483836 ], [ 2.398993271857036, 48.851373286794853 ] ] } },
{ "type": "Feature", "properties": { "geo_point_2d": { "lon": 2.3990984110100002, "lat": 48.850943422599997 }, "id": "3678", "geo_fid": 3678, "geo_creati": 1530173617565, "geo_modifi": 1530173617565, "id_alpage": "TR3685", "type": null, "nom": null, "ref_scan": "ADO75CA_ANO572", "ref_scan2": null, "article": null, "nom2_scan2": null, "nom_entier": null, "code_fiab": "3", "identifi": 3685, "oid": 1231530 }, "geometry": { "type": "LineString", "coordinates": [ [ 2.398993271857036, 48.851373286794853 ], [ 2.399203550167762, 48.850513558310119 ] ] } },
{ "type": "Feature", "properties": { "geo_point_2d": { "lon": 2.3993823720099998, "lat": 48.849110511600003 }, "id": "3699", "geo_fid": 3699, "geo_creati": 1530173617566, "geo_modifi": 1530173617566, "id_alpage": "TR3706", "type": null, "nom": null, "ref_scan": null, "ref_scan2": null, "article": null, "nom2_scan2": null, "nom_entier": null, "code_fiab": "5", "identifi": 3706, "oid": 1231551 }, "geometry": { "type": "LineString", "coordinates": [ [ 2.39891944906492, 48.848105820388 ], [ 2.398982093595428, 48.848517203634977 ], [ 2.39974467375295, 48.848468048007497 ], [ 2.399203550167762, 48.850513558310119 ] ] } },
{ "type": "Feature", "properties": { "geo_point_2d": { "lon": 2.3692908931500001, "lat": 48.883323413500001 }, "id": "3252", "geo_fid": 3252, "geo_creati": 1530173617527, "geo_modifi": 1530173617527, "id_alpage": "TR3257", "type": "Chemin", "nom": "Ronde de la Barrière de la Villette", "ref_scan": "ADO75CA_ANO299", "ref_scan2": null, "article": "de", "nom2_scan2": null, "nom_entier": "Chemin de Ronde de la Barrière de la Villette", "code_fiab": "1", "identifi": 3257, "oid": 1231104 }, "geometry": { "type": "LineString", "coordinates": [ [ 2.368562191135993, 48.883861572055345 ], [ 2.368938370406247, 48.88360598487246 ], [ 2.369906130951773, 48.882848794288279 ], [ 2.369977235745691, 48.882740231709946 ] ] } },
{ "type": "Feature", "properties": { "geo_point_2d": { "lon": 2.3704791194500001, "lat": 48.880448470099999 }, "id": "3308", "geo_fid": 3308, "geo_creati": 1530173617529, "geo_modifi": 1530173617529, "id_alpage": "TR3313", "type": "Boulevard", "nom": "Extérieur", "ref_scan": "ADO75CA_ANO297", "ref_scan2": null, "article": null, "nom2_scan2": null, "nom_entier": "Boulevard Extérieur", "code_fiab": "1", "identifi": 3313, "oid": 1231160 }, "geometry": { "type": "LineString", "coordinates": [ [ 2.370535091738901, 48.882794566337701 ], [ 2.370423147165911, 48.87810237395427 ] ] } },
{ "type": "Feature", "properties": { "geo_point_2d": { "lon": 2.3724052592099998, "lat": 48.874658595299998 }, "id": "2714", "geo_fid": 2714, "geo_creati": 1530173617466, "geo_modifi": 1530173617466, "id_alpage": "TR2714", "type": "Rue", "nom": "Chopinette", "ref_scan": "ADO75CA_ANO296", "ref_scan2": null, "article": "de la", "nom2_scan2": null, "nom_entier": "Rue de la Chopinette", "code_fiab": "1", "identifi": 2714, "oid": 1230566 }, "geometry": { "type": "LineString", "coordinates": [ [ 2.370320600018817, 48.875207195477444 ], [ 2.370354812559951, 48.875196933851541 ], [ 2.370473665491665, 48.875154004013069 ], [ 2.370610913601534, 48.875097040022922 ], [ 2.370965828316956, 48.874959257096407 ], [ 2.371090817699374, 48.874920191675038 ], [ 2.371197272470593, 48.874890843775241 ], [ 2.371585876230439, 48.87477966736612 ], [ 2.371904303775512, 48.874719859429035 ], [ 2.372086823132656, 48.874680415727063 ], [ 2.372455024883325, 48.874641454176668 ], [ 2.373064484758749, 48.874538207928836 ], [ 2.37317504183004, 48.874528730823044 ], [ 2.373224934163236, 48.874522420200691 ], [ 2.374204277137166, 48.87426653405609 ], [ 2.374513139531009, 48.874185858816482 ] ] } },
{ "type": "Feature", "properties": { "geo_point_2d": { "lon": 2.3168443189199999, "lat": 48.880982848400002 }, "id": "2831", "geo_fid": 2831, "geo_creati": 1530173617490, "geo_modifi": 1530173617490, "id_alpage": "TR2831", "type": "Rue", "nom": "Rocher", "ref_scan": "ADO75CA_ANO027", "ref_scan2": null, "article": "du", "nom2_scan2": null, "nom_entier": "Rue du Rocher", "code_fiab": "1", "identifi": 2831, "oid": 1230683 }, "geometry": { "type": "LineString", "coordinates": [ [ 2.317082956192308, 48.880740022207455 ], [ 2.317030442874912, 48.880788213950545 ], [ 2.316855700438793, 48.880986562472586 ], [ 2.316625325045994, 48.881188138093101 ], [ 2.316594908262291, 48.881214751074992 ] ] } },
{ "type": "Feature", "properties": { "geo_point_2d": { "lon": 2.33265634772, "lat": 48.8837088561 }, "id": "3059", "geo_fid": 3059, "geo_creati": 1530173617510, "geo_modifi": 1530173617510, "id_alpage": "TR3064", "type": "Rue", "nom": "Blanche", "ref_scan": "ADO75CA_ANO108", "ref_scan2": null, "article": null, "nom2_scan2": null, "nom_entier": "Rue Blanche", "code_fiab": "1", "identifi": 3064, "oid": 1230911 }, "geometry": { "type": "LineString", "coordinates": [ [ 2.332590016752564, 48.883643656136861 ], [ 2.332722678681056, 48.883774055969241 ] ] } },
{ "type": "Feature", "properties": { "geo_point_2d": { "lon": 2.3605078318100001, "lat": 48.884549547799999 }, "id": "3259", "geo_fid": 3259, "geo_creati": 1530173617527, "geo_modifi": 1530173617527, "id_alpage": "TR3264", "type": null, "nom": null, "ref_scan": "ADO75CA_ANO326", "ref_scan2": null, "article": null, "nom2_scan2": null, "nom_entier": null, "code_fiab": "3", "identifi": 3264, "oid": 1231111 }, "geometry": { "type": "LineString", "coordinates": [ [ 2.359454879414643, 48.884555337867283 ], [ 2.36156078420234, 48.88454375769016 ] ] } },
{ "type": "Feature", "properties": { "geo_point_2d": { "lon": 2.37485836381, "lat": 48.873879093100001 }, "id": "3290", "geo_fid": 3290, "geo_creati": 1530173617528, "geo_modifi": 1530173617528, "id_alpage": "TR3295", "type": "Chemin", "nom": "Ronde", "ref_scan": "ADO75CA_ANO295", "ref_scan2": null, "article": "de", "nom2_scan2": null, "nom_entier": "Chemin de Ronde", "code_fiab": "3", "identifi": 3295, "oid": 1231142 }, "geometry": { "type": "LineString", "coordinates": [ [ 2.374513139531009, 48.874185858816482 ], [ 2.375203588092566, 48.873572327399174 ] ] } },
{ "type": "Feature", "properties": { "geo_point_2d": { "lon": 2.3954770946399999, "lat": 48.855196508799999 }, "id": "3422", "geo_fid": 3422, "geo_creati": 1530173617544, "geo_modifi": 1530173617544, "id_alpage": "TR3427", "type": "Chemin", "nom": "Ronde", "ref_scan": "ADO75CA_ANO575", "ref_scan2": null, "article": "de", "nom2_scan2": null, "nom_entier": "Chemin de Ronde", "code_fiab": "1", "identifi": 3427, "oid": 1231274 }, "geometry": { "type": "LineString", "coordinates": [ [ 2.394364057422971, 48.856510633056622 ], [ 2.394409275369255, 48.856486869625812 ], [ 2.394514420223779, 48.856431331806064 ], [ 2.396546669797355, 48.853830407358593 ] ] } },
{ "type": "Feature", "properties": { "geo_point_2d": { "lon": 2.30034972249, "lat": 48.878572268600003 }, "id": "2932", "geo_fid": 2932, "geo_creati": 1530173617495, "geo_modifi": 1530173617495, "id_alpage": "TR2936", "type": "Boulevard", "nom": "Extérieur", "ref_scan": "ADO75CA_ANO025", "ref_scan2": null, "article": null, "nom2_scan2": null, "nom_entier": "Boulevard Extérieur", "code_fiab": "1", "identifi": 2936, "oid": 1230784 }, "geometry": { "type": "LineString", "coordinates": [ [ 2.297744257234069, 48.877829156443958 ], [ 2.298179386814163, 48.878433527299002 ], [ 2.29898230277254, 48.878251786098865 ], [ 2.303213847406452, 48.879132163216667 ] ] } },
{ "type": "Feature", "properties": { "geo_point_2d": { "lon": 2.3920411700700002, "lat": 48.857583434699997 }, "id": "3421", "geo_fid": 3421, "geo_creati": 1530173617544, "geo_modifi": 1530173617544, "id_alpage": "TR3426", "type": "Chemin", "nom": "Ronde", "ref_scan": "ADO75CA_ANO492", "ref_scan2": null, "article": "de", "nom2_scan2": null, "nom_entier": "Chemin de Ronde", "code_fiab": "1", "identifi": 3426, "oid": 1231273 }, "geometry": { "type": "LineString", "coordinates": [ [ 2.389662505400428, 48.858453249230763 ], [ 2.389701125635849, 48.858372656673502 ], [ 2.392070285024106, 48.857721009581638 ], [ 2.394364057422971, 48.856510633056622 ] ] } },
{ "type": "Feature", "properties": { "geo_point_2d": { "lon": 2.33958319659, "lat": 48.882045673299999 }, "id": "3062", "geo_fid": 3062, "geo_creati": 1530173617510, "geo_modifi": 1530173617510, "id_alpage": "TR3067", "type": "Rue", "nom": "Martyrs", "ref_scan": "ADO75CA_ANO106", "ref_scan2": null, "article": "des", "nom2_scan2": null, "nom_entier": "Rue des Martyrs", "code_fiab": "1", "identifi": 3067, "oid": 1230914 }, "geometry": { "type": "LineString", "coordinates": [ [ 2.33953724984311, 48.88211981923115 ], [ 2.339629143335865, 48.881971527279781 ] ] } },
{ "type": "Feature", "properties": { "geo_point_2d": { "lon": 2.3469042125700001, "lat": 48.883408000199999 }, "id": "3066", "geo_fid": 3066, "geo_creati": 1530173617511, "geo_modifi": 1530173617511, "id_alpage": "TR3071", "type": "Rue", "nom": "Rochechouard", "ref_scan": "ADO75CA_ANO136", "ref_scan2": null, "article": "de", "nom2_scan2": null, "nom_entier": "Rue de Rochechouard", "code_fiab": "1", "identifi": 3071, "oid": 1230918 }, "geometry": { "type": "LineString", "coordinates": [ [ 2.346923110094687, 48.883471667082183 ], [ 2.346885315038617, 48.883344333280981 ] ] } },
{ "type": "Feature", "properties": { "geo_point_2d": { "lon": 2.2963382207800001, "lat": 48.873232749099998 }, "id": "4227", "geo_fid": 4227, "geo_creati": 1530173617623, "geo_modifi": 1530173617623, "id_alpage": "TR4237", "type": "Avenue", "nom": "Neuilly", "ref_scan": "ADO75CA_ANO056", "ref_scan2": null, "article": "de", "nom2_scan2": null, "nom_entier": "Avenue de Neuilly", "code_fiab": "1", "identifi": 4237, "oid": 1232079 }, "geometry": { "type": "LineString", "coordinates": [ [ 2.29621256172378, 48.873273980699601 ], [ 2.296463879826321, 48.873191517424708 ] ] } },
{ "type": "Feature", "properties": { "geo_point_2d": { "lon": 2.3268045744700001, "lat": 48.883442856800002 }, "id": "4234", "geo_fid": 4234, "geo_creati": 1530173617623, "geo_modifi": 1530173617623, "id_alpage": "TR4244", "type": "Boulevard", "nom": "Extérieur", "ref_scan": "ADO75CA_ANO028", "ref_scan2": null, "article": null, "nom2_scan2": null, "nom_entier": "Boulevard Extérieur", "code_fiab": "1", "identifi": 4244, "oid": 1232086 }, "geometry": { "type": "LineString", "coordinates": [ [ 2.326240291341997, 48.883328566735102 ], [ 2.326281741257765, 48.883336933947326 ], [ 2.327368851932858, 48.883557174817518 ] ] } },
{ "type": "Feature", "properties": { "geo_point_2d": { "lon": 2.3630493257, "lat": 48.884528268499999 }, "id": "3253", "geo_fid": 3253, "geo_creati": 1530173617527, "geo_modifi": 1530173617527, "id_alpage": "TR3258", "type": null, "nom": null, "ref_scan": "ADO75CA_ANO329", "ref_scan2": null, "article": null, "nom2_scan2": null, "nom_entier": null, "code_fiab": "3", "identifi": 3258, "oid": 1231105 }, "geometry": { "type": "LineString", "coordinates": [ [ 2.36156078420234, 48.88454375769016 ], [ 2.364537867203821, 48.884512779229404 ] ] } },
{ "type": "Feature", "properties": { "geo_point_2d": { "lon": 2.3615630571100001, "lat": 48.8844515368 }, "id": "3254", "geo_fid": 3254, "geo_creati": 1530173617527, "geo_modifi": 1530173617527, "id_alpage": "TR3259", "type": "Rue", "nom": "Chapelle", "ref_scan": "ADO75CA_ANO326", "ref_scan2": null, "article": "de la", "nom2_scan2": null, "nom_entier": "Rue de la Chapelle", "code_fiab": "1", "identifi": 3259, "oid": 1231106 }, "geometry": { "type": "LineString", "coordinates": [ [ 2.3615653300149, 48.884359315895281 ], [ 2.36156078420234, 48.88454375769016 ] ] } },
{ "type": "Feature", "properties": { "geo_point_2d": { "lon": 2.3701698599899998, "lat": 48.878255862899998 }, "id": "4284", "geo_fid": 4284, "geo_creati": 1530173617627, "geo_modifi": 1530173617627, "id_alpage": "TR4294", "type": "Rue", "nom": "Buttes Chaumont", "ref_scan": "ADO75CA_ANO297", "ref_scan2": null, "article": "des", "nom2_scan2": null, "nom_entier": "Rue des Buttes Chaumont", "code_fiab": "1", "identifi": 4294, "oid": 1232136 }, "geometry": { "type": "LineString", "coordinates": [ [ 2.369916572809033, 48.878409351883484 ], [ 2.370423147165911, 48.87810237395427 ] ] } },
{ "type": "Feature", "properties": { "geo_point_2d": { "lon": 2.3760353453700001, "lat": 48.872812877000001 }, "id": "3291", "geo_fid": 3291, "geo_creati": 1530173617528, "geo_modifi": 1530173617528, "id_alpage": "TR3296", "type": "Chemin", "nom": "Ronde de la Barrière de Belleville", "ref_scan": "ADO75CA_ANO294", "ref_scan2": null, "article": "de", "nom2_scan2": null, "nom_entier": "Chemin de Ronde de la Barrière de Belleville", "code_fiab": "1", "identifi": 3296, "oid": 1231143 }, "geometry": { "type": "LineString", "coordinates": [ [ 2.375203588092566, 48.873572327399174 ], [ 2.375985976117743, 48.872877286545886 ], [ 2.376848927769639, 48.872033922359279 ] ] } },
{ "type": "Feature", "properties": { "geo_point_2d": { "lon": 2.39789066738, "lat": 48.849808112300003 }, "id": "1074", "geo_fid": 1074, "geo_creati": 1530173617244, "geo_modifi": 1530173617244, "id_alpage": "TR1074", "type": "Avenue", "nom": "Triomphes", "ref_scan": "ADO75CA_ANO572", "ref_scan2": null, "article": "des", "nom2_scan2": null, "nom_entier": "Avenue des Triomphes", "code_fiab": "1", "identifi": 1074, "oid": 1228926 }, "geometry": { "type": "LineString", "coordinates": [ [ 2.398821846516125, 48.850492002493361 ], [ 2.398486321821453, 48.850237059437156 ], [ 2.398244909647675, 48.850053467365854 ], [ 2.398077690642997, 48.849922532627261 ], [ 2.397238852408125, 48.84935490628299 ], [ 2.397061551090451, 48.849220648052544 ], [ 2.396950533727056, 48.849136624216918 ] ] } },
{ "type": "Feature", "properties": { "geo_point_2d": { "lon": 2.38864476479, "lat": 48.858242315699997 }, "id": "1367", "geo_fid": 1367, "geo_creati": 1530173617275, "geo_modifi": 1530173617275, "id_alpage": "TR1367", "type": "Rue", "nom": "Rats", "ref_scan": "ADO75CA_ANO493", "ref_scan2": null, "article": "des", "nom2_scan2": null, "nom_entier": "Rue des Rats", "code_fiab": "1", "identifi": 1367, "oid": 1229219 }, "geometry": { "type": "LineString", "coordinates": [ [ 2.38761860494588, 48.858034928726447 ], [ 2.387703255229591, 48.858051887585873 ], [ 2.388046355184112, 48.858120529739374 ], [ 2.388364646946795, 48.8581841460501 ], [ 2.388585747788771, 48.858228380946194 ], [ 2.388904040838597, 48.85829190582637 ], [ 2.388997961400435, 48.858310748002722 ], [ 2.389092018225519, 48.858329500112802 ], [ 2.38924414515752, 48.858359916247849 ], [ 2.389240340252989, 48.858370529396467 ], [ 2.389339985858491, 48.858390088101693 ], [ 2.389662505400428, 48.858453249230763 ] ] } },
{ "type": "Feature", "properties": { "geo_point_2d": { "lon": 2.3790305336199999, "lat": 48.868266521499997 }, "id": "2297", "geo_fid": 2297, "geo_creati": 1530173617405, "geo_modifi": 1530173617405, "id_alpage": "TR2297", "type": "Rue", "nom": "Trois Couronnes", "ref_scan": "ADO75CA_ANO396", "ref_scan2": null, "article": "des", "nom2_scan2": null, "nom_entier": "Rue des Trois Couronnes", "code_fiab": "1", "identifi": 2297, "oid": 1230149 }, "geometry": { "type": "LineString", "coordinates": [ [ 2.377150669933646, 48.867863890321729 ], [ 2.377233135307601, 48.867859634881725 ], [ 2.377262035120709, 48.867861693080954 ], [ 2.37780368632135, 48.867963839128407 ], [ 2.378470336890881, 48.868064138988579 ], [ 2.379026279992452, 48.868135788737661 ], [ 2.379432029418044, 48.868232940800105 ], [ 2.379784689004143, 48.868412754367803 ], [ 2.38023774503055, 48.868669686669087 ], [ 2.380509290603178, 48.868834870379636 ], [ 2.380794067564524, 48.869008051925064 ] ] } },
{ "type": "Feature", "properties": { "geo_point_2d": { "lon": 2.2979105228200001, "lat": 48.872719020300003 }, "id": "2658", "geo_fid": 2658, "geo_creati": 1530173617461, "geo_modifi": 1530173617461, "id_alpage": "TR2658", "type": "Avenue", "nom": "Neuilly", "ref_scan": "ADO75CA_ANO056", "ref_scan2": null, "article": "de", "nom2_scan2": null, "nom_entier": "Avenue de Neuilly", "code_fiab": "1", "identifi": 2658, "oid": 1230510 }, "geometry": { "type": "LineString", "coordinates": [ [ 2.296463879826321, 48.873191517424708 ], [ 2.296717379050344, 48.873108155098123 ], [ 2.297579733400902, 48.872824916981038 ], [ 2.298172496001585, 48.872627730827141 ], [ 2.299360579096787, 48.87225718086912 ] ] } },
{ "type": "Feature", "properties": { "geo_point_2d": { "lon": 2.3615945633300002, "lat": 48.883740736199996 }, "id": "2851", "geo_fid": 2851, "geo_creati": 1530173617492, "geo_modifi": 1530173617492, "id_alpage": "TR2851", "type": "Rue", "nom": "Chapelle", "ref_scan": "ADO75CA_ANO326", "ref_scan2": null, "article": "de la", "nom2_scan2": null, "nom_entier": "Rue de la Chapelle", "code_fiab": "1", "identifi": 2851, "oid": 1230703 }, "geometry": { "type": "LineString", "coordinates": [ [ 2.361643535088376, 48.88311920219185 ], [ 2.361616488865509, 48.883298882648461 ], [ 2.36161207942994, 48.883482784850429 ], [ 2.361609241926682, 48.88353566268907 ], [ 2.361592130078221, 48.883676132731367 ], [ 2.36158785277428, 48.883851671669206 ], [ 2.361579296777502, 48.883921906689281 ], [ 2.361577023590821, 48.884013453132042 ], [ 2.36156846755088, 48.884083688151456 ], [ 2.361575966939711, 48.884083236916858 ], [ 2.361570008008762, 48.884166420909338 ], [ 2.361567734793778, 48.884257967352227 ], [ 2.3615653300149, 48.884359315895281 ] ] } },
{ "type": "Feature", "properties": { "geo_point_2d": { "lon": 2.2947728465299999, "lat": 48.871283845800001 }, "id": "2881", "geo_fid": 2881, "geo_creati": 1530173617493, "geo_modifi": 1530173617493, "id_alpage": "TR2882", "type": "Chemin", "nom": "Ronde", "ref_scan": "ADO75CA_ANO059", "ref_scan2": null, "article": "de", "nom2_scan2": null, "nom_entier": "Chemin de Ronde", "code_fiab": "1", "identifi": 2882, "oid": 1230733 }, "geometry": { "type": "LineString", "coordinates": [ [ 2.293339445612322, 48.869289495063391 ], [ 2.293393757804478, 48.869377824485937 ], [ 2.295914076067085, 48.872861376793203 ], [ 2.29621256172378, 48.873273980699601 ] ] } },
{ "type": "Feature", "properties": { "geo_point_2d": { "lon": 2.29609719771, "lat": 48.873311888499998 }, "id": "2899", "geo_fid": 2899, "geo_creati": 1530173617494, "geo_modifi": 1530173617494, "id_alpage": "TR2902", "type": "Avenue", "nom": "Neuilly", "ref_scan": "ADO75CA_ANO056", "ref_scan2": null, "article": "de", "nom2_scan2": null, "nom_entier": "Avenue de Neuilly", "code_fiab": "1", "identifi": 2902, "oid": 1230751 }, "geometry": { "type": "LineString", "coordinates": [ [ 2.295981833699074, 48.873349796240177 ], [ 2.29621256172378, 48.873273980699601 ] ] } },
{ "type": "Feature", "properties": { "geo_point_2d": { "lon": 2.3350592203099998, "lat": 48.882914300000003 }, "id": "3060", "geo_fid": 3060, "geo_creati": 1530173617510, "geo_modifi": 1530173617510, "id_alpage": "TR3065", "type": "Chemin", "nom": "Ronde", "ref_scan": "ADO75CA_ANO107", "ref_scan2": null, "article": "de", "nom2_scan2": null, "nom_entier": "Chemin de Ronde", "code_fiab": "3", "identifi": 3065, "oid": 1230912 }, "geometry": { "type": "LineString", "coordinates": [ [ 2.337500845816531, 48.882188276987613 ], [ 2.337474666335683, 48.882183510903594 ], [ 2.337318816717767, 48.882155184054298 ], [ 2.33713078824506, 48.882211838232273 ], [ 2.33703943236229, 48.882332340651764 ], [ 2.334959630930974, 48.88295740278096 ], [ 2.332574335578409, 48.883646982808713 ] ] } },
{ "type": "Feature", "properties": { "geo_point_2d": { "lon": 2.3099733007199998, "lat": 48.880293305800002 }, "id": "3070", "geo_fid": 3070, "geo_creati": 1530173617511, "geo_modifi": 1530173617511, "id_alpage": "TR3075", "type": "Chemin", "nom": "Ronde", "ref_scan": "ADO75CA_ANO026", "ref_scan2": null, "article": "de", "nom2_scan2": null, "nom_entier": "Chemin de Ronde", "code_fiab": "3", "identifi": 3075, "oid": 1230922 }, "geometry": { "type": "LineString", "coordinates": [ [ 2.303355713983758, 48.87902959835106 ], [ 2.303409425158835, 48.879041124951321 ], [ 2.309095441842095, 48.8802806950481 ], [ 2.315557311466439, 48.881176699641657 ], [ 2.315621834235186, 48.881107917503286 ], [ 2.315686478988221, 48.881071868875146 ], [ 2.315775931951042, 48.881052191632136 ], [ 2.316049016465669, 48.881101432783169 ], [ 2.316491019549217, 48.881193239654287 ], [ 2.316594908262291, 48.881214751074992 ] ] } },
{ "type": "Feature", "properties": { "geo_point_2d": { "lon": 2.3008318503299998, "lat": 48.8785180633 }, "id": "3071", "geo_fid": 3071, "geo_creati": 1530173617511, "geo_modifi": 1530173617511, "id_alpage": "TR3076", "type": "Chemin", "nom": "Ronde", "ref_scan": "ADO75CA_ANO025", "ref_scan2": null, "article": "de", "nom2_scan2": null, "nom_entier": "Chemin de Ronde", "code_fiab": "3", "identifi": 3076, "oid": 1230923 }, "geometry": { "type": "LineString", "coordinates": [ [ 2.298573488210273, 48.877634837395014 ], [ 2.298652218841784, 48.877729197707176 ], [ 2.298999563497155, 48.878145407918296 ], [ 2.303235568121695, 48.879070479576292 ], [ 2.303284371524974, 48.879081195429755 ] ] } },
{ "type": "Feature", "properties": { "geo_point_2d": { "lon": 2.3594401842599999, "lat": 48.884473237100003 }, "id": "3258", "geo_fid": 3258, "geo_creati": 1530173617527, "geo_modifi": 1530173617527, "id_alpage": "TR3263", "type": "Rue", "nom": "Faubourg Saint Denis", "ref_scan": "ADO75CA_ANO184", "ref_scan2": null, "article": "du", "nom2_scan2": null, "nom_entier": "Rue du Faubourg Saint Denis", "code_fiab": "1", "identifi": 3263, "oid": 1231110 }, "geometry": { "type": "LineString", "coordinates": [ [ 2.359454879414643, 48.884555337867283 ], [ 2.359425489112558, 48.884391136392836 ] ] } },
{ "type": "Feature", "properties": { "geo_point_2d": { "lon": 2.3495976934099998, "lat": 48.8836761731 }, "id": "3072", "geo_fid": 3072, "geo_creati": 1530173617511, "geo_modifi": 1530173617511, "id_alpage": "TR3077", "type": "Rue", "nom": "Faubourg Poissonnière", "ref_scan": "ADO75CA_ANO135", "ref_scan2": null, "article": "du", "nom2_scan2": null, "nom_entier": "Rue du Faubourg Poissonnière", "code_fiab": "1", "identifi": 3077, "oid": 1230924 }, "geometry": { "type": "LineString", "coordinates": [ [ 2.349604564648249, 48.883617090107421 ], [ 2.349590822177887, 48.883735256020195 ] ] } },
{ "type": "Feature", "properties": { "geo_point_2d": { "lon": 2.3893143018899998, "lat": 48.859181099399997 }, "id": "3414", "geo_fid": 3414, "geo_creati": 1530173617544, "geo_modifi": 1530173617544, "id_alpage": "TR3419", "type": "Chemin", "nom": "Ronde", "ref_scan": "ADO75CA_ANO493", "ref_scan2": null, "article": "de", "nom2_scan2": null, "nom_entier": "Chemin de Ronde", "code_fiab": "1", "identifi": 3419, "oid": 1231266 }, "geometry": { "type": "LineString", "coordinates": [ [ 2.388966098381487, 48.859908949528673 ], [ 2.389662505400428, 48.858453249230763 ] ] } },
{ "type": "Feature", "properties": { "geo_point_2d": { "lon": 2.3643061563400001, "lat": 48.884076305299999 }, "id": "2850", "geo_fid": 2850, "geo_creati": 1530173617492, "geo_modifi": 1530173617492, "id_alpage": "TR2850", "type": "Rue", "nom": "Chateau Landon", "ref_scan": "ADO75CA_ANO329", "ref_scan2": null, "article": null, "nom2_scan2": null, "nom_entier": "Rue Chateau Landon", "code_fiab": "1", "identifi": 2850, "oid": 1230702 }, "geometry": { "type": "LineString", "coordinates": [ [ 2.364434946137033, 48.884316762342813 ], [ 2.364306777947414, 48.884080463935639 ], [ 2.364179832959703, 48.883834542879328 ] ] } },
{ "type": "Feature", "properties": { "geo_point_2d": { "lon": 2.3467271370599998, "lat": 48.882660438499997 }, "id": "2821", "geo_fid": 2821, "geo_creati": 1530173617490, "geo_modifi": 1530173617490, "id_alpage": "TR2821", "type": "Rue", "nom": "Rochechouard", "ref_scan": "ADO75CA_ANO136", "ref_scan2": null, "article": "de", "nom2_scan2": null, "nom_entier": "Rue de Rochechouard", "code_fiab": "1", "identifi": 2821, "oid": 1230673 }, "geometry": { "type": "LineString", "coordinates": [ [ 2.346885315038617, 48.883344333280981 ], [ 2.34684997624105, 48.883225722205026 ], [ 2.346768793192704, 48.882953429266877 ], [ 2.346736572512901, 48.882737876307424 ], [ 2.34668484384329, 48.882470346999554 ], [ 2.346652623840817, 48.882254794017669 ], [ 2.346639245970258, 48.882173410949527 ], [ 2.34659939287366, 48.88196927934451 ] ] } },
{ "type": "Feature", "properties": { "geo_point_2d": { "lon": 2.2963691505999999, "lat": 48.875529810099998 }, "id": "2901", "geo_fid": 2901, "geo_creati": 1530173617494, "geo_modifi": 1530173617494, "id_alpage": "TR2904", "type": "Boulevard", "nom": "Extérieur", "ref_scan": "ADO75CA_ANO056", "ref_scan2": null, "article": null, "nom2_scan2": null, "nom_entier": "Boulevard Extérieur", "code_fiab": "1", "identifi": 2904, "oid": 1230753 }, "geometry": { "type": "LineString", "coordinates": [ [ 2.295981833699074, 48.873349796240177 ], [ 2.296046108401032, 48.873600896346439 ], [ 2.295983430854761, 48.873889450324079 ], [ 2.295686291891836, 48.874147074202362 ], [ 2.295326867181592, 48.874219064608205 ], [ 2.297744257234069, 48.877829156443958 ] ] } },
{ "type": "Feature", "properties": { "geo_point_2d": { "lon": 2.3403932748699998, "lat": 48.882276089199998 }, "id": "3044", "geo_fid": 3044, "geo_creati": 1530173617510, "geo_modifi": 1530173617510, "id_alpage": "TR3049", "type": "Boulevard", "nom": "Extérieur", "ref_scan": "ADO75CA_ANO136", "ref_scan2": null, "article": null, "nom2_scan2": null, "nom_entier": "Boulevard Extérieur", "code_fiab": "1", "identifi": 3049, "oid": 1230896 }, "geometry": { "type": "LineString", "coordinates": [ [ 2.339560975146145, 48.882124135256475 ], [ 2.34122557460007, 48.882428043198694 ] ] } },
{ "type": "Feature", "properties": { "geo_point_2d": { "lon": 2.33866072484, "lat": 48.882243732699997 }, "id": "3046", "geo_fid": 3046, "geo_creati": 1530173617510, "geo_modifi": 1530173617510, "id_alpage": "TR3051", "type": "Boulevard", "nom": "Extérieur", "ref_scan": "ADO75CA_ANO106", "ref_scan2": null, "article": null, "nom2_scan2": null, "nom_entier": "Boulevard Extérieur", "code_fiab": "1", "identifi": 3051, "oid": 1230898 }, "geometry": { "type": "LineString", "coordinates": [ [ 2.337760324387234, 48.882370918327084 ], [ 2.33953724984311, 48.88211981923115 ], [ 2.339560975146145, 48.882124135256475 ] ] } },
{ "type": "Feature", "properties": { "geo_point_2d": { "lon": 2.29790891743, "lat": 48.877790589299998 }, "id": "3052", "geo_fid": 3052, "geo_creati": 1530173617510, "geo_modifi": 1530173617510, "id_alpage": "TR3057", "type": "Rue", "nom": "Faubourg du Roule", "ref_scan": "ADO75CA_ANO056", "ref_scan2": null, "article": "du", "nom2_scan2": null, "nom_entier": "Rue du Faubourg du Roule", "code_fiab": "1", "identifi": 3057, "oid": 1230904 }, "geometry": { "type": "LineString", "coordinates": [ [ 2.298073577634028, 48.877752022253446 ], [ 2.297744257234069, 48.877829156443958 ] ] } },
{ "type": "Feature", "properties": { "geo_point_2d": { "lon": 2.3733232668699999, "lat": 48.875171028300002 }, "id": "3289", "geo_fid": 3289, "geo_creati": 1530173617528, "geo_modifi": 1530173617528, "id_alpage": "TR3294", "type": "Chemin", "nom": "Ronde de la Barrière de la Chopinette", "ref_scan": "ADO75CA_ANO296", "ref_scan2": null, "article": "de", "nom2_scan2": null, "nom_entier": "Chemin de Ronde de la Barrière de la Chopinette", "code_fiab": "1", "identifi": 3294, "oid": 1231141 }, "geometry": { "type": "LineString", "coordinates": [ [ 2.372133394201559, 48.876156197808228 ], [ 2.374513139531009, 48.874185858816482 ] ] } },
{ "type": "Feature", "properties": { "geo_point_2d": { "lon": 2.3775626784499999, "lat": 48.871348657200002 }, "id": "3292", "geo_fid": 3292, "geo_creati": 1530173617528, "geo_modifi": 1530173617528, "id_alpage": "TR3297", "type": "Chemin", "nom": "Ronde", "ref_scan": "ADO75CA_ANO398", "ref_scan2": null, "article": "de", "nom2_scan2": null, "nom_entier": "Chemin de Ronde", "code_fiab": "1", "identifi": 3297, "oid": 1231144 }, "geometry": { "type": "LineString", "coordinates": [ [ 2.376848927769639, 48.872033922359279 ], [ 2.376933518612956, 48.871951249828946 ], [ 2.377136470877095, 48.871570516995583 ], [ 2.378401436139197, 48.870785542538115 ] ] } },
{ "type": "Feature", "properties": { "geo_point_2d": { "lon": 2.3691650176799999, "lat": 48.881225587700001 }, "id": "3307", "geo_fid": 3307, "geo_creati": 1530173617529, "geo_modifi": 1530173617529, "id_alpage": "TR3312", "type": "Quai", "nom": "Jemmapes", "ref_scan": "ADO75CA_ANO297", "ref_scan2": null, "article": "de", "nom2_scan2": null, "nom_entier": "Quai de Jemmapes", "code_fiab": "1", "identifi": 3312, "oid": 1231159 }, "geometry": { "type": "LineString", "coordinates": [ [ 2.370535091738901, 48.882794566337701 ], [ 2.370153411013344, 48.882339824859862 ], [ 2.370063348025549, 48.882232657479051 ], [ 2.367781837916912, 48.87966793538758 ] ] } },
{ "type": "Feature", "properties": { "geo_point_2d": { "lon": 2.3737007779399999, "lat": 48.872505579299997 }, "id": "2631", "geo_fid": 2631, "geo_creati": 1530173617459, "geo_modifi": 1530173617459, "id_alpage": "TR2631", "type": "Rue", "nom": "Buisson Saint Louis", "ref_scan": "ADO75CA_ANO295", "ref_scan2": null, "article": "du", "nom2_scan2": null, "nom_entier": "Rue du Buisson Saint Louis", "code_fiab": "1", "identifi": 2631, "oid": 1230483 }, "geometry": { "type": "LineString", "coordinates": [ [ 2.375203588092566, 48.873572327399174 ], [ 2.37510631866514, 48.873483421638504 ], [ 2.375013824251194, 48.873398740796837 ], [ 2.37488449672491, 48.873280888871378 ], [ 2.374885586454131, 48.87327971945767 ], [ 2.374793092863296, 48.873195128364742 ], [ 2.374580135763573, 48.872994030928353 ], [ 2.374395150932436, 48.872824758246544 ], [ 2.374369644664284, 48.872806871019463 ], [ 2.374087889153087, 48.872662898830946 ], [ 2.373805448487526, 48.872511911841514 ], [ 2.373745170073055, 48.872480816299316 ], [ 2.373534875210392, 48.872368384344973 ], [ 2.373226804171666, 48.872210749454503 ], [ 2.373116063015892, 48.872146935953651 ], [ 2.372879163656396, 48.872000698501573 ], [ 2.372571096976144, 48.871843061843464 ], [ 2.372452461341523, 48.871794178067752 ], [ 2.372249292827115, 48.871726795107499 ], [ 2.372130657786486, 48.871677910997676 ], [ 2.372060567793754, 48.871649065747093 ] ] } },
{ "type": "Feature", "properties": { "geo_point_2d": { "lon": 2.3213041214099999, "lat": 48.882353684100003 }, "id": "2933", "geo_fid": 2933, "geo_creati": 1530173617495, "geo_modifi": 1530173617495, "id_alpage": "TR2937", "type": "Boulevard", "nom": "Extérieur", "ref_scan": "ADO75CA_ANO028", "ref_scan2": null, "article": null, "nom2_scan2": null, "nom_entier": "Boulevard Extérieur", "code_fiab": "1", "identifi": 2937, "oid": 1230785 }, "geometry": { "type": "LineString", "coordinates": [ [ 2.316359893181733, 48.881420372050179 ], [ 2.321707064811164, 48.882409973617854 ], [ 2.326182479666454, 48.883316780691928 ], [ 2.326240291341997, 48.883328566735102 ] ] } },
{ "type": "Feature", "properties": { "geo_point_2d": { "lon": 2.3165745849100001, "lat": 48.881232552999997 }, "id": "3057", "geo_fid": 3057, "geo_creati": 1530173617510, "geo_modifi": 1530173617510, "id_alpage": "TR3062", "type": "Rue", "nom": "Rocher", "ref_scan": "ADO75CA_ANO027", "ref_scan2": null, "article": "du", "nom2_scan2": null, "nom_entier": "Rue du Rocher", "code_fiab": "1", "identifi": 3062, "oid": 1230909 }, "geometry": { "type": "LineString", "coordinates": [ [ 2.316594908262291, 48.881214751074992 ], [ 2.316554261550976, 48.881250354924802 ] ] } },
{ "type": "Feature", "properties": { "geo_point_2d": { "lon": 2.3644992242199998, "lat": 48.884414632800002 }, "id": "3255", "geo_fid": 3255, "geo_creati": 1530173617527, "geo_modifi": 1530173617527, "id_alpage": "TR3260", "type": "Rue", "nom": "Chateau Landon", "ref_scan": "ADO75CA_ANO329", "ref_scan2": null, "article": null, "nom2_scan2": null, "nom_entier": "Rue Chateau Landon", "code_fiab": "1", "identifi": 3260, "oid": 1231107 }, "geometry": { "type": "LineString", "coordinates": [ [ 2.364563502304184, 48.884512503315861 ], [ 2.364434946137033, 48.884316762342813 ] ] } },
{ "type": "Feature", "properties": { "geo_point_2d": { "lon": 2.3686816311199999, "lat": 48.883956547300002 }, "id": "3256", "geo_fid": 3256, "geo_creati": 1530173617527, "geo_modifi": 1530173617527, "id_alpage": "TR3261", "type": "Rue", "nom": "Faubourg Saint Martin", "ref_scan": "ADO75CA_ANO331", "ref_scan2": null, "article": "du", "nom2_scan2": null, "nom_entier": "Rue du Faubourg Saint Martin", "code_fiab": "1", "identifi": 3261, "oid": 1231108 }, "geometry": { "type": "LineString", "coordinates": [ [ 2.368562191135993, 48.883861572055345 ], [ 2.368801071096338, 48.884051522602256 ] ] } }
]
}
