{
"type": "FeatureCollection",
"name": "atlas_jacoubet_1836_adresses",
"crs": { "type": "name", "properties": { "name": "urn:ogc:def:crs:OGC:1.3:CRS84" } },
"features": [
{ "type": "Feature", "properties": { "gid": 9668, "id_num_sca": "ADO75CA_ANO492", "id_parc": "PA26054", "quartier": "Popincourt", "nom_entier": "Rue de la Folie Regnault", "num_voies": "4", "num_sca": "ADO75CA_ANO492", "geox": 603761.0, "geoy": 128596.0 }, "geometry": { "type": "MultiPoint", "coordinates": [ [ 2.390718319147275, 48.858007139065904 ] ] } },
{ "type": "Feature", "properties": { "gid": 9669, "id_num_sca": "ADO75CA_ANO492", "id_parc": "PA26072", "quartier": "Popincourt", "nom_entier": "Chemin de Ronde", "num_voies": "7", "num_sca": "ADO75CA_ANO492", "geox": 603902.0, "geoy": 128644.0 }, "geometry": { "type": "MultiPoint", "coordinates": [ [ 2.391877001681524, 48.857664330260327 ] ] } },
{ "type": "Feature", "properties": { "gid": 9670, "id_num_sca": "ADO75CA_ANO492", "id_parc": "PA26068", "quartier": "Popincourt", "nom_entier": "Chemin de Ronde", "num_voies": "5", "num_sca": "ADO75CA_ANO492", "geox": 603977.0, "geoy": 128618.0 }, "geometry": { "type": "MultiPoint", "coordinates": [ [ 2.392611273682955, 48.857303653061628 ] ] } },
{ "type": "Feature", "properties": { "gid": 29771, "id_num_sca": null, "id_parc": null, "quartier": "roule", "nom_entier": "Boulevard du Temple", "num_voies": "82", "num_sca": null, "geox": null, "geoy": null }, "geometry": { "type": "MultiPoint", "coordinates": [ [ 2.298018949570729, 48.877809918806051 ] ] } },
{ "type": "Feature", "properties": { "gid": 12143, "id_num_sca": "ADO75CA_ANO395", "id_parc": "PA13471", "quartier": "Temple", "nom_entier": "Rue Tiron", "num_voies": "6", "num_sca": "ADO75CA_ANO438", "geox": 601578.0, "geoy": 128396.0 }, "geometry": { "type": "MultiPoint", "coordinates": [ [ 2.381027093467022, 48.868692452946341 ] ] } },
{ "type": "Feature", "properties": { "gid": 12144, "id_num_sca": "ADO75CA_ANO395", "id_parc": "PA13471", "quartier": "Temple", "nom_entier": "Rue Tiron", "num_voies": "8", "num_sca": "ADO75CA_ANO438", "geox": 601584.0, "geoy": 128415.0 }, "geometry": { "type": "MultiPoint", "coordinates": [ [ 2.381111839801768, 48.868612162180213 ] ] } },
{ "type": "Feature", "properties": { "gid": 12145, "id_num_sca": "ADO75CA_ANO395", "id_parc": "PA13472", "quartier": "Temple", "nom_entier": "Chemin de Ronde", "num_voies": "1", "num_sca": "ADO75CA_ANO395", "geox": 603265.0, "geoy": 129806.0 }, "geometry": { "type": "MultiPoint", "coordinates": [ [ 2.381315571476595, 48.868418220522656 ] ] } },
{ "type": "Feature", "properties": { "gid": 12146, "id_num_sca": "ADO75CA_ANO395", "id_parc": "PA13473", "quartier": "Temple", "nom_entier": "Chemin de Ronde", "num_voies": "3", "num_sca": "ADO75CA_ANO395", "geox": 603271.0, "geoy": 129797.0 }, "geometry": { "type": "MultiPoint", "coordinates": [ [ 2.381559560989279, 48.868216349884456 ] ] } },
{ "type": "Feature", "properties": { "gid": 12147, "id_num_sca": "ADO75CA_ANO395", "id_parc": "PA13473", "quartier": "Temple", "nom_entier": "Chemin de Ronde", "num_voies": "5", "num_sca": "ADO75CA_ANO395", "geox": 603286.0, "geoy": 129775.0 }, "geometry": { "type": "MultiPoint", "coordinates": [ [ 2.381793258593525, 48.868004309303899 ] ] } },
{ "type": "Feature", "properties": { "gid": 12189, "id_num_sca": "ADO75CA_ANO396", "id_parc": "PA13794", "quartier": "Temple", "nom_entier": "Rue de l'Orillon", "num_voies": "22", "num_sca": "ADO75CA_ANO396", "geox": 603051.0, "geoy": 130027.0 }, "geometry": { "type": "MultiPoint", "coordinates": [ [ 2.378977944743178, 48.87015686910074 ] ] } },
{ "type": "Feature", "properties": { "gid": 12190, "id_num_sca": "ADO75CA_ANO396", "id_parc": "PA13792", "quartier": "Temple", "nom_entier": "Chemin de Ronde", "num_voies": "2", "num_sca": "ADO75CA_ANO396", "geox": 603068.0, "geoy": 130017.0 }, "geometry": { "type": "MultiPoint", "coordinates": [ [ 2.379235084289061, 48.869989808792553 ] ] } },
{ "type": "Feature", "properties": { "gid": 12191, "id_num_sca": "ADO75CA_ANO396", "id_parc": "PA13793", "quartier": "Temple", "nom_entier": "Chemin de Ronde", "num_voies": "4", "num_sca": "ADO75CA_ANO396", "geox": 603114.0, "geoy": 129968.0 }, "geometry": { "type": "MultiPoint", "coordinates": [ [ 2.379442000027364, 48.869797929153954 ] ] } },
{ "type": "Feature", "properties": { "gid": 12192, "id_num_sca": "ADO75CA_ANO396", "id_parc": "PA13791", "quartier": "Temple", "nom_entier": "Chemin de Ronde", "num_voies": "6", "num_sca": "ADO75CA_ANO396", "geox": 603133.0, "geoy": 129950.0 }, "geometry": { "type": "MultiPoint", "coordinates": [ [ 2.379538140482004, 48.86970682150001 ] ] } },
{ "type": "Feature", "properties": { "gid": 12193, "id_num_sca": "ADO75CA_ANO396", "id_parc": "PA13790", "quartier": "Temple", "nom_entier": "Chemin de Ronde", "num_voies": "8", "num_sca": "ADO75CA_ANO396", "geox": 603148.0, "geoy": 129928.0 }, "geometry": { "type": "MultiPoint", "coordinates": [ [ 2.379632192436869, 48.869619854165173 ] ] } },
{ "type": "Feature", "properties": { "gid": 12194, "id_num_sca": "ADO75CA_ANO396", "id_parc": "PA13789", "quartier": "Temple", "nom_entier": "Chemin de Ronde", "num_voies": "10", "num_sca": "ADO75CA_ANO396", "geox": 603155.0, "geoy": 129918.0 }, "geometry": { "type": "MultiPoint", "coordinates": [ [ 2.379791072259737, 48.869516303733974 ] ] } },
{ "type": "Feature", "properties": { "gid": 16385, "id_num_sca": "ADO75CA_ANO331", "id_parc": "PA16649", "quartier": "Faubourg Saint-Denis", "nom_entier": "Rue Chateau Landon", "num_voies": "24", "num_sca": "ADO75CA_ANO331", "geox": 602049.0, "geoy": 131515.0 }, "geometry": { "type": "MultiPoint", "coordinates": [ [ 2.366180345528695, 48.88417785818411 ] ] } }
]
}
