{
"type": "FeatureCollection",
"name": "atlas_vasserot_1810_adresses",
"crs": { "type": "name", "properties": { "name": "urn:ogc:def:crs:OGC:1.3:CRS84" } },
"features": [
{ "type": "Feature", "properties": { "geo_point_2d": { "lon": 2.36616141357, "lat": 48.884175241100003 }, "id": "18147", "geo_fid": 18147, "geo_creati": 1530006284492, "geo_modifi": 1530006284492, "id_alpage": 18147, "id_num_sca": "ADO75CA_ANO331", "quartier": "Faubourg Saint-Denis", "nom_entier": "Chemin de Ronde", "id_parc": "PA16649", "num_voies": "1", "geox": 602175, "geoy": 131527, "oid": 1151200, "arrondissement": "Paris 10e Arrondissement" }, "geometry": { "type": "MultiPoint", "coordinates": [ [ 2.366161413567346, 48.884175241149151 ] ] } },
{ "type": "Feature", "properties": { "geo_point_2d": { "lon": 2.39069929304, "lat": 48.858004749800003 }, "id": "10343", "geo_fid": 10343, "geo_creati": 1530006283941, "geo_modifi": 1530006283941, "id_alpage": 10343, "id_num_sca": "ADO75CA_ANO492", "quartier": "Popincourt", "nom_entier": "Chemin de Ronde", "id_parc": "PA26054", "num_voies": "5", "geox": 603976, "geoy": 128618, "oid": 1143396, "arrondissement": "Paris 11e Arrondissement" }, "geometry": { "type": "MultiPoint", "coordinates": [ [ 2.390699293039042, 48.85800474976601 ] ] } },
{ "type": "Feature", "properties": { "geo_point_2d": { "lon": 2.3918587016999999, "lat": 48.8576615781 }, "id": "10344", "geo_fid": 10344, "geo_creati": 1530006283941, "geo_modifi": 1530006283941, "id_alpage": 10344, "id_num_sca": "ADO75CA_ANO492", "quartier": "Popincourt", "nom_entier": "Chemin de Ronde", "id_parc": "PA26072", "num_voies": "3", "geox": 604062, "geoy": 128580, "oid": 1143397, "arrondissement": "Paris 11e Arrondissement" }, "geometry": { "type": "MultiPoint", "coordinates": [ [ 2.391858701704264, 48.857661578094145 ] ] } },
{ "type": "Feature", "properties": { "geo_point_2d": { "lon": 2.3925928720699998, "lat": 48.857301515499998 }, "id": "10345", "geo_fid": 10345, "geo_creati": 1530006283941, "geo_modifi": 1530006283941, "id_alpage": 10345, "id_num_sca": "ADO75CA_ANO492", "quartier": "Popincourt", "nom_entier": "Chemin de Ronde", "id_parc": "PA26068", "num_voies": "1", "geox": 604115, "geoy": 128540, "oid": 1143398, "arrondissement": "Paris 11e Arrondissement" }, "geometry": { "type": "MultiPoint", "coordinates": [ [ 2.392592872072433, 48.857301515457188 ] ] } },
{ "type": "Feature", "properties": { "geo_point_2d": { "lon": 2.3812966772399999, "lat": 48.868416046699998 }, "id": "13314", "geo_fid": 13314, "geo_creati": 1530006284147, "geo_modifi": 1530006284147, "id_alpage": 13314, "id_num_sca": "ADO75CA_ANO395", "quartier": "Temple", "nom_entier": "Chemin de Ronde", "id_parc": "PA13472", "num_voies": "5", "geox": 603286, "geoy": 129775, "oid": 1146367, "arrondissement": "Paris 11e Arrondissement" }, "geometry": { "type": "MultiPoint", "coordinates": [ [ 2.381296677244955, 48.868416046720483 ] ] } },
{ "type": "Feature", "properties": { "geo_point_2d": { "lon": 2.3810079333499998, "lat": 48.868689536600002 }, "id": "13312", "geo_fid": 13312, "geo_creati": 1530006284147, "geo_modifi": 1530006284147, "id_alpage": 13312, "id_num_sca": "ADO75CA_ANO395", "quartier": "Temple", "nom_entier": "Chemin de Ronde", "id_parc": "PA13471", "num_voies": "1", "geox": 603265, "geoy": 129806, "oid": 1146365, "arrondissement": "Paris 20e Arrondissement" }, "geometry": { "type": "MultiPoint", "coordinates": [ [ 2.381007933352418, 48.868689536644979 ] ] } },
{ "type": "Feature", "properties": { "geo_point_2d": { "lon": 2.3789589956800001, "lat": 48.870154319500003 }, "id": "13398", "geo_fid": 13398, "geo_creati": 1530006284148, "geo_modifi": 1530006284148, "id_alpage": 13398, "id_num_sca": "ADO75CA_ANO396", "quartier": "Temple", "nom_entier": "Chemin de Ronde", "id_parc": "PA13794", "num_voies": "4", "geox": 603114, "geoy": 129968, "oid": 1146451, "arrondissement": "Paris 11e Arrondissement" }, "geometry": { "type": "MultiPoint", "coordinates": [ [ 2.378958995684728, 48.870154319513482 ] ] } },
{ "type": "Feature", "properties": { "geo_point_2d": { "lon": 2.3792164959700002, "lat": 48.869986960399999 }, "id": "13399", "geo_fid": 13399, "geo_creati": 1530006284148, "geo_modifi": 1530006284148, "id_alpage": 13399, "id_num_sca": "ADO75CA_ANO396", "quartier": "Temple", "nom_entier": "Chemin de Ronde", "id_parc": "PA13792", "num_voies": "6", "geox": 603133, "geoy": 129950, "oid": 1146452, "arrondissement": "Paris 11e Arrondissement" }, "geometry": { "type": "MultiPoint", "coordinates": [ [ 2.379216495970592, 48.869986960427539 ] ] } },
{ "type": "Feature", "properties": { "geo_point_2d": { "lon": 2.37977226787, "lat": 48.869513737399998 }, "id": "13403", "geo_fid": 13403, "geo_creati": 1530006284159, "geo_modifi": 1530006284159, "id_alpage": 13403, "id_num_sca": "ADO75CA_ANO396", "quartier": "Temple", "nom_entier": "Chemin de Ronde", "id_parc": "PA13789", "num_voies": "14", "geox": 603174, "geoy": 129897, "oid": 1146456, "arrondissement": "Paris 11e Arrondissement" }, "geometry": { "type": "MultiPoint", "coordinates": [ [ 2.379772267871446, 48.869513737352634 ] ] } },
{ "type": "Feature", "properties": { "geo_point_2d": { "lon": 2.3815404980800001, "lat": 48.868213615999998 }, "id": "13315", "geo_fid": 13315, "geo_creati": 1530006284147, "geo_modifi": 1530006284147, "id_alpage": 13315, "id_num_sca": "ADO75CA_ANO395", "quartier": "Temple", "nom_entier": "Chemin de Ronde", "id_parc": "PA13473", "num_voies": "7", "geox": 603304, "geoy": 129753, "oid": 1146368, "arrondissement": "Paris 11e Arrondissement" }, "geometry": { "type": "MultiPoint", "coordinates": [ [ 2.381540498079315, 48.868213616040386 ] ] } },
{ "type": "Feature", "properties": { "geo_point_2d": { "lon": 2.3810923775699999, "lat": 48.868609468999999 }, "id": "13313", "geo_fid": 13313, "geo_creati": 1530006284147, "geo_modifi": 1530006284147, "id_alpage": 13313, "id_num_sca": "ADO75CA_ANO395", "quartier": "Temple", "nom_entier": "Chemin de Ronde", "id_parc": "PA13471", "num_voies": "3", "geox": 603271, "geoy": 129797, "oid": 1146366, "arrondissement": "Paris 11e Arrondissement" }, "geometry": { "type": "MultiPoint", "coordinates": [ [ 2.381092377574847, 48.868609468980893 ] ] } },
{ "type": "Feature", "properties": { "geo_point_2d": { "lon": 2.37942353648, "lat": 48.869795339100001 }, "id": "13400", "geo_fid": 13400, "geo_creati": 1530006284148, "geo_modifi": 1530006284148, "id_alpage": 13400, "id_num_sca": "ADO75CA_ANO396", "quartier": "Temple", "nom_entier": "Chemin de Ronde", "id_parc": "PA13793", "num_voies": "8", "geox": 603148, "geoy": 129928, "oid": 1146453, "arrondissement": "Paris 11e Arrondissement" }, "geometry": { "type": "MultiPoint", "coordinates": [ [ 2.379423536475073, 48.869795339055692 ] ] } }
]
}
