{
"type": "FeatureCollection",
"name": "plan_delagrive_1728_voies",
"crs": { "type": "name", "properties": { "name": "urn:ogc:def:crs:OGC:1.3:CRS84" } },
"features": [
{ "type": "Feature", "properties": { "gid": 608, "streetname": "R des Rats", "note": null }, "geometry": { "type": "MultiLineString", "coordinates": [ [ [ 2.388489830222289, 48.85806066092595 ], [ 2.389247668376497, 48.858258840579666 ], [ 2.39020373243157, 48.858489657399716 ], [ 2.390736604172731, 48.858600823310233 ], [ 2.391146637037213, 48.858675211339282 ], [ 2.391295919864198, 48.858793460090233 ], [ 2.391335635321268, 48.858911151397884 ], [ 2.391854079357762, 48.85908550232439 ] ] ] } },
{ "type": "Feature", "properties": { "gid": 609, "streetname": "R Saint André", "note": null }, "geometry": { "type": "MultiLineString", "coordinates": [ [ [ 2.394631024955512, 48.856236902095517 ], [ 2.394388609738341, 48.856676267389105 ], [ 2.394275369251174, 48.856992012046121 ], [ 2.39409301889257, 48.857361632490246 ], [ 2.393472508796575, 48.85771999486829 ], [ 2.393030667097683, 48.858025034473798 ], [ 2.392546468299605, 48.858438309074621 ], [ 2.392241153047545, 48.858780189134357 ], [ 2.391854079357762, 48.85908550232439 ] ] ] } },
{ "type": "Feature", "properties": { "gid": 610, "streetname": "R Saint André", "note": null }, "geometry": { "type": "MultiLineString", "coordinates": [ [ [ 2.391854079357762, 48.85908550232439 ], [ 2.391479219553399, 48.859517403174273 ], [ 2.391175369436064, 48.85973276087141 ] ] ] } },
{ "type": "Feature", "properties": { "gid": 611, "streetname": "R de la Folie Renaud", "note": null }, "geometry": { "type": "MultiLineString", "coordinates": [ [ [ 2.387461149693156, 48.859347782710294 ], [ 2.387754501116874, 48.859444179093224 ], [ 2.388109751715934, 48.859518297172031 ], [ 2.38850683433591, 48.859529364504823 ], [ 2.389219193854878, 48.859519445993065 ], [ 2.389896413182832, 48.859586163980886 ], [ 2.390094690441848, 48.859614287582446 ], [ 2.390669243414943, 48.859675959071872 ], [ 2.391175369436064, 48.85973276087141 ] ] ] } },
{ "type": "Feature", "properties": { "gid": 664, "streetname": null, "note": null }, "geometry": { "type": "MultiLineString", "coordinates": [ [ [ 2.399450596418546, 48.863104934578715 ], [ 2.398233118764342, 48.862963255050566 ], [ 2.397891527335509, 48.862889236166303 ], [ 2.397618944543018, 48.862770375661448 ], [ 2.39715502332984, 48.862614400435817 ] ] ] } },
{ "type": "Feature", "properties": { "gid": 1220, "streetname": null, "note": null }, "geometry": { "type": "MultiLineString", "coordinates": [ [ [ 2.39715502332984, 48.862614400435817 ], [ 2.396733346832138, 48.862359222682493 ], [ 2.396037632671248, 48.862111698307267 ], [ 2.395696469243363, 48.862001524782904 ] ] ] } },
{ "type": "Feature", "properties": { "gid": 1346, "streetname": null, "note": null }, "geometry": { "type": "MultiLineString", "coordinates": [ [ [ 2.399306490026262, 48.850449238401474 ], [ 2.398883858952608, 48.850284437212132 ], [ 2.398353976390001, 48.849920265738461 ], [ 2.397551901769102, 48.849410118163668 ], [ 2.397348066709269, 48.849273525965458 ] ] ] } },
{ "type": "Feature", "properties": { "gid": 1403, "streetname": "R de Montreuil", "note": null }, "geometry": { "type": "MultiLineString", "coordinates": [ [ [ 2.397952947685607, 48.85092369270582 ], [ 2.399252307016437, 48.851065789187771 ] ] ] } },
{ "type": "Feature", "properties": { "gid": 1424, "streetname": null, "note": null }, "geometry": { "type": "MultiLineString", "coordinates": [ [ [ 2.395578767718343, 48.849557882027128 ], [ 2.396098922958961, 48.849529321098949 ], [ 2.397089354382471, 48.849145694585275 ], [ 2.39744883234117, 48.848849260997369 ], [ 2.397574684476276, 48.848623951876313 ], [ 2.397932067889209, 48.848508260527716 ], [ 2.399192474998092, 48.848460370233774 ] ] ] } },
{ "type": "Feature", "properties": { "gid": 1441, "streetname": null, "note": null }, "geometry": { "type": "MultiLineString", "coordinates": [ [ [ 2.3993182702139, 48.853585374859556 ], [ 2.399046879325646, 48.853367107933821 ], [ 2.398625164097074, 48.853120971874716 ], [ 2.398231676640908, 48.852802674774722 ], [ 2.397975450476572, 48.852457953914715 ], [ 2.39782993030461, 48.85201437501901 ], [ 2.397779748994671, 48.851616464110286 ], [ 2.397713158679077, 48.851453450473137 ] ] ] } },
{ "type": "Feature", "properties": { "gid": 1444, "streetname": null, "note": null }, "geometry": { "type": "MultiLineString", "coordinates": [ [ [ 2.395802100439653, 48.864704299795115 ], [ 2.396052951563041, 48.864335024822189 ], [ 2.396332240994399, 48.863875516740379 ], [ 2.396693499373502, 48.863434496271651 ], [ 2.396862573930578, 48.86302865657337 ], [ 2.39715502332984, 48.862614400435817 ] ] ] } },
{ "type": "Feature", "properties": { "gid": 1446, "streetname": "R de Charone", "note": null }, "geometry": { "type": "MultiLineString", "coordinates": [ [ [ 2.394631024955512, 48.856236902095517 ], [ 2.395546828362337, 48.856395171796244 ], [ 2.396531951646473, 48.856481482823895 ], [ 2.397462296602253, 48.856567509904252 ], [ 2.398406861769949, 48.856608412970957 ], [ 2.399338253909068, 48.85660405420326 ] ] ] } },
{ "type": "Feature", "properties": { "gid": 1448, "streetname": "R de Charone", "note": null }, "geometry": { "type": "MultiLineString", "coordinates": [ [ [ 2.392541227459585, 48.855747315512119 ], [ 2.393606821923127, 48.855978661807946 ], [ 2.394631024955512, 48.856236902095517 ] ] ] } },
{ "type": "Feature", "properties": { "gid": 1508, "streetname": null, "note": null }, "geometry": { "type": "MultiLineString", "coordinates": [ [ [ 2.389503744125445, 48.863289585093874 ], [ 2.3895208662961, 48.86416631963862 ], [ 2.38943243297548, 48.864699086582483 ] ] ] } },
{ "type": "Feature", "properties": { "gid": 1509, "streetname": null, "note": null }, "geometry": { "type": "MultiLineString", "coordinates": [ [ [ 2.395802100439653, 48.864704299795115 ], [ 2.395176478441317, 48.865496447165391 ], [ 2.395047216946299, 48.866010935851833 ] ] ] } },
{ "type": "Feature", "properties": { "gid": 1510, "streetname": null, "note": null }, "geometry": { "type": "MultiLineString", "coordinates": [ [ [ 2.395802100439653, 48.864704299795115 ], [ 2.396896229386974, 48.864854419725688 ], [ 2.397608294373891, 48.864876081024754 ], [ 2.398019117432204, 48.864887185684204 ], [ 2.398594937704282, 48.864844892663967 ], [ 2.399087424990776, 48.864901591904868 ], [ 2.399468769857225, 48.865093295192651 ] ] ] } },
{ "type": "Feature", "properties": { "gid": 1511, "streetname": null, "note": null }, "geometry": { "type": "MultiLineString", "coordinates": [ [ [ 2.39775976844983, 48.861252766459437 ], [ 2.397465763748527, 48.861802580830037 ], [ 2.397421224104199, 48.862100597625101 ], [ 2.397281328188644, 48.862352946104942 ], [ 2.39715502332984, 48.862614400435817 ] ] ] } },
{ "type": "Feature", "properties": { "gid": 1942, "streetname": null, "note": null }, "geometry": { "type": "MultiLineString", "coordinates": [ [ [ 2.338043765611927, 48.882399315413544 ], [ 2.337683607043489, 48.88196806819434 ], [ 2.337267274833353, 48.881464766579235 ], [ 2.336993539014259, 48.881282290024643 ] ] ] } },
{ "type": "Feature", "properties": { "gid": 1996, "streetname": "Chemin de la Voirie", "note": null }, "geometry": { "type": "MultiLineString", "coordinates": [ [ [ 2.370163077426275, 48.878509242955566 ], [ 2.370693582364984, 48.87821812267012 ] ] ] } },
{ "type": "Feature", "properties": { "gid": 1997, "streetname": null, "note": null }, "geometry": { "type": "MultiLineString", "coordinates": [ [ [ 2.373325320948904, 48.88221674191211 ], [ 2.373253735565139, 48.88182972291812 ] ] ] } },
{ "type": "Feature", "properties": { "gid": 1998, "streetname": null, "note": null }, "geometry": { "type": "MultiLineString", "coordinates": [ [ [ 2.373253735565139, 48.88182972291812 ], [ 2.372850857012046, 48.880679158742353 ], [ 2.372623112322764, 48.880261792662267 ], [ 2.372249572392136, 48.879780562350895 ] ] ] } },
{ "type": "Feature", "properties": { "gid": 1999, "streetname": null, "note": null }, "geometry": { "type": "MultiLineString", "coordinates": [ [ [ 2.372249572392136, 48.879780562350895 ], [ 2.371769724386247, 48.879315487908059 ], [ 2.371562985696464, 48.879042880184656 ], [ 2.3710468586143, 48.878580526303047 ], [ 2.370693582364984, 48.87821812267012 ] ] ] } },
{ "type": "Feature", "properties": { "gid": 2000, "streetname": null, "note": null }, "geometry": { "type": "MultiLineString", "coordinates": [ [ [ 2.374283043401813, 48.882193666793007 ], [ 2.373977148330288, 48.882083702084607 ], [ 2.373765105019398, 48.881961520868032 ], [ 2.373412806403853, 48.881896470405117 ], [ 2.373253735565139, 48.88182972291812 ] ] ] } },
{ "type": "Feature", "properties": { "gid": 2001, "streetname": null, "note": null }, "geometry": { "type": "MultiLineString", "coordinates": [ [ [ 2.373444757209243, 48.874498318706046 ], [ 2.374552396712292, 48.874960318898722 ] ] ] } },
{ "type": "Feature", "properties": { "gid": 2002, "streetname": null, "note": null }, "geometry": { "type": "MultiLineString", "coordinates": [ [ [ 2.373444757209243, 48.874498318706046 ], [ 2.374087480287673, 48.874201814126664 ], [ 2.374898924670821, 48.873929253920743 ] ] ] } },
{ "type": "Feature", "properties": { "gid": 2006, "streetname": null, "note": null }, "geometry": { "type": "MultiLineString", "coordinates": [ [ [ 2.377218301027463, 48.882202149172386 ], [ 2.376367810857025, 48.881698740520875 ], [ 2.376118636535579, 48.881404544385155 ], [ 2.375877707277291, 48.88118977061557 ], [ 2.375542496692784, 48.880996162320251 ], [ 2.37533611994409, 48.880739259646425 ], [ 2.375013894218475, 48.880513012868192 ], [ 2.374731195073905, 48.880354474885081 ], [ 2.37424294419844, 48.880149089743831 ], [ 2.373676639437371, 48.879940117557958 ], [ 2.373196499832855, 48.879829960641011 ], [ 2.372901933051958, 48.879766907141629 ], [ 2.372584290653634, 48.879747663091202 ], [ 2.372249572392136, 48.879780562350895 ] ] ] } },
{ "type": "Feature", "properties": { "gid": 2008, "streetname": null, "note": null }, "geometry": { "type": "MultiLineString", "coordinates": [ [ [ 2.375321529894683, 48.879201917713786 ], [ 2.374672430498581, 48.878947582266164 ], [ 2.374399180330214, 48.878859865485083 ], [ 2.37388845403031, 48.878689890100738 ], [ 2.372819164506998, 48.878207077370952 ], [ 2.372165515796387, 48.877812425968685 ], [ 2.371906012435977, 48.877608152602114 ], [ 2.37110728430611, 48.877070900309342 ], [ 2.370815390793011, 48.876819784717163 ], [ 2.370467839176674, 48.876455713430062 ], [ 2.370080823308005, 48.876237414112516 ], [ 2.369823087315759, 48.876189924282279 ] ] ] } },
{ "type": "Feature", "properties": { "gid": 2010, "streetname": null, "note": null }, "geometry": { "type": "MultiLineString", "coordinates": [ [ [ 2.369728110284702, 48.876056402987722 ], [ 2.370235225051939, 48.876072969443435 ], [ 2.370947904790998, 48.876201940847956 ], [ 2.371233643152435, 48.876291810165625 ], [ 2.371661756370597, 48.876356543744578 ], [ 2.371949502241272, 48.876429816660355 ], [ 2.372330174147869, 48.876542275488603 ], [ 2.372593138347955, 48.876603068971242 ], [ 2.373238959347742, 48.876877151196027 ], [ 2.373786014459899, 48.877113857174642 ], [ 2.374539174413861, 48.877264496994428 ], [ 2.37501200832029, 48.877334109046515 ], [ 2.375452215216105, 48.877447949186461 ], [ 2.37605642187542, 48.8777349744459 ], [ 2.376449636349491, 48.877996242793053 ] ] ] } },
{ "type": "Feature", "properties": { "gid": 2011, "streetname": null, "note": null }, "geometry": { "type": "MultiLineString", "coordinates": [ [ [ 2.370693582364984, 48.87821812267012 ], [ 2.369709026014327, 48.877382436286751 ] ] ] } },
{ "type": "Feature", "properties": { "gid": 2024, "streetname": null, "note": null }, "geometry": { "type": "MultiLineString", "coordinates": [ [ [ 2.338801378857481, 48.88068965961061 ], [ 2.338517020856825, 48.881395122362036 ], [ 2.338361425950669, 48.881913089969842 ], [ 2.338170455831668, 48.88239488990726 ] ] ] } },
{ "type": "Feature", "properties": { "gid": 2139, "streetname": "chemin de ?", "note": null }, "geometry": { "type": "MultiLineString", "coordinates": [ [ [ 2.385473825660978, 48.861777753806855 ], [ 2.387309768621866, 48.862320386573373 ], [ 2.388810371023012, 48.862906210293154 ], [ 2.389503744125445, 48.863289585093874 ] ] ] } },
{ "type": "Feature", "properties": { "gid": 2140, "streetname": "chemin de ?", "note": null }, "geometry": { "type": "MultiLineString", "coordinates": [ [ [ 2.389503744125445, 48.863289585093874 ], [ 2.390961204920938, 48.863992906098353 ], [ 2.392271405831329, 48.864406258121782 ], [ 2.393312201779397, 48.864429613843114 ], [ 2.394296737782526, 48.864579202042549 ], [ 2.395802100439653, 48.864704299795115 ] ] ] } },
{ "type": "Feature", "properties": { "gid": 3164, "streetname": null, "note": null }, "geometry": { "type": "MultiLineString", "coordinates": [ [ [ 2.340032436874834, 48.882251148383098 ], [ 2.340059973606894, 48.881918115792558 ] ] ] } }
]
}
