{
"type": "FeatureCollection",
"name": "z",
"crs": { "type": "name", "properties": { "name": "urn:ogc:def:crs:OGC:1.3:CRS84" } },
"features": [
{ "type": "Feature", "properties": { "name": "Paris" }, "geometry": { "type": "Polygon", "coordinates": [ [ [ 2.3745812, 48.8383031 ], [ 2.3791003, 48.8407193 ], [ 2.3883606, 48.8390608 ], [ 2.3887955, 48.8385838 ], [ 2.3901519, 48.8391153 ], [ 2.3901778, 48.839146 ], [ 2.3947983, 48.8395711 ], [ 2.395624, 48.8396452 ], [ 2.3960485, 48.8396793 ], [ 2.3999364, 48.8397747 ], [ 2.4002108, 48.8399007 ], [ 2.402125, 48.8448531 ], [ 2.402182, 48.845169 ], [ 2.4021147, 48.8451793 ], [ 2.3988557, 48.8473844 ], [ 2.3989334, 48.8477285 ], [ 2.3983743, 48.8477864 ], [ 2.3985399, 48.848604 ], [ 2.3990991, 48.8485461 ], [ 2.3991767, 48.8488731 ], [ 2.3986383, 48.8505433 ], [ 2.3984778, 48.8510372 ], [ 2.398307, 48.8514222 ], [ 2.3980792, 48.8516776 ], [ 2.3972146, 48.852806 ], [ 2.3954661, 48.8549231 ], [ 2.3945083, 48.8561034 ], [ 2.3944152, 48.8562158 ], [ 2.3942443, 48.8564883 ], [ 2.3895125, 48.8583387 ], [ 2.3890155, 48.8595035 ], [ 2.3874469, 48.8627178 ], [ 2.3873699, 48.8628515 ], [ 2.3872139, 48.8630754 ], [ 2.3857059, 48.8643664 ], [ 2.383107, 48.8666004 ], [ 2.3826819, 48.867339 ], [ 2.3799972, 48.8693264 ], [ 2.3771095, 48.8716185 ], [ 2.3766243, 48.8722639 ], [ 2.3745447, 48.8741193 ], [ 2.372615, 48.8758312 ], [ 2.3702778, 48.8778729 ], [ 2.3701416, 48.8779339 ], [ 2.3700489, 48.8783139 ], [ 2.3701743, 48.8784143 ], [ 2.3701525, 48.8799773 ], [ 2.3701307, 48.8824302 ], [ 2.3696346, 48.8831435 ], [ 2.3693076, 48.8834733 ], [ 2.3683263, 48.8840182 ], [ 2.367818, 48.8840576 ], [ 2.3653759, 48.8841938 ], [ 2.3646346, 48.8842655 ], [ 2.3606975, 48.8843336 ], [ 2.3593511, 48.8843515 ], [ 2.3546127, 48.8839975 ], [ 2.3494893, 48.8836092 ], [ 2.3478615, 48.8834858 ], [ 2.3475617, 48.8834464 ], [ 2.3419264, 48.8823356 ], [ 2.340004, 48.881949 ], [ 2.3395044, 48.8819706 ], [ 2.3389336, 48.8820531 ], [ 2.3377125, 48.8822223 ], [ 2.3376848, 48.8821974 ], [ 2.3376469, 48.8821842 ], [ 2.3372937, 48.8822323 ], [ 2.337001, 48.8823152 ], [ 2.3369455, 48.8823352 ], [ 2.3369329, 48.8823733 ], [ 2.3368788, 48.8823925 ], [ 2.3338791, 48.8832767 ], [ 2.3333944, 48.8834399 ], [ 2.3318823, 48.8839067 ], [ 2.3294901, 48.8845026 ], [ 2.3282435, 48.8836866 ], [ 2.3281511, 48.8835614 ], [ 2.3276664, 48.883402 ], [ 2.3276202, 48.8834475 ], [ 2.3274819, 48.8834152 ], [ 2.3273605, 48.8833868 ], [ 2.3273951, 48.8832729 ], [ 2.3272681, 48.883235 ], [ 2.3269507, 48.8832008 ], [ 2.3267054, 48.8832891 ], [ 2.3216354, 48.8822236 ], [ 2.3167586, 48.8812292 ], [ 2.3167356, 48.881252 ], [ 2.3165567, 48.8812026 ], [ 2.3165393, 48.8811419 ], [ 2.3160776, 48.8809939 ], [ 2.3159537, 48.881032 ], [ 2.3159184, 48.8810895 ], [ 2.3127184, 48.8807223 ], [ 2.30923, 48.8802996 ], [ 2.308868, 48.880231 ], [ 2.3034482, 48.8790738 ], [ 2.3032656, 48.879035 ], [ 2.3010995, 48.8785744 ], [ 2.2989689, 48.8781214 ], [ 2.2981037, 48.8783918 ], [ 2.2978398, 48.8780508 ], [ 2.2983552, 48.8778934 ], [ 2.2961723, 48.874898 ], [ 2.2963503, 48.8748173 ], [ 2.2966632, 48.8746155 ], [ 2.2969393, 48.8742805 ], [ 2.2970436, 48.8740182 ], [ 2.2970559, 48.8736933 ], [ 2.2967133, 48.8732322 ], [ 2.2963871, 48.8727933 ], [ 2.2960128, 48.8726278 ], [ 2.2956998, 48.872535 ], [ 2.2944557, 48.8708096 ], [ 2.2933451, 48.869288 ], [ 2.2929462, 48.8690417 ], [ 2.2926394, 48.8689529 ], [ 2.2921976, 48.8689247 ], [ 2.2918172, 48.8689489 ], [ 2.2914322, 48.8684474 ], [ 2.2889976, 48.8652041 ], [ 2.2865447, 48.8619102 ], [ 2.2868331, 48.8616963 ], [ 2.2844216, 48.860132 ], [ 2.2846793, 48.8585575 ], [ 2.2868371, 48.8589211 ], [ 2.2871735, 48.8586609 ], [ 2.2872372, 48.8585502 ], [ 2.287319, 48.8584664 ], [ 2.2874373, 48.8583647 ], [ 2.289169, 48.85745 ], [ 2.2882047, 48.856316 ], [ 2.287555, 48.8556348 ], [ 2.2889654, 48.8544507 ], [ 2.2922476, 48.851214 ], [ 2.2921346, 48.8510879 ], [ 2.2922181, 48.8510588 ], [ 2.2925991, 48.8508752 ], [ 2.2988538, 48.8488982 ], [ 2.3011, 48.848206 ], [ 2.3011394, 48.8482675 ], [ 2.3012426, 48.8483516 ], [ 2.3014245, 48.848426 ], [ 2.3016112, 48.8484551 ], [ 2.3017734, 48.8484583 ], [ 2.3019553, 48.848426 ], [ 2.3023092, 48.8482028 ], [ 2.3023485, 48.8481057 ], [ 2.3023534, 48.8479537 ], [ 2.3022711, 48.8478187 ], [ 2.3050089, 48.847078 ], [ 2.3054218, 48.8468936 ], [ 2.3059625, 48.8467577 ], [ 2.3104243, 48.8454784 ], [ 2.3108102, 48.8454404 ], [ 2.310997, 48.8451946 ], [ 2.3109183, 48.8451655 ], [ 2.311169, 48.8447288 ], [ 2.3113509, 48.8447741 ], [ 2.3123966, 48.8433758 ], [ 2.312431, 48.8430588 ], [ 2.3127358, 48.8427774 ], [ 2.3129619, 48.8426835 ], [ 2.3138663, 48.8417923 ], [ 2.3136353, 48.8416759 ], [ 2.3149206, 48.8405428 ], [ 2.3179779, 48.8414777 ], [ 2.3181942, 48.8415554 ], [ 2.3204614, 48.8421603 ], [ 2.3207389, 48.8422133 ], [ 2.3206424, 48.8424503 ], [ 2.3208703, 48.8424933 ], [ 2.3211023, 48.8425371 ], [ 2.3211795, 48.8425371 ], [ 2.3212598, 48.8423106 ], [ 2.3216607, 48.8423673 ], [ 2.3248655, 48.8412319 ], [ 2.330273, 48.8394257 ], [ 2.3320599, 48.8346203 ], [ 2.331882, 48.8344469 ], [ 2.3318748, 48.8342735 ], [ 2.3319603, 48.8341329 ], [ 2.33248, 48.8339502 ], [ 2.3328075, 48.8340486 ], [ 2.3358047, 48.8332191 ], [ 2.3397633, 48.8321341 ], [ 2.346957, 48.8301624 ], [ 2.3489717, 48.8296047 ], [ 2.3492138, 48.8295438 ], [ 2.3495199, 48.8295344 ], [ 2.3498545, 48.8295813 ], [ 2.3507729, 48.8298718 ], [ 2.3545212, 48.8310845 ], [ 2.3550979, 48.8312719 ], [ 2.355283, 48.8312016 ], [ 2.3554254, 48.8312157 ], [ 2.3557528, 48.8312251 ], [ 2.3560376, 48.8313329 ], [ 2.3562059, 48.8311335 ], [ 2.3565916, 48.8312468 ], [ 2.3656655, 48.834269 ], [ 2.3697228, 48.8355794 ], [ 2.3701981, 48.8357472 ], [ 2.3713553, 48.8363638 ], [ 2.3731636, 48.8373772 ], [ 2.3729845, 48.8376447 ], [ 2.3745812, 48.8383031 ] ] ] } }
]
}
