{
"type": "FeatureCollection",
"name": "atlas_verniquet_1791_voies",
"crs": { "type": "name", "properties": { "name": "urn:ogc:def:crs:EPSG::2154" } },
"features": [
{ "type": "Feature", "properties": { "gid": 93, "streetname": "rue de Reuilly", "note": null }, "geometry": { "type": "MultiLineString", "coordinates": [ [ [ 654610.545499412692152, 6861332.867637626826763 ], [ 654820.14044067915529, 6861297.088907827623188 ] ] ] } },
{ "type": "Feature", "properties": { "gid": 198, "streetname": "rue de l Echarpe", "note": null }, "geometry": { "type": "MultiLineString", "coordinates": [ [ [ 653351.208711350685917, 6862016.143270736560225 ], [ 653397.420159369008616, 6861996.249529008753598 ] ] ] } },
{ "type": "Feature", "properties": { "gid": 320, "streetname": "Rue de Montreuil", "note": null }, "geometry": { "type": "MultiLineString", "coordinates": [ [ [ 654610.545499412692152, 6861332.867637626826763 ], [ 655280.192037614644505, 6861334.546558320522308 ] ] ] } },
{ "type": "Feature", "properties": { "gid": 325, "streetname": "rue du Pas de la Mule", "note": null }, "geometry": { "type": "MultiLineString", "coordinates": [ [ [ 653574.6745283564087, 6861950.318370134569705 ], [ 653664.247560981777497, 6861930.388827026821673 ] ] ] } },
{ "type": "Feature", "properties": { "gid": 328, "streetname": "boulevard de la Porte Saint Antoine", "note": null }, "geometry": { "type": "MultiLineString", "coordinates": [ [ [ 653664.247560981777497, 6861930.388827026821673 ], [ 653680.655166206764989, 6861824.725863238796592 ] ] ] } },
{ "type": "Feature", "properties": { "gid": 357, "streetname": "rue de la Chaussée des Minimes", "note": null }, "geometry": { "type": "MultiLineString", "coordinates": [ [ [ 653477.110260598594323, 6862052.53463638573885 ], [ 653458.228532824316062, 6861979.619734269566834 ] ] ] } },
{ "type": "Feature", "properties": { "gid": 360, "streetname": "rue Saint Louis", "note": null }, "geometry": { "type": "MultiLineString", "coordinates": [ [ [ 653351.208711350685917, 6862016.143270736560225 ], [ 653361.363178899860941, 6862028.845770473591983 ], [ 653363.209472501068376, 6862085.462392131797969 ] ] ] } },
{ "type": "Feature", "properties": { "gid": 382, "streetname": "rue des Tournelles", "note": null }, "geometry": { "type": "MultiLineString", "coordinates": [ [ [ 653578.631201111595146, 6862068.122271593660116 ], [ 653574.6745283564087, 6861950.318370134569705 ] ] ] } },
{ "type": "Feature", "properties": { "gid": 518, "streetname": null, "note": null }, "geometry": { "type": "MultiLineString", "coordinates": [ [ [ 653387.793654278619215, 6861240.911021085456014 ], [ 653439.83705401327461, 6861176.118439166806638 ], [ 653486.13429889047984, 6861116.900604628026485 ] ] ] } },
{ "type": "Feature", "properties": { "gid": 520, "streetname": null, "note": null }, "geometry": { "type": "MultiLineString", "coordinates": [ [ [ 653387.793654278619215, 6861240.911021085456014 ], [ 653292.859899341361597, 6861356.870562691241503 ] ] ] } },
{ "type": "Feature", "properties": { "gid": 536, "streetname": "Port au Pavés", "note": null }, "geometry": { "type": "MultiLineString", "coordinates": [ [ [ 653046.986000796314329, 6861536.239930337294936 ], [ 653165.790582359652035, 6861427.396901400759816 ] ] ] } },
{ "type": "Feature", "properties": { "gid": 581, "streetname": "quai Saint Paul", "note": null }, "geometry": { "type": "MultiLineString", "coordinates": [ [ [ 652958.521164647303522, 6861622.531206513755023 ], [ 652954.271034359466285, 6861615.067562126554549 ], [ 653062.62999020202551, 6861554.954401088878512 ] ] ] } },
{ "type": "Feature", "properties": { "gid": 593, "streetname": "quai des Celestins", "note": null }, "geometry": { "type": "MultiLineString", "coordinates": [ [ [ 653071.254616545280442, 6861565.079493056982756 ], [ 653095.160983731038868, 6861553.467295725829899 ], [ 653200.15135394432582, 6861447.788036586716771 ] ] ] } },
{ "type": "Feature", "properties": { "gid": 606, "streetname": "pont de Gramont", "note": null }, "geometry": { "type": "MultiLineString", "coordinates": [ [ [ 653179.705904237227514, 6861427.045408337377012 ], [ 653136.813090699724853, 6861383.245999389328063 ] ] ] } },
{ "type": "Feature", "properties": { "gid": 629, "streetname": "quai du Mail", "note": null }, "geometry": { "type": "MultiLineString", "coordinates": [ [ [ 653179.705904237227514, 6861427.045408337377012 ], [ 653310.828917383449152, 6861265.658096301369369 ], [ 653360.279932695673779, 6861176.221311088651419 ], [ 653401.591886289417744, 6861030.453685789369047 ], [ 653403.172332752612419, 6860977.462804797105491 ], [ 653525.092964590527117, 6860829.563852089457214 ] ] ] } },
{ "type": "Feature", "properties": { "gid": 632, "streetname": "cour de la Juiverie", "note": null }, "geometry": { "type": "MultiLineString", "coordinates": [ [ [ 653768.008253876352683, 6861533.835705794394016 ], [ 653786.092774301650934, 6861565.173158667050302 ], [ 653783.948963690199889, 6861585.957243646495044 ], [ 653780.48383063916117, 6861618.745173727162182 ] ] ] } },
{ "type": "Feature", "properties": { "gid": 642, "streetname": "rue Saint Paul", "note": null }, "geometry": { "type": "MultiLineString", "coordinates": [ [ [ 653071.254616545280442, 6861565.079493056982756 ], [ 653082.220461171120405, 6861581.934837095439434 ] ] ] } },
{ "type": "Feature", "properties": { "gid": 654, "streetname": "rue Saint Paul", "note": null }, "geometry": { "type": "MultiLineString", "coordinates": [ [ [ 653082.220461171120405, 6861581.934837095439434 ], [ 653119.382324614212848, 6861624.86782734375447 ] ] ] } },
{ "type": "Feature", "properties": { "gid": 666, "streetname": "Rue de la Roquette", "note": null }, "geometry": { "type": "MultiLineString", "coordinates": [ [ [ 653819.286457637790591, 6861687.909971979446709 ], [ 653877.161002325476147, 6861770.399302178993821 ] ] ] } },
{ "type": "Feature", "properties": { "gid": 679, "streetname": "Rue de la Roquette", "note": null }, "geometry": { "type": "MultiLineString", "coordinates": [ [ [ 653877.161002325476147, 6861770.399302178993821 ], [ 654019.567282488918863, 6861848.616788980551064 ], [ 654077.65902047464624, 6861893.376483329571784 ], [ 654268.28710910177324, 6861995.659108266234398 ] ] ] } },
{ "type": "Feature", "properties": { "gid": 707, "streetname": null, "note": null }, "geometry": { "type": "MultiLineString", "coordinates": [ [ [ 654402.546303446171805, 6860235.432989468798041 ], [ 654384.940459577250294, 6860220.471484902314842 ], [ 654206.468643806874752, 6860069.021238443441689 ], [ 654190.521425279555842, 6860080.114691375754774 ], [ 654175.698150686104782, 6860068.284675161354244 ] ] ] } },
{ "type": "Feature", "properties": { "gid": 716, "streetname": "place Saint Antoine", "note": null }, "geometry": { "type": "MultiLineString", "coordinates": [ [ [ 653799.161854860954918, 6861651.221712069585919 ], [ 653819.286457637790591, 6861687.909971979446709 ] ] ] } },
{ "type": "Feature", "properties": { "gid": 735, "streetname": null, "note": null }, "geometry": { "type": "MultiLineString", "coordinates": [ [ [ 653307.113513684947975, 6861776.308009714819491 ], [ 653270.205424468615092, 6861718.166413596831262 ], [ 653222.636519205523655, 6861742.810817361809313 ] ] ] } },
{ "type": "Feature", "properties": { "gid": 736, "streetname": "place Royale", "note": null }, "geometry": { "type": "MultiLineString", "coordinates": [ [ [ 653397.420159369008616, 6861996.249529008753598 ], [ 653366.495913305901922, 6861873.715571333654225 ], [ 653428.038337820209563, 6861855.768758725374937 ] ] ] } },
{ "type": "Feature", "properties": { "gid": 737, "streetname": "place Royale", "note": null }, "geometry": { "type": "MultiLineString", "coordinates": [ [ [ 653428.038337820209563, 6861855.768758725374937 ], [ 653490.36460335960146, 6861840.141086929477751 ], [ 653525.237317379214801, 6861964.441362034529448 ] ] ] } },
{ "type": "Feature", "properties": { "gid": 738, "streetname": "place Royale", "note": null }, "geometry": { "type": "MultiLineString", "coordinates": [ [ [ 653525.237317379214801, 6861964.441362034529448 ], [ 653458.228532824316062, 6861979.619734269566834 ] ] ] } },
{ "type": "Feature", "properties": { "gid": 739, "streetname": "place Royale", "note": null }, "geometry": { "type": "MultiLineString", "coordinates": [ [ [ 653458.228532824316062, 6861979.619734269566834 ], [ 653400.073304174933583, 6861995.802894079126418 ], [ 653397.420159369008616, 6861996.249529008753598 ] ] ] } },
{ "type": "Feature", "properties": { "gid": 745, "streetname": "boulevard de la Porte Saint Antoine", "note": null }, "geometry": { "type": "MultiLineString", "coordinates": [ [ [ 653632.189877066877671, 6862137.091803823597729 ], [ 653643.610546344425529, 6862062.814311042428017 ], [ 653664.247560981777497, 6861930.388827026821673 ] ] ] } },
{ "type": "Feature", "properties": { "gid": 747, "streetname": "place Saint Antoine", "note": null }, "geometry": { "type": "MultiLineString", "coordinates": [ [ [ 653773.022895844420418, 6861606.261386184021831 ], [ 653778.244684393750504, 6861614.540128610096872 ], [ 653780.48383063916117, 6861618.745173727162182 ] ] ] } },
{ "type": "Feature", "properties": { "gid": 749, "streetname": null, "note": null }, "geometry": { "type": "MultiLineString", "coordinates": [ [ [ 653507.459721353370696, 6861496.088367620483041 ], [ 653513.278526873327792, 6861492.963057266548276 ], [ 653521.082153689465486, 6861488.652319449931383 ], [ 653557.552984506008215, 6861479.788699010387063 ], [ 653544.590573369525373, 6861443.53093258664012 ], [ 653504.383719611447304, 6861389.675562725402415 ], [ 653387.793654278619215, 6861240.911021085456014 ] ] ] } },
{ "type": "Feature", "properties": { "gid": 755, "streetname": "rue de Lappe", "note": null }, "geometry": { "type": "MultiLineString", "coordinates": [ [ [ 653877.161002325476147, 6861770.399302178993821 ], [ 654100.742445375886746, 6861602.696390291675925 ] ] ] } },
{ "type": "Feature", "properties": { "gid": 766, "streetname": "cul de sac de la Roquette", "note": null }, "geometry": { "type": "MultiLineString", "coordinates": [ [ [ 654268.28710910177324, 6861995.659108266234398 ], [ 654349.588370243436657, 6861835.681127342395484 ], [ 654344.028686858247966, 6861833.419330117292702 ] ] ] } },
{ "type": "Feature", "properties": { "gid": 824, "streetname": "Rue de Charenton", "note": null }, "geometry": { "type": "MultiLineString", "coordinates": [ [ [ 654749.983331582625397, 6860717.732190776616335 ], [ 654886.665252395207062, 6860528.549919893965125 ], [ 654912.525967795634642, 6860488.02112868335098 ] ] ] } },
{ "type": "Feature", "properties": { "gid": 846, "streetname": null, "note": null }, "geometry": { "type": "MultiLineString", "coordinates": [ [ [ 654563.822665302897803, 6860296.606528255157173 ], [ 654538.712791953817941, 6860333.025146713480353 ] ] ] } },
{ "type": "Feature", "properties": { "gid": 847, "streetname": null, "note": null }, "geometry": { "type": "MultiLineString", "coordinates": [ [ [ 654570.901701409951784, 6860215.181518608704209 ], [ 654427.314550262060948, 6860256.481127835810184 ], [ 654402.546303446171805, 6860235.432989468798041 ] ] ] } },
{ "type": "Feature", "properties": { "gid": 851, "streetname": "port Saint Paul", "note": null }, "geometry": { "type": "MultiLineString", "coordinates": [ [ [ 653062.62999020202551, 6861554.954401088878512 ], [ 653046.986000796314329, 6861536.239930337294936 ] ] ] } },
{ "type": "Feature", "properties": { "gid": 852, "streetname": "port Saint Paul", "note": null }, "geometry": { "type": "MultiLineString", "coordinates": [ [ [ 653046.986000796314329, 6861536.239930337294936 ], [ 652879.596997813670896, 6861639.074289383366704 ] ] ] } },
{ "type": "Feature", "properties": { "gid": 935, "streetname": "quai de la Rapee", "note": null }, "geometry": { "type": "MultiLineString", "coordinates": [ [ [ 654039.785815595183522, 6860261.185849228873849 ], [ 654175.698150686104782, 6860068.284675161354244 ] ] ] } },
{ "type": "Feature", "properties": { "gid": 937, "streetname": "quai de la Rapee", "note": null }, "geometry": { "type": "MultiLineString", "coordinates": [ [ [ 654175.698150686104782, 6860068.284675161354244 ], [ 654198.518331772414967, 6860035.895858347415924 ] ] ] } },
{ "type": "Feature", "properties": { "gid": 954, "streetname": "port Saint Paul", "note": null }, "geometry": { "type": "MultiLineString", "coordinates": [ [ [ 653071.254616545280442, 6861565.079493056982756 ], [ 653062.62999020202551, 6861554.954401088878512 ] ] ] } },
{ "type": "Feature", "properties": { "gid": 1051, "streetname": "rue Saint Bernard", "note": null }, "geometry": { "type": "MultiLineString", "coordinates": [ [ [ 654534.401013344991952, 6861683.48633477371186 ], [ 654585.478472047718242, 6861574.058637674897909 ], [ 654599.293630354688503, 6861562.511859742924571 ] ] ] } },
{ "type": "Feature", "properties": { "gid": 1052, "streetname": "rue Saint Bernard", "note": null }, "geometry": { "type": "MultiLineString", "coordinates": [ [ [ 654599.293630354688503, 6861562.511859742924571 ], [ 654633.388350605149753, 6861554.433255294337869 ], [ 654619.525798024027608, 6861417.057589303702116 ] ] ] } },
{ "type": "Feature", "properties": { "gid": 1053, "streetname": "rue Saint Bernard", "note": null }, "geometry": { "type": "MultiLineString", "coordinates": [ [ [ 654619.525798024027608, 6861417.057589303702116 ], [ 654610.545499412692152, 6861332.867637626826763 ] ] ] } },
{ "type": "Feature", "properties": { "gid": 1055, "streetname": null, "note": null }, "geometry": { "type": "MultiLineString", "coordinates": [ [ [ 654527.427614364074543, 6861569.110453683882952 ], [ 654588.480926774907857, 6861559.606175816617906 ], [ 654599.293630354688503, 6861562.511859742924571 ] ] ] } },
{ "type": "Feature", "properties": { "gid": 1056, "streetname": "cul de sac Saint Bernard", "note": null }, "geometry": { "type": "MultiLineString", "coordinates": [ [ [ 654619.525798024027608, 6861417.057589303702116 ], [ 654798.84907080209814, 6861416.988264712505043 ] ] ] } },
{ "type": "Feature", "properties": { "gid": 1070, "streetname": null, "note": null }, "geometry": { "type": "MultiLineString", "coordinates": [ [ [ 654198.518331772414967, 6860035.895858347415924 ], [ 654419.578075291588902, 6860216.454432582482696 ] ] ] } },
{ "type": "Feature", "properties": { "gid": 1109, "streetname": "Marché Saint Antoine", "note": null }, "geometry": { "type": "MultiLineString", "coordinates": [ [ [ 654307.713834944646806, 6861171.196794707328081 ], [ 654346.390980612137355, 6861137.90725580509752 ] ] ] } },
{ "type": "Feature", "properties": { "gid": 1125, "streetname": "Marché Saint Antoine", "note": null }, "geometry": { "type": "MultiLineString", "coordinates": [ [ [ 654346.390980612137355, 6861137.90725580509752 ], [ 654393.025526596116833, 6861124.32908049505204 ], [ 654399.703619421692565, 6861134.4617113256827 ] ] ] } },
{ "type": "Feature", "properties": { "gid": 1135, "streetname": "Marché Saint Antoine", "note": null }, "geometry": { "type": "MultiLineString", "coordinates": [ [ [ 654399.703619421692565, 6861134.4617113256827 ], [ 654413.120354880811647, 6861161.918597946874797 ], [ 654377.399367556674406, 6861190.388521111570299 ] ] ] } },
{ "type": "Feature", "properties": { "gid": 1140, "streetname": "rue du Faubourg Saint-Antoine", "note": null }, "geometry": { "type": "MultiLineString", "coordinates": [ [ [ 654820.14044067915529, 6861297.088907827623188 ], [ 655198.867984067182988, 6861211.415673305280507 ], [ 655389.512506620027125, 6861163.326817312277853 ] ] ] } },
{ "type": "Feature", "properties": { "gid": 1147, "streetname": "Marché Saint Antoine", "note": null }, "geometry": { "type": "MultiLineString", "coordinates": [ [ [ 654377.399367556674406, 6861190.388521111570299 ], [ 654323.578213052242063, 6861204.626541130244732 ] ] ] } },
{ "type": "Feature", "properties": { "gid": 1160, "streetname": "Marché Saint Antoine", "note": null }, "geometry": { "type": "MultiLineString", "coordinates": [ [ [ 654323.578213052242063, 6861204.626541130244732 ], [ 654307.713834944646806, 6861171.196794707328081 ] ] ] } },
{ "type": "Feature", "properties": { "gid": 1172, "streetname": "rue d' Aligre", "note": null }, "geometry": { "type": "MultiLineString", "coordinates": [ [ [ 654288.51356064027641, 6861028.631668328307569 ], [ 654346.390980612137355, 6861137.90725580509752 ] ] ] } },
{ "type": "Feature", "properties": { "gid": 1196, "streetname": "rue le Noir", "note": null }, "geometry": { "type": "MultiLineString", "coordinates": [ [ [ 654377.399367556674406, 6861190.388521111570299 ], [ 654460.84088851546403, 6861348.512443042360246 ] ] ] } },
{ "type": "Feature", "properties": { "gid": 1208, "streetname": "rue de Beauvau", "note": null }, "geometry": { "type": "MultiLineString", "coordinates": [ [ [ 654399.703619421692565, 6861134.4617113256827 ], [ 654432.95448026584927, 6860954.977952346205711 ], [ 654456.637553642969579, 6860861.57576815225184 ] ] ] } },
{ "type": "Feature", "properties": { "gid": 1234, "streetname": "rue Trouvée", "note": null }, "geometry": { "type": "MultiLineString", "coordinates": [ [ [ 654323.578213052242063, 6861204.626541130244732 ], [ 654397.435870686895214, 6861363.43054910376668 ] ] ] } },
{ "type": "Feature", "properties": { "gid": 1297, "streetname": "rue de Reuilly", "note": null }, "geometry": { "type": "MultiLineString", "coordinates": [ [ [ 654820.14044067915529, 6861297.088907827623188 ], [ 654854.833910584449768, 6861260.797591879032552 ], [ 655024.019946371554397, 6860939.46874588355422 ] ] ] } },
{ "type": "Feature", "properties": { "gid": 1299, "streetname": "rue de Reuilly", "note": null }, "geometry": { "type": "MultiLineString", "coordinates": [ [ [ 655024.019946371554397, 6860939.46874588355422 ], [ 655223.475875340285711, 6860667.059357089921832 ] ] ] } },
{ "type": "Feature", "properties": { "gid": 1308, "streetname": "rue du Fauxbourg Saint Antoine", "note": null }, "geometry": { "type": "MultiLineString", "coordinates": [ [ [ 653799.161854860954918, 6861651.221712069585919 ], [ 653893.441992238978855, 6861567.884165701456368 ], [ 654046.838565895683132, 6861496.594875991344452 ] ] ] } },
{ "type": "Feature", "properties": { "gid": 1311, "streetname": "place Saint Antoine", "note": null }, "geometry": { "type": "MultiLineString", "coordinates": [ [ [ 653793.134145953692496, 6861641.364476641640067 ], [ 653799.161854860954918, 6861651.221712069585919 ] ] ] } },
{ "type": "Feature", "properties": { "gid": 1325, "streetname": "place Saint Antoine", "note": null }, "geometry": { "type": "MultiLineString", "coordinates": [ [ [ 653780.48383063916117, 6861618.745173727162182 ], [ 653793.134145953692496, 6861641.364476641640067 ] ] ] } },
{ "type": "Feature", "properties": { "gid": 1330, "streetname": "rue Neuve Sainte Catherine", "note": null }, "geometry": { "type": "MultiLineString", "coordinates": [ [ [ 653246.865273329080082, 6862062.21855067461729 ], [ 653351.208711350685917, 6862016.143270736560225 ] ] ] } },
{ "type": "Feature", "properties": { "gid": 1406, "streetname": "rue des Terres Fortes", "note": null }, "geometry": { "type": "MultiLineString", "coordinates": [ [ [ 653624.475510947639123, 6861315.395117521286011 ], [ 653663.817735824501142, 6861289.891651360318065 ] ] ] } },
{ "type": "Feature", "properties": { "gid": 1407, "streetname": "rue des Terres Fortes", "note": null }, "geometry": { "type": "MultiLineString", "coordinates": [ [ [ 653663.817735824501142, 6861289.891651360318065 ], [ 653802.663571837591007, 6861194.6263536978513 ], [ 653901.054212328279391, 6861135.062704067677259 ] ] ] } },
{ "type": "Feature", "properties": { "gid": 1409, "streetname": "Rue Contrescarpe", "note": null }, "geometry": { "type": "MultiLineString", "coordinates": [ [ [ 653624.475510947639123, 6861315.395117521286011 ], [ 653576.642741280957125, 6861154.915277619846165 ], [ 653568.254750105668791, 6861102.413053683936596 ] ] ] } },
{ "type": "Feature", "properties": { "gid": 1410, "streetname": "rue de la Planchette", "note": null }, "geometry": { "type": "MultiLineString", "coordinates": [ [ [ 653663.817735824501142, 6861289.891651360318065 ], [ 653727.778149169753306, 6861412.219340888783336 ], [ 653826.911809461540543, 6861583.39757745526731 ] ] ] } },
{ "type": "Feature", "properties": { "gid": 1421, "streetname": "rue du Fauxbourg Saint Antoine", "note": null }, "geometry": { "type": "MultiLineString", "coordinates": [ [ [ 654046.838565895683132, 6861496.594875991344452 ], [ 654128.120441904757172, 6861464.601608973927796 ] ] ] } },
{ "type": "Feature", "properties": { "gid": 1422, "streetname": "rue du Fauxbourg Saint Antoine", "note": null }, "geometry": { "type": "MultiLineString", "coordinates": [ [ [ 654128.120441904757172, 6861464.601608973927796 ], [ 654229.27031775075011, 6861428.08165415097028 ] ] ] } },
{ "type": "Feature", "properties": { "gid": 1423, "streetname": "rue du Fauxbourg Saint Antoine", "note": null }, "geometry": { "type": "MultiLineString", "coordinates": [ [ [ 654229.27031775075011, 6861428.08165415097028 ], [ 654397.435870686895214, 6861363.43054910376668 ] ] ] } },
{ "type": "Feature", "properties": { "gid": 1424, "streetname": "rue du Fauxbourg Saint Antoine", "note": null }, "geometry": { "type": "MultiLineString", "coordinates": [ [ [ 654397.435870686895214, 6861363.43054910376668 ], [ 654460.84088851546403, 6861348.512443042360246 ] ] ] } },
{ "type": "Feature", "properties": { "gid": 1425, "streetname": "rue du Fauxbourg Saint Antoine", "note": null }, "geometry": { "type": "MultiLineString", "coordinates": [ [ [ 654460.84088851546403, 6861348.512443042360246 ], [ 654513.473577951779589, 6861335.483043061569333 ] ] ] } },
{ "type": "Feature", "properties": { "gid": 1427, "streetname": "rue du Fauxbourg Saint Antoine", "note": null }, "geometry": { "type": "MultiLineString", "coordinates": [ [ [ 654513.473577951779589, 6861335.483043061569333 ], [ 654610.545499412692152, 6861332.867637626826763 ] ] ] } },
{ "type": "Feature", "properties": { "gid": 1428, "streetname": "cul de sac de la Forge Royale", "note": null }, "geometry": { "type": "MultiLineString", "coordinates": [ [ [ 654521.642970689572394, 6861380.365165375173092 ], [ 654513.473577951779589, 6861335.483043061569333 ] ] ] } },
{ "type": "Feature", "properties": { "gid": 1431, "streetname": "rue Saint Nicolas", "note": null }, "geometry": { "type": "MultiLineString", "coordinates": [ [ [ 654045.163946238229983, 6861297.613720730878413 ], [ 654128.120441904757172, 6861464.601608973927796 ] ] ] } },
{ "type": "Feature", "properties": { "gid": 1432, "streetname": "rue Traversiere", "note": null }, "geometry": { "type": "MultiLineString", "coordinates": [ [ [ 654117.939924164675176, 6861196.776963241398335 ], [ 654229.27031775075011, 6861428.08165415097028 ] ] ] } },
{ "type": "Feature", "properties": { "gid": 1433, "streetname": "rue de Charonne", "note": null }, "geometry": { "type": "MultiLineString", "coordinates": [ [ [ 654046.838565895683132, 6861496.594875991344452 ], [ 654100.742445375886746, 6861602.696390291675925 ] ] ] } },
{ "type": "Feature", "properties": { "gid": 1435, "streetname": "rue de Charonne", "note": null }, "geometry": { "type": "MultiLineString", "coordinates": [ [ [ 654100.742445375886746, 6861602.696390291675925 ], [ 654110.893032057560049, 6861622.052940145134926 ], [ 654167.547380350995809, 6861656.342441355809569 ], [ 654364.096828061970882, 6861646.920996117405593 ], [ 654461.214123619371094, 6861661.103041207417846 ] ] ] } },
{ "type": "Feature", "properties": { "gid": 1436, "streetname": "rue de Charonne", "note": null }, "geometry": { "type": "MultiLineString", "coordinates": [ [ [ 654461.214123619371094, 6861661.103041207417846 ], [ 654534.401013344991952, 6861683.48633477371186 ] ] ] } },
{ "type": "Feature", "properties": { "gid": 1437, "streetname": "Rue Ste Marguerite", "note": null }, "geometry": { "type": "MultiLineString", "coordinates": [ [ [ 654397.435870686895214, 6861363.43054910376668 ], [ 654461.214123619371094, 6861661.103041207417846 ] ] ] } },
{ "type": "Feature", "properties": { "gid": 1438, "streetname": "quai de la Rapee", "note": null }, "geometry": { "type": "MultiLineString", "coordinates": [ [ [ 653525.092964590527117, 6860829.563852089457214 ], [ 653655.180128739331849, 6860690.620776961557567 ], [ 653686.752618974773213, 6860679.210470196790993 ] ] ] } },
{ "type": "Feature", "properties": { "gid": 1440, "streetname": "quai de la Rapee", "note": null }, "geometry": { "type": "MultiLineString", "coordinates": [ [ [ 653686.752618974773213, 6860679.210470196790993 ], [ 653846.66700912581291, 6860512.20390843693167 ], [ 654039.785815595183522, 6860261.185849228873849 ] ] ] } },
{ "type": "Feature", "properties": { "gid": 1443, "streetname": "Rue des Chantiers", "note": null }, "geometry": { "type": "MultiLineString", "coordinates": [ [ [ 653686.752618974773213, 6860679.210470196790993 ], [ 653824.745336150052026, 6860829.441839504055679 ] ] ] } },
{ "type": "Feature", "properties": { "gid": 1444, "streetname": "Rue de la Rapee", "note": null }, "geometry": { "type": "MultiLineString", "coordinates": [ [ [ 654039.785815595183522, 6860261.185849228873849 ], [ 654123.29009097465314, 6860335.342535632662475 ], [ 654234.709994423086755, 6860422.632010972127318 ] ] ] } },
{ "type": "Feature", "properties": { "gid": 1469, "streetname": "rue de l' Egoût", "note": null }, "geometry": { "type": "MultiLineString", "coordinates": [ [ [ 653250.386732717626728, 6861804.294338423758745 ], [ 653278.741179073811509, 6861859.977007530629635 ] ] ] } },
{ "type": "Feature", "properties": { "gid": 1470, "streetname": "rue de l' Egoût", "note": null }, "geometry": { "type": "MultiLineString", "coordinates": [ [ [ 653278.741179073811509, 6861859.977007530629635 ], [ 653302.668397274333984, 6861908.183011615648866 ] ] ] } },
{ "type": "Feature", "properties": { "gid": 1471, "streetname": "rue de l' Egoût", "note": null }, "geometry": { "type": "MultiLineString", "coordinates": [ [ [ 653302.668397274333984, 6861908.183011615648866 ], [ 653351.208711350685917, 6862016.143270736560225 ] ] ] } },
{ "type": "Feature", "properties": { "gid": 1472, "streetname": "rue de Jarente", "note": null }, "geometry": { "type": "MultiLineString", "coordinates": [ [ [ 653283.913978996337391, 6861915.58759895619005 ], [ 653302.668397274333984, 6861908.183011615648866 ] ] ] } },
{ "type": "Feature", "properties": { "gid": 1473, "streetname": "rue d Ormesson", "note": null }, "geometry": { "type": "MultiLineString", "coordinates": [ [ [ 653262.848907307372428, 6861868.106926151551306 ], [ 653278.741179073811509, 6861859.977007530629635 ] ] ] } },
{ "type": "Feature", "properties": { "gid": 1501, "streetname": "Rue de Charonne", "note": null }, "geometry": { "type": "MultiLineString", "coordinates": [ [ [ 654534.401013344991952, 6861683.48633477371186 ], [ 654638.660855351132341, 6861714.607740903273225 ], [ 654956.106995725422166, 6861827.148433424532413 ] ] ] } },
{ "type": "Feature", "properties": { "gid": 1624, "streetname": "rue des Lions", "note": null }, "geometry": { "type": "MultiLineString", "coordinates": [ [ [ 653119.382324614212848, 6861624.86782734375447 ], [ 653234.266972968704067, 6861531.303134345449507 ] ] ] } },
{ "type": "Feature", "properties": { "gid": 1718, "streetname": "rue des Barrez", "note": null }, "geometry": { "type": "MultiLineString", "coordinates": [ [ [ 653043.683145223883912, 6861622.427934883162379 ], [ 653082.220461171120405, 6861581.934837095439434 ] ] ] } },
{ "type": "Feature", "properties": { "gid": 1788, "streetname": "rue des Lions", "note": null }, "geometry": { "type": "MultiLineString", "coordinates": [ [ [ 653234.266972968704067, 6861531.303134345449507 ], [ 653261.461027510813437, 6861509.232252416200936 ] ] ] } },
{ "type": "Feature", "properties": { "gid": 1836, "streetname": "rue Neuve Saint Paul", "note": null }, "geometry": { "type": "MultiLineString", "coordinates": [ [ [ 653280.911066191736609, 6861590.592401252128184 ], [ 653158.594485718174838, 6861678.374573330394924 ] ] ] } },
{ "type": "Feature", "properties": { "gid": 1848, "streetname": "rue Saint Paul", "note": null }, "geometry": { "type": "MultiLineString", "coordinates": [ [ [ 653119.382324614212848, 6861624.86782734375447 ], [ 653158.594485718174838, 6861678.374573330394924 ] ] ] } },
{ "type": "Feature", "properties": { "gid": 1911, "streetname": "rue du Petit Muse", "note": null }, "geometry": { "type": "MultiLineString", "coordinates": [ [ [ 653200.15135394432582, 6861447.788036586716771 ], [ 653261.461027510813437, 6861509.232252416200936 ] ] ] } },
{ "type": "Feature", "properties": { "gid": 1925, "streetname": "rue Gerard Boquet", "note": null }, "geometry": { "type": "MultiLineString", "coordinates": [ [ [ 653234.266972968704067, 6861531.303134345449507 ], [ 653280.911066191736609, 6861590.592401252128184 ] ] ] } },
{ "type": "Feature", "properties": { "gid": 1957, "streetname": "rue Saint Sabin", "note": null }, "geometry": { "type": "MultiLineString", "coordinates": [ [ [ 653877.161002325476147, 6861770.399302178993821 ], [ 653874.980767142609693, 6861785.654406595975161 ], [ 653915.253090804442763, 6861852.726664895191789 ], [ 653917.802401410765015, 6861881.331871666945517 ], [ 653890.970079776016064, 6861920.72698128875345 ] ] ] } },
{ "type": "Feature", "properties": { "gid": 2037, "streetname": "rue Jean Beausire", "note": null }, "geometry": { "type": "MultiLineString", "coordinates": [ [ [ 653635.106344566913322, 6861712.821463141590357 ], [ 653634.499885382712819, 6861823.575968164019287 ], [ 653680.655166206764989, 6861824.725863238796592 ] ] ] } },
{ "type": "Feature", "properties": { "gid": 2050, "streetname": "boulevard de la Porte Saint Antoine", "note": null }, "geometry": { "type": "MultiLineString", "coordinates": [ [ [ 653680.655166206764989, 6861824.725863238796592 ], [ 653699.012692440999672, 6861703.054718572646379 ] ] ] } },
{ "type": "Feature", "properties": { "gid": 2064, "streetname": "place de la Porte Saint Antoine", "note": null }, "geometry": { "type": "MultiLineString", "coordinates": [ [ [ 653635.106344566913322, 6861712.821463141590357 ], [ 653699.012692440999672, 6861703.054718572646379 ] ] ] } },
{ "type": "Feature", "properties": { "gid": 2078, "streetname": "place de la Porte Saint Antoine", "note": null }, "geometry": { "type": "MultiLineString", "coordinates": [ [ [ 653699.012692440999672, 6861703.054718572646379 ], [ 653761.015132147353142, 6861686.418666194193065 ] ] ] } },
{ "type": "Feature", "properties": { "gid": 2152, "streetname": "cul de sac Siguerie", "note": null }, "geometry": { "type": "MultiLineString", "coordinates": [ [ [ 654891.810960245784372, 6860923.471583303064108 ], [ 654930.279305139905773, 6860856.308395994827151 ] ] ] } },
{ "type": "Feature", "properties": { "gid": 2154, "streetname": "rue de Reuilly", "note": null }, "geometry": { "type": "MultiLineString", "coordinates": [ [ [ 654749.983331582625397, 6860717.732190776616335 ], [ 654861.33649110654369, 6860797.001246425323188 ], [ 654930.279305139905773, 6860856.308395994827151 ] ] ] } },
{ "type": "Feature", "properties": { "gid": 2155, "streetname": "rue de Reuilly", "note": null }, "geometry": { "type": "MultiLineString", "coordinates": [ [ [ 654930.279305139905773, 6860856.308395994827151 ], [ 655024.019946371554397, 6860939.46874588355422 ] ] ] } },
{ "type": "Feature", "properties": { "gid": 2201, "streetname": "place de la Porte Saint Antoine", "note": null }, "geometry": { "type": "MultiLineString", "coordinates": [ [ [ 653601.307474826695397, 6861717.720349485985935 ], [ 653635.106344566913322, 6861712.821463141590357 ] ] ] } },
{ "type": "Feature", "properties": { "gid": 2202, "streetname": "place de la Bastille", "note": null }, "geometry": { "type": "MultiLineString", "coordinates": [ [ [ 653601.307474826695397, 6861717.720349485985935 ], [ 653586.091999503551051, 6861700.928305842913687 ], [ 653581.15430857508909, 6861662.51521623134613 ], [ 653559.683347996673547, 6861670.079117560759187 ] ] ] } },
{ "type": "Feature", "properties": { "gid": 2288, "streetname": "rue Amelot", "note": null }, "geometry": { "type": "MultiLineString", "coordinates": [ [ [ 653713.050551035557874, 6861966.164352007210255 ], [ 653759.140376312658191, 6861699.116622838191688 ] ] ] } },
{ "type": "Feature", "properties": { "gid": 2289, "streetname": "rue Daval", "note": null }, "geometry": { "type": "MultiLineString", "coordinates": [ [ [ 653877.161002325476147, 6861770.399302178993821 ], [ 653713.050551035557874, 6861966.164352007210255 ] ] ] } },
{ "type": "Feature", "properties": { "gid": 2292, "streetname": "place Saint Antoine", "note": null }, "geometry": { "type": "MultiLineString", "coordinates": [ [ [ 653819.286457637790591, 6861687.909971979446709 ], [ 653759.140376312658191, 6861699.116622838191688 ] ] ] } },
{ "type": "Feature", "properties": { "gid": 2293, "streetname": "place Saint Antoine", "note": null }, "geometry": { "type": "MultiLineString", "coordinates": [ [ [ 653759.140376312658191, 6861699.116622838191688 ], [ 653761.015132147353142, 6861686.418666194193065 ] ] ] } },
{ "type": "Feature", "properties": { "gid": 2298, "streetname": "rue du Petit Muse", "note": null }, "geometry": { "type": "MultiLineString", "coordinates": [ [ [ 653317.292182173230685, 6861563.522048656828701 ], [ 653342.718400274636224, 6861587.303878054022789 ] ] ] } },
{ "type": "Feature", "properties": { "gid": 2299, "streetname": "rue du Petit Muse", "note": null }, "geometry": { "type": "MultiLineString", "coordinates": [ [ [ 653342.718400274636224, 6861587.303878054022789 ], [ 653456.040587934548967, 6861710.328447815030813 ] ] ] } },
{ "type": "Feature", "properties": { "gid": 2300, "streetname": "rue de la Cerisaye", "note": null }, "geometry": { "type": "MultiLineString", "coordinates": [ [ [ 653342.718400274636224, 6861587.303878054022789 ], [ 653419.818242119858041, 6861536.818288399837911 ], [ 653507.459721353370696, 6861496.088367620483041 ] ] ] } },
{ "type": "Feature", "properties": { "gid": 2318, "streetname": "Rue de Charenton", "note": null }, "geometry": { "type": "MultiLineString", "coordinates": [ [ [ 654117.939924164675176, 6861196.776963241398335 ], [ 654129.648467394406907, 6861175.277321261353791 ], [ 654255.453669518232346, 6861059.148721016012132 ] ] ] } },
{ "type": "Feature", "properties": { "gid": 2363, "streetname": "pont de Gramont", "note": null }, "geometry": { "type": "MultiLineString", "coordinates": [ [ [ 653200.15135394432582, 6861447.788036586716771 ], [ 653179.705904237227514, 6861427.045408337377012 ] ] ] } },
{ "type": "Feature", "properties": { "gid": 2530, "streetname": "rue Saint Paul", "note": null }, "geometry": { "type": "MultiLineString", "coordinates": [ [ [ 653158.594485718174838, 6861678.374573330394924 ], [ 653185.140130135347135, 6861725.527463228441775 ] ] ] } },
{ "type": "Feature", "properties": { "gid": 2540, "streetname": "rue Saint Paul", "note": null }, "geometry": { "type": "MultiLineString", "coordinates": [ [ [ 653185.140130135347135, 6861725.527463228441775 ], [ 653188.22310376400128, 6861731.058271617628634 ] ] ] } },
{ "type": "Feature", "properties": { "gid": 2552, "streetname": "rue Saint Antoine", "note": null }, "geometry": { "type": "MultiLineString", "coordinates": [ [ [ 653213.682309000752866, 6861823.791150584816933 ], [ 653236.315943148336373, 6861811.543181309476495 ] ] ] } },
{ "type": "Feature", "properties": { "gid": 2561, "streetname": "rue des Tournelles", "note": null }, "geometry": { "type": "MultiLineString", "coordinates": [ [ [ 653574.6745283564087, 6861950.318370134569705 ], [ 653569.491442072438076, 6861795.999743192456663 ], [ 653576.460499747074209, 6861726.235568366013467 ] ] ] } },
{ "type": "Feature", "properties": { "gid": 2562, "streetname": "place de la Bastille", "note": null }, "geometry": { "type": "MultiLineString", "coordinates": [ [ [ 653524.424037603545003, 6861684.21937594935298 ], [ 653573.216147494851612, 6861706.266448764130473 ], [ 653576.460499747074209, 6861726.235568366013467 ] ] ] } },
{ "type": "Feature", "properties": { "gid": 2563, "streetname": "place de la Bastille", "note": null }, "geometry": { "type": "MultiLineString", "coordinates": [ [ [ 653576.460499747074209, 6861726.235568366013467 ], [ 653601.666845039580949, 6861723.870068544521928 ], [ 653601.307474826695397, 6861717.720349485985935 ] ] ] } },
{ "type": "Feature", "properties": { "gid": 2576, "streetname": "rue Saint Antoine", "note": null }, "geometry": { "type": "MultiLineString", "coordinates": [ [ [ 653236.315943148336373, 6861811.543181309476495 ], [ 653250.386732717626728, 6861804.294338423758745 ] ] ] } },
{ "type": "Feature", "properties": { "gid": 2743, "streetname": "rue de Celle", "note": null }, "geometry": { "type": "MultiLineString", "coordinates": [ [ [ 654255.453669518232346, 6861059.148721016012132 ], [ 654307.713834944646806, 6861171.196794707328081 ] ] ] } },
{ "type": "Feature", "properties": { "gid": 2773, "streetname": "rue de Basfroy", "note": null }, "geometry": { "type": "MultiLineString", "coordinates": [ [ [ 654349.669640521518886, 6862040.723148797638714 ], [ 654534.401013344991952, 6861683.48633477371186 ] ] ] } },
{ "type": "Feature", "properties": { "gid": 2795, "streetname": "Rue de Charenton", "note": null }, "geometry": { "type": "MultiLineString", "coordinates": [ [ [ 654255.453669518232346, 6861059.148721016012132 ], [ 654288.51356064027641, 6861028.631668328307569 ] ] ] } },
{ "type": "Feature", "properties": { "gid": 2796, "streetname": "Rue de Charenton", "note": null }, "geometry": { "type": "MultiLineString", "coordinates": [ [ [ 654288.51356064027641, 6861028.631668328307569 ], [ 654333.039975761668757, 6860987.530025467276573 ] ] ] } },
{ "type": "Feature", "properties": { "gid": 2814, "streetname": "rue du Pas de la Mule", "note": null }, "geometry": { "type": "MultiLineString", "coordinates": [ [ [ 653525.237317379214801, 6861964.441362034529448 ], [ 653574.6745283564087, 6861950.318370134569705 ] ] ] } },
{ "type": "Feature", "properties": { "gid": 2853, "streetname": "Rue de Charenton", "note": null }, "geometry": { "type": "MultiLineString", "coordinates": [ [ [ 653793.134145953692496, 6861641.364476641640067 ], [ 653826.911809461540543, 6861583.39757745526731 ] ] ] } },
{ "type": "Feature", "properties": { "gid": 2856, "streetname": "Rue de Charenton", "note": null }, "geometry": { "type": "MultiLineString", "coordinates": [ [ [ 653826.911809461540543, 6861583.39757745526731 ], [ 654004.323570755426772, 6861353.089384087361395 ] ] ] } },
{ "type": "Feature", "properties": { "gid": 2857, "streetname": "Rue de Charenton", "note": null }, "geometry": { "type": "MultiLineString", "coordinates": [ [ [ 654004.323570755426772, 6861353.089384087361395 ], [ 654045.163946238229983, 6861297.613720730878413 ] ] ] } },
{ "type": "Feature", "properties": { "gid": 2859, "streetname": "Rue de Charenton", "note": null }, "geometry": { "type": "MultiLineString", "coordinates": [ [ [ 654045.163946238229983, 6861297.613720730878413 ], [ 654117.939924164675176, 6861196.776963241398335 ] ] ] } },
{ "type": "Feature", "properties": { "gid": 2860, "streetname": "Rue de Charenton", "note": null }, "geometry": { "type": "MultiLineString", "coordinates": [ [ [ 654333.039975761668757, 6860987.530025467276573 ], [ 654456.637553642969579, 6860861.57576815225184 ] ] ] } },
{ "type": "Feature", "properties": { "gid": 2862, "streetname": "Rue de Charenton", "note": null }, "geometry": { "type": "MultiLineString", "coordinates": [ [ [ 654456.637553642969579, 6860861.57576815225184 ], [ 654533.090550707303919, 6860796.766495248302817 ], [ 654594.507839213940315, 6860756.145885643549263 ], [ 654649.365208129165694, 6860729.542463909834623 ], [ 654729.117513178032823, 6860716.303780056536198 ] ] ] } },
{ "type": "Feature", "properties": { "gid": 2863, "streetname": "Rue de Charenton", "note": null }, "geometry": { "type": "MultiLineString", "coordinates": [ [ [ 654729.117513178032823, 6860716.303780056536198 ], [ 654749.983331582625397, 6860717.732190776616335 ] ] ] } },
{ "type": "Feature", "properties": { "gid": 2869, "streetname": "rue Moreau", "note": null }, "geometry": { "type": "MultiLineString", "coordinates": [ [ [ 653901.054212328279391, 6861135.062704067677259 ], [ 654004.323570755426772, 6861353.089384087361395 ] ] ] } },
{ "type": "Feature", "properties": { "gid": 2953, "streetname": "rue des 3 Pistolets", "note": null }, "geometry": { "type": "MultiLineString", "coordinates": [ [ [ 653317.292182173230685, 6861563.522048656828701 ], [ 653280.911066191736609, 6861590.592401252128184 ] ] ] } },
{ "type": "Feature", "properties": { "gid": 2955, "streetname": "rue du Petit Muse", "note": null }, "geometry": { "type": "MultiLineString", "coordinates": [ [ [ 653261.461027510813437, 6861509.232252416200936 ], [ 653317.292182173230685, 6861563.522048656828701 ] ] ] } },
{ "type": "Feature", "properties": { "gid": 2956, "streetname": "rue Neuve Saint Anastasi", "note": null }, "geometry": { "type": "MultiLineString", "coordinates": [ [ [ 653153.789228881942108, 6861728.867454803548753 ], [ 653161.608944211853668, 6861744.183558486402035 ], [ 653188.22310376400128, 6861731.058271617628634 ] ] ] } },
{ "type": "Feature", "properties": { "gid": 2957, "streetname": "rue des Prêtres", "note": null }, "geometry": { "type": "MultiLineString", "coordinates": [ [ [ 653153.789228881942108, 6861728.867454803548753 ], [ 653185.140130135347135, 6861725.527463228441775 ] ] ] } },
{ "type": "Feature", "properties": { "gid": 2958, "streetname": "rue Saint Paul", "note": null }, "geometry": { "type": "MultiLineString", "coordinates": [ [ [ 653188.22310376400128, 6861731.058271617628634 ], [ 653236.315943148336373, 6861811.543181309476495 ] ] ] } },
{ "type": "Feature", "properties": { "gid": 2960, "streetname": "rue Royale", "note": null }, "geometry": { "type": "MultiLineString", "coordinates": [ [ [ 653395.634411264560185, 6861733.909295924007893 ], [ 653428.038337820209563, 6861855.768758725374937 ] ] ] } },
{ "type": "Feature", "properties": { "gid": 2962, "streetname": "rue de Lesdigueres", "note": null }, "geometry": { "type": "MultiLineString", "coordinates": [ [ [ 653507.459721353370696, 6861496.088367620483041 ], [ 653518.412540706340224, 6861518.146069817245007 ], [ 653559.683347996673547, 6861670.079117560759187 ] ] ] } },
{ "type": "Feature", "properties": { "gid": 2964, "streetname": "place de la Bastille", "note": null }, "geometry": { "type": "MultiLineString", "coordinates": [ [ [ 653559.683347996673547, 6861670.079117560759187 ], [ 653524.424037603545003, 6861684.21937594935298 ] ] ] } },
{ "type": "Feature", "properties": { "gid": 2969, "streetname": "rue Beautreillis", "note": null }, "geometry": { "type": "MultiLineString", "coordinates": [ [ [ 653280.911066191736609, 6861590.592401252128184 ], [ 653388.858779417700134, 6861735.97873598895967 ] ] ] } },
{ "type": "Feature", "properties": { "gid": 2970, "streetname": "rue Saint Antoine", "note": null }, "geometry": { "type": "MultiLineString", "coordinates": [ [ [ 653250.386732717626728, 6861804.294338423758745 ], [ 653307.113513684947975, 6861776.308009714819491 ] ] ] } },
{ "type": "Feature", "properties": { "gid": 2971, "streetname": "rue Saint Antoine", "note": null }, "geometry": { "type": "MultiLineString", "coordinates": [ [ [ 653307.113513684947975, 6861776.308009714819491 ], [ 653388.858779417700134, 6861735.97873598895967 ] ] ] } },
{ "type": "Feature", "properties": { "gid": 2972, "streetname": "rue Saint Antoine", "note": null }, "geometry": { "type": "MultiLineString", "coordinates": [ [ [ 653388.858779417700134, 6861735.97873598895967 ], [ 653395.634411264560185, 6861733.909295924007893 ] ] ] } },
{ "type": "Feature", "properties": { "gid": 2975, "streetname": "cul de sac Guenienée", "note": null }, "geometry": { "type": "MultiLineString", "coordinates": [ [ [ 653456.040587934548967, 6861710.328447815030813 ], [ 653470.543066630722024, 6861788.653945572674274 ] ] ] } },
{ "type": "Feature", "properties": { "gid": 2976, "streetname": "rue Saint Antoine", "note": null }, "geometry": { "type": "MultiLineString", "coordinates": [ [ [ 653395.634411264560185, 6861733.909295924007893 ], [ 653456.040587934548967, 6861710.328447815030813 ] ] ] } },
{ "type": "Feature", "properties": { "gid": 2978, "streetname": "rue Saint Antoine", "note": null }, "geometry": { "type": "MultiLineString", "coordinates": [ [ [ 653456.040587934548967, 6861710.328447815030813 ], [ 653524.424037603545003, 6861684.21937594935298 ] ] ] } },
{ "type": "Feature", "properties": { "gid": 3029, "streetname": "Rue de Bercy", "note": null }, "geometry": { "type": "MultiLineString", "coordinates": [ [ [ 653568.254750105668791, 6861102.413053683936596 ], [ 653724.615608079591766, 6860940.063721728511155 ] ] ] } },
{ "type": "Feature", "properties": { "gid": 3031, "streetname": "Rue de Bercy", "note": null }, "geometry": { "type": "MultiLineString", "coordinates": [ [ [ 653724.615608079591766, 6860940.063721728511155 ], [ 653824.745336150052026, 6860829.441839504055679 ] ] ] } },
{ "type": "Feature", "properties": { "gid": 3032, "streetname": "Rue de Bercy", "note": null }, "geometry": { "type": "MultiLineString", "coordinates": [ [ [ 653824.745336150052026, 6860829.441839504055679 ], [ 654007.782171565108001, 6860651.79444697778672 ] ] ] } },
{ "type": "Feature", "properties": { "gid": 3033, "streetname": "Rue de Bercy", "note": null }, "geometry": { "type": "MultiLineString", "coordinates": [ [ [ 654007.782171565108001, 6860651.79444697778672 ], [ 654234.709994423086755, 6860422.632010972127318 ] ] ] } },
{ "type": "Feature", "properties": { "gid": 3034, "streetname": "Rue de Bercy", "note": null }, "geometry": { "type": "MultiLineString", "coordinates": [ [ [ 654234.709994423086755, 6860422.632010972127318 ], [ 654238.416702115675434, 6860418.323119971901178 ] ] ] } },
{ "type": "Feature", "properties": { "gid": 3037, "streetname": "Rue de Bercy", "note": null }, "geometry": { "type": "MultiLineString", "coordinates": [ [ [ 654238.416702115675434, 6860418.323119971901178 ], [ 654402.546303446171805, 6860235.432989468798041 ] ] ] } },
{ "type": "Feature", "properties": { "gid": 3039, "streetname": "Rue de Bercy", "note": null }, "geometry": { "type": "MultiLineString", "coordinates": [ [ [ 654402.546303446171805, 6860235.432989468798041 ], [ 654419.578075291588902, 6860216.454432582482696 ] ] ] } },
{ "type": "Feature", "properties": { "gid": 3042, "streetname": "Rue Moreau", "note": null }, "geometry": { "type": "MultiLineString", "coordinates": [ [ [ 653724.615608079591766, 6860940.063721728511155 ], [ 653872.44251207949128, 6861081.493670566938818 ], [ 653901.054212328279391, 6861135.062704067677259 ] ] ] } },
{ "type": "Feature", "properties": { "gid": 3043, "streetname": "cul de sac Saint Claude", "note": null }, "geometry": { "type": "MultiLineString", "coordinates": [ [ [ 653661.072438281145878, 6860877.187811490148306 ], [ 653724.615608079591766, 6860940.063721728511155 ] ] ] } },
{ "type": "Feature", "properties": { "gid": 3044, "streetname": "Rue Contrescarpe", "note": null }, "geometry": { "type": "MultiLineString", "coordinates": [ [ [ 653568.254750105668791, 6861102.413053683936596 ], [ 653525.092964590527117, 6860829.563852089457214 ] ] ] } },
{ "type": "Feature", "properties": { "gid": 3045, "streetname": "Rue Traversiere", "note": null }, "geometry": { "type": "MultiLineString", "coordinates": [ [ [ 653824.745336150052026, 6860829.441839504055679 ], [ 654040.801829662872478, 6861049.783175852149725 ], [ 654117.939924164675176, 6861196.776963241398335 ] ] ] } },
{ "type": "Feature", "properties": { "gid": 3046, "streetname": "Rue de Rambouillet", "note": null }, "geometry": { "type": "MultiLineString", "coordinates": [ [ [ 654238.416702115675434, 6860418.323119971901178 ], [ 654336.91457508772146, 6860495.027105101384223 ], [ 654707.595446230494417, 6860700.443655497394502 ], [ 654729.117513178032823, 6860716.303780056536198 ] ] ] } },
{ "type": "Feature", "properties": { "gid": 3048, "streetname": "rue des Charbonniers", "note": null }, "geometry": { "type": "MultiLineString", "coordinates": [ [ [ 654007.782171565108001, 6860651.79444697778672 ], [ 654208.813385955989361, 6860839.925435163080692 ], [ 654206.311030693002976, 6860860.265595001168549 ], [ 654333.039975761668757, 6860987.530025467276573 ] ] ] } },
{ "type": "Feature", "properties": { "gid": 3183, "streetname": "place Saint Antoine", "note": null }, "geometry": { "type": "MultiLineString", "coordinates": [ [ [ 653761.015132147353142, 6861686.418666194193065 ], [ 653773.022895844420418, 6861606.261386184021831 ] ] ] } },
{ "type": "Feature", "properties": { "gid": 3193, "streetname": "Rue Contrescarpe", "note": null }, "geometry": { "type": "MultiLineString", "coordinates": [ [ [ 653773.022895844420418, 6861606.261386184021831 ], [ 653774.125074592069723, 6861595.94784670136869 ], [ 653645.578716763062403, 6861390.944194563664496 ], [ 653624.475510947639123, 6861315.395117521286011 ] ] ] } }
]
}
