{
"type": "FeatureCollection",
"name": "plan_delagrive_1728_voies",
"crs": { "type": "name", "properties": { "name": "urn:ogc:def:crs:EPSG::2154" } },
"features": [
{ "type": "Feature", "properties": { "gid": 6, "streetname": null, "note": null }, "geometry": { "type": "MultiLineString", "coordinates": [ [ [ 654765.086492324597202, 6861303.270763160660863 ], [ 654765.007183303358033, 6861325.278708518482745 ] ] ] } },
{ "type": "Feature", "properties": { "gid": 78, "streetname": "Place de la Bastille", "note": null }, "geometry": { "type": "MultiLineString", "coordinates": [ [ [ 653528.149045955389738, 6861679.538382723927498 ], [ 653528.536219649715349, 6861693.164649695158005 ], [ 653563.350202500587329, 6861702.070552286691964 ], [ 653569.017595057724975, 6861716.643847434781492 ] ] ] } },
{ "type": "Feature", "properties": { "gid": 79, "streetname": "Place de la Bastille", "note": null }, "geometry": { "type": "MultiLineString", "coordinates": [ [ [ 653569.017595057724975, 6861716.643847434781492 ], [ 653577.923497647396289, 6861702.880179795436561 ], [ 653575.494615122908726, 6861659.969921860843897 ], [ 653527.726592141552828, 6861670.495079468004405 ], [ 653528.149045955389738, 6861679.538382723927498 ] ] ] } },
{ "type": "Feature", "properties": { "gid": 437, "streetname": "R de la Planchette", "note": null }, "geometry": { "type": "MultiLineString", "coordinates": [ [ [ 654919.512477708631195, 6860468.842044110409915 ], [ 654898.409315546159633, 6860498.486962386406958 ], [ 654838.61702275252901, 6860584.909436004236341 ], [ 654763.248586457921192, 6860695.449809236451983 ] ] ] } },
{ "type": "Feature", "properties": { "gid": 442, "streetname": "Rue de Rambouillet", "note": null }, "geometry": { "type": "MultiLineString", "coordinates": [ [ [ 654763.248586457921192, 6860695.449809236451983 ], [ 654694.91453755076509, 6860663.292609750293195 ], [ 654582.364339350839145, 6860610.032248102128506 ], [ 654439.164310391177423, 6860539.185917984694242 ], [ 654339.175518240430392, 6860492.457487482577562 ], [ 654289.432350286049768, 6860455.275725577026606 ], [ 654241.196551057510078, 6860412.064488768577576 ] ] ] } },
{ "type": "Feature", "properties": { "gid": 443, "streetname": "R de Bercy", "note": null }, "geometry": { "type": "MultiLineString", "coordinates": [ [ [ 654241.196551057510078, 6860412.064488768577576 ], [ 654265.816906913765706, 6860382.922026734799147 ] ] ] } },
{ "type": "Feature", "properties": { "gid": 444, "streetname": "R de Bercy", "note": null }, "geometry": { "type": "MultiLineString", "coordinates": [ [ [ 654265.816906913765706, 6860382.922026734799147 ], [ 654303.5011250609532, 6860341.218158652074635 ], [ 654357.766399193089455, 6860291.977446939796209 ], [ 654394.948161098407581, 6860242.736735227517784 ], [ 654415.046410776907578, 6860218.618835613131523 ] ] ] } },
{ "type": "Feature", "properties": { "gid": 446, "streetname": "R de Bercy", "note": null }, "geometry": { "type": "MultiLineString", "coordinates": [ [ [ 654415.046410776907578, 6860218.618835613131523 ], [ 654449.213435230427422, 6860174.402686320245266 ], [ 654544.680121203535236, 6860046.778800861909986 ] ] ] } },
{ "type": "Feature", "properties": { "gid": 1086, "streetname": "port de la Rapée", "note": null }, "geometry": { "type": "MultiLineString", "coordinates": [ [ [ 654406.504654663265683, 6859683.502937921322882 ], [ 654353.244293014984578, 6859769.925411540083587 ], [ 654321.087093529407866, 6859820.17103573679924 ], [ 654291.944631495513022, 6859865.392097513191402 ], [ 654216.576195200905204, 6859981.961945649236441 ], [ 654129.148809099220671, 6860112.600568559020758 ], [ 654100.006347065325826, 6860160.836367787793279 ], [ 654061.819672676036134, 6860221.131116823293269 ], [ 654033.682123126112856, 6860269.36691605206579 ] ] ] } },
{ "type": "Feature", "properties": { "gid": 1087, "streetname": null, "note": null }, "geometry": { "type": "MultiLineString", "coordinates": [ [ [ 654033.682123126112856, 6860269.36691605206579 ], [ 654049.760722868959419, 6860289.465165730565786 ], [ 654079.90809738682583, 6860313.583065344952047 ], [ 654103.021084517124109, 6860337.700964958406985 ], [ 654134.17337151884567, 6860361.818864572793245 ], [ 654160.301096100942232, 6860383.926939219236374 ], [ 654192.458295586635359, 6860394.980976542457938 ], [ 654218.58602016873192, 6860407.03992635011673 ], [ 654241.196551057510078, 6860412.064488768577576 ] ] ] } },
{ "type": "Feature", "properties": { "gid": 1088, "streetname": null, "note": null }, "geometry": { "type": "MultiLineString", "coordinates": [ [ [ 654265.816906913765706, 6860382.922026734799147 ], [ 654246.221113476785831, 6860366.843426993116736 ], [ 654223.108126346487552, 6860347.247633556835353 ], [ 654175.877239601919428, 6860308.056046683341265 ], [ 654150.754427503794432, 6860286.45042827911675 ], [ 654141.207758906413801, 6860276.903759681619704 ] ] ] } },
{ "type": "Feature", "properties": { "gid": 1093, "streetname": null, "note": null }, "geometry": { "type": "MultiLineString", "coordinates": [ [ [ 654415.046410776907578, 6860218.618835613131523 ], [ 654434.642204213072546, 6860233.190066629089415 ], [ 654460.267472553183325, 6860247.258841403760016 ], [ 654508.000815539737232, 6860275.898847196251154 ], [ 654547.192402412882075, 6860299.514290568418801 ] ] ] } },
{ "type": "Feature", "properties": { "gid": 1155, "streetname": null, "note": null }, "geometry": { "type": "MultiLineString", "coordinates": [ [ [ 653943.239999572862871, 6860576.87013613153249 ], [ 653971.377549122553319, 6860590.938910896889865 ], [ 653996.500361220678315, 6860604.505229430273175 ], [ 654018.608435867121443, 6860626.613304076716304 ] ] ] } },
{ "type": "Feature", "properties": { "gid": 1316, "streetname": "R de la Rapée", "note": null }, "geometry": { "type": "MultiLineString", "coordinates": [ [ [ 653995.49544873717241, 6860650.228747458197176 ], [ 653934.698243459220976, 6860718.06034011952579 ], [ 653849.783138567348942, 6860799.960707559250295 ], [ 653819.635764049482532, 6860830.610538318753242 ] ] ] } },
{ "type": "Feature", "properties": { "gid": 1317, "streetname": "R de la Rapée", "note": null }, "geometry": { "type": "MultiLineString", "coordinates": [ [ [ 653819.635764049482532, 6860830.610538318753242 ], [ 653769.892596095101908, 6860885.880724934861064 ], [ 653719.646971898735501, 6860936.126349131576717 ] ] ] } },
{ "type": "Feature", "properties": { "gid": 1318, "streetname": "R de la Rapée", "note": null }, "geometry": { "type": "MultiLineString", "coordinates": [ [ [ 653719.646971898735501, 6860936.126349131576717 ], [ 653643.776079362258315, 6861018.026716571301222 ], [ 653592.525542681920342, 6861068.27234076615423 ], [ 653558.358518228400499, 6861103.444277703762054 ] ] ] } },
{ "type": "Feature", "properties": { "gid": 1362, "streetname": "R de Reuilly", "note": null }, "geometry": { "type": "MultiLineString", "coordinates": [ [ [ 655215.459204225917347, 6860662.790153511799872 ], [ 655087.332862524082884, 6860831.615450805984437 ], [ 655016.988988649216481, 6860928.08704926352948 ] ] ] } },
{ "type": "Feature", "properties": { "gid": 1363, "streetname": "R de Reuilly", "note": null }, "geometry": { "type": "MultiLineString", "coordinates": [ [ [ 655016.988988649216481, 6860928.08704926352948 ], [ 654966.743364452850074, 6861029.583210139535367 ], [ 654905.443702933262102, 6861185.344645149074495 ], [ 654866.25211606011726, 6861258.703256475739181 ], [ 654820.277369920397177, 6861293.121509050019085 ] ] ] } },
{ "type": "Feature", "properties": { "gid": 1364, "streetname": "R du bas Reuilly", "note": null }, "geometry": { "type": "MultiLineString", "coordinates": [ [ [ 654763.248586457921192, 6860695.449809236451983 ], [ 654807.967191992443986, 6860721.577533817850053 ], [ 654859.720184914651327, 6860762.778945658355951 ], [ 654892.379840642330237, 6860795.941057628020644 ], [ 654910.9707215949893, 6860817.044219790957868 ], [ 654927.551777579705231, 6860841.66457564663142 ], [ 654967.74827693682164, 6860880.353706277906895 ], [ 655001.915301390341483, 6860914.018274489790201 ], [ 655016.988988649216481, 6860928.08704926352948 ] ] ] } },
{ "type": "Feature", "properties": { "gid": 1365, "streetname": null, "note": null }, "geometry": { "type": "MultiLineString", "coordinates": [ [ [ 654033.682123126112856, 6860269.36691605206579 ], [ 653970.372636638930999, 6860358.804127118550241 ], [ 653930.17613728181459, 6860433.167650928720832 ], [ 653898.018937796121463, 6860485.423100093379617 ], [ 653874.905950665823184, 6860520.595037030987442 ] ] ] } },
{ "type": "Feature", "properties": { "gid": 1366, "streetname": null, "note": null }, "geometry": { "type": "MultiLineString", "coordinates": [ [ [ 653874.905950665823184, 6860520.595037030987442 ], [ 653863.85191334260162, 6860513.560649642720819 ], [ 653786.4736520802835, 6860598.978210777044296 ], [ 653726.178903044667095, 6860667.312259684316814 ], [ 653677.943103816127405, 6860706.50384655687958 ] ] ] } },
{ "type": "Feature", "properties": { "gid": 1367, "streetname": null, "note": null }, "geometry": { "type": "MultiLineString", "coordinates": [ [ [ 653677.943103816127405, 6860706.50384655687958 ], [ 653663.874329041107558, 6860696.454721719026566 ], [ 653591.520630198298022, 6860767.80350807774812 ], [ 653571.422380519798025, 6860803.980357498861849 ] ] ] } },
{ "type": "Feature", "properties": { "gid": 1368, "streetname": null, "note": null }, "geometry": { "type": "MultiLineString", "coordinates": [ [ [ 653571.422380519798025, 6860803.980357498861849 ], [ 653528.21114371099975, 6860868.294756470248103 ] ] ] } },
{ "type": "Feature", "properties": { "gid": 1369, "streetname": "Rue des Charboniers", "note": null }, "geometry": { "type": "MultiLineString", "coordinates": [ [ [ 653874.905950665823184, 6860520.595037030987442 ], [ 653901.033675247919746, 6860550.742411549203098 ], [ 653943.239999572862871, 6860576.87013613153249 ] ] ] } },
{ "type": "Feature", "properties": { "gid": 1370, "streetname": "Rue des Charboniers", "note": null }, "geometry": { "type": "MultiLineString", "coordinates": [ [ [ 654206.527070361888036, 6860824.078607177361846 ], [ 654217.5811076851096, 6860846.186681823804975 ], [ 654234.664619911811315, 6860869.299668953754008 ], [ 654292.949543979601003, 6860914.520730731077492 ], [ 654327.116568433120847, 6860948.68775518424809 ], [ 654350.229555563535541, 6860966.776179894804955 ] ] ] } },
{ "type": "Feature", "properties": { "gid": 1371, "streetname": "Rue des Charboniers", "note": null }, "geometry": { "type": "MultiLineString", "coordinates": [ [ [ 653995.49544873717241, 6860650.228747458197176 ], [ 654032.677210642490536, 6860669.322084652259946 ], [ 654067.84914757986553, 6860705.498934074304998 ], [ 654139.1979339387035, 6860768.808420561254025 ], [ 654176.379695844021626, 6860793.93123265914619 ], [ 654206.527070361888036, 6860824.078607177361846 ] ] ] } },
{ "type": "Feature", "properties": { "gid": 1372, "streetname": "Rue des Charboniers", "note": null }, "geometry": { "type": "MultiLineString", "coordinates": [ [ [ 653943.239999572862871, 6860576.87013613153249 ], [ 653949.269474476459436, 6860604.002773197367787 ], [ 653977.40702402649913, 6860629.125585295259953 ], [ 653995.49544873717241, 6860650.228747458197176 ] ] ] } },
{ "type": "Feature", "properties": { "gid": 1373, "streetname": null, "note": null }, "geometry": { "type": "MultiLineString", "coordinates": [ [ [ 654206.527070361888036, 6860824.078607177361846 ], [ 654233.659707427839749, 6860812.019657368771732 ], [ 654260.792344493907876, 6860785.891932786442339 ], [ 654290.939719011657871, 6860757.754383237101138 ], [ 654323.096918497350998, 6860731.626658654771745 ], [ 654336.160780788399279, 6860724.592271267436445 ], [ 654358.268855434842408, 6860729.616833686828613 ], [ 654390.426054920535535, 6860751.724908333271742 ], [ 654432.63237924547866, 6860786.896845270879567 ], [ 654454.740453891805373, 6860800.965620045550168 ], [ 654481.873090957873501, 6860826.088432143442333 ] ] ] } },
{ "type": "Feature", "properties": { "gid": 1375, "streetname": null, "note": null }, "geometry": { "type": "MultiLineString", "coordinates": [ [ [ 654215.571282717050053, 6861102.439365221187472 ], [ 654206.024614120018668, 6861084.853396752849221 ], [ 654189.443558135186322, 6861047.671634847298265 ] ] ] } },
{ "type": "Feature", "properties": { "gid": 1376, "streetname": null, "note": null }, "geometry": { "type": "MultiLineString", "coordinates": [ [ [ 654152.261796229635365, 6861161.729201773181558 ], [ 654133.16845903522335, 6861135.099020949564874 ], [ 654122.616877953987569, 6861109.473752608522773 ] ] ] } },
{ "type": "Feature", "properties": { "gid": 1377, "streetname": "R Traversine ou des Chantiers", "note": null }, "geometry": { "type": "MultiLineString", "coordinates": [ [ [ 653677.943103816127405, 6860706.50384655687958 ], [ 653714.119953237241134, 6860735.143852343782783 ], [ 653744.769783996976912, 6860761.774033168330789 ], [ 653788.985933289746754, 6860799.96070755738765 ], [ 653819.635764049482532, 6860830.610538318753242 ] ] ] } },
{ "type": "Feature", "properties": { "gid": 1379, "streetname": "R Traversine ou des Chantiers", "note": null }, "geometry": { "type": "MultiLineString", "coordinates": [ [ [ 653819.635764049482532, 6860830.610538318753242 ], [ 653857.822438438772224, 6860865.280019013211131 ], [ 653921.131924926186912, 6860918.540380661375821 ], [ 653960.32351179944817, 6860958.2344237761572 ], [ 654003.032292366260663, 6860999.938291857950389 ], [ 654051.268091594800353, 6861041.642159940674901 ], [ 654082.420378596521914, 6861106.459015154279768 ], [ 654115.080034324084409, 6861168.76358915772289 ], [ 654122.11442171188537, 6861192.881488774903119 ] ] ] } },
{ "type": "Feature", "properties": { "gid": 1380, "streetname": "R Traversine", "note": null }, "geometry": { "type": "MultiLineString", "coordinates": [ [ [ 654122.11442171188537, 6861192.881488774903119 ], [ 654149.247058777604252, 6861242.122200483456254 ], [ 654182.40917074715253, 6861321.007830471731722 ], [ 654204.517245393595658, 6861362.711698555387557 ], [ 654228.13268876587972, 6861420.494166380725801 ] ] ] } },
{ "type": "Feature", "properties": { "gid": 1381, "streetname": "R S Nicolas", "note": null }, "geometry": { "type": "MultiLineString", "coordinates": [ [ [ 654046.745985417510383, 6861286.338349780999124 ], [ 654060.312303950078785, 6861306.436599454842508 ], [ 654077.898272418766282, 6861350.150292506441474 ], [ 654094.479328403598629, 6861388.839423137716949 ], [ 654111.562840630300343, 6861427.528553768061101 ], [ 654122.616877953521907, 6861457.173472044058144 ] ] ] } },
{ "type": "Feature", "properties": { "gid": 1382, "streetname": null, "note": null }, "geometry": { "type": "MultiLineString", "coordinates": [ [ [ 653995.49544873717241, 6860650.228747458197176 ], [ 654018.608435867121443, 6860626.613304076716304 ] ] ] } },
{ "type": "Feature", "properties": { "gid": 1383, "streetname": null, "note": null }, "geometry": { "type": "MultiLineString", "coordinates": [ [ [ 654018.608435867121443, 6860626.613304076716304 ], [ 654065.839322611689568, 6860582.89961102604866 ], [ 654105.533365726820193, 6860542.200655426830053 ], [ 654146.734777567908168, 6860499.491874859668314 ], [ 654190.448470618692227, 6860458.792919260449708 ], [ 654221.600757620413788, 6860426.133263533003628 ], [ 654241.196551057510078, 6860412.064488768577576 ] ] ] } },
{ "type": "Feature", "properties": { "gid": 1384, "streetname": "R des Marais", "note": null }, "geometry": { "type": "MultiLineString", "coordinates": [ [ [ 653871.137528850347735, 6861073.799359422177076 ], [ 653866.615422672592103, 6861098.922171520069242 ], [ 653859.078579043154605, 6861118.015508714132011 ], [ 653826.41892331559211, 6861151.177620683796704 ], [ 653759.592243134393357, 6861200.920788638293743 ], [ 653734.971887278137729, 6861228.05342570412904 ], [ 653675.682050726492889, 6861277.79659365862608 ], [ 653660.608363467501476, 6861290.357999707572162 ] ] ] } },
{ "type": "Feature", "properties": { "gid": 1385, "streetname": "R des Marais", "note": null }, "geometry": { "type": "MultiLineString", "coordinates": [ [ [ 653660.608363467501476, 6861290.357999707572162 ], [ 653617.397126658703201, 6861319.500461741350591 ] ] ] } },
{ "type": "Feature", "properties": { "gid": 1386, "streetname": "ruelle de la Planchette", "note": null }, "geometry": { "type": "MultiLineString", "coordinates": [ [ [ 653660.608363467501476, 6861290.357999707572162 ], [ 653682.213981872075237, 6861321.007830468006432 ], [ 653697.790125372936018, 6861353.667486195452511 ], [ 653706.83433772821445, 6861395.873810520395637 ], [ 653721.908024987205863, 6861433.558028668165207 ], [ 653737.484168488066643, 6861461.193121976219118 ], [ 653755.572593198739924, 6861489.833127767778933 ], [ 653765.119261796004139, 6861507.921552478335798 ], [ 653788.734705168288201, 6861534.551733302883804 ], [ 653805.818217395106331, 6861556.659807949326932 ], [ 653818.630851565860212, 6861568.216301523149014 ] ] ] } },
{ "type": "Feature", "properties": { "gid": 1387, "streetname": "R des fosses Saint Antoine", "note": null }, "geometry": { "type": "MultiLineString", "coordinates": [ [ [ 653617.397126658703201, 6861319.500461741350591 ], [ 653635.485551369260065, 6861375.775560840032995 ], [ 653640.510113788885064, 6861395.873810518532991 ], [ 653660.608363467385061, 6861450.139084650203586 ], [ 653692.765562953078188, 6861500.384708846919239 ], [ 653727.937499890569597, 6861560.679457882419229 ], [ 653760.094699376262724, 6861594.846482336521149 ], [ 653769.138911731657572, 6861604.393150933086872 ], [ 653781.449089660542086, 6861634.038069220259786 ] ] ] } },
{ "type": "Feature", "properties": { "gid": 1388, "streetname": "R des fosses Saint Antoine", "note": null }, "geometry": { "type": "MultiLineString", "coordinates": [ [ [ 653528.21114371099975, 6860868.294756470248103 ], [ 653541.023777880007401, 6860968.78600484970957 ], [ 653553.082727687200531, 6861046.16426611226052 ], [ 653558.358518228400499, 6861103.444277703762054 ] ] ] } },
{ "type": "Feature", "properties": { "gid": 1389, "streetname": "R des fosses Saint Antoine", "note": null }, "geometry": { "type": "MultiLineString", "coordinates": [ [ [ 653558.358518228400499, 6861103.444277703762054 ], [ 653569.161327430047095, 6861161.729201763868332 ], [ 653581.22027723712381, 6861213.984650927595794 ], [ 653599.308701947913505, 6861247.146762897260487 ] ] ] } },
{ "type": "Feature", "properties": { "gid": 1390, "streetname": "R des fosses Saint Antoine", "note": null }, "geometry": { "type": "MultiLineString", "coordinates": [ [ [ 653599.308701947913505, 6861247.146762897260487 ], [ 653617.397126658703201, 6861319.500461741350591 ] ] ] } },
{ "type": "Feature", "properties": { "gid": 1397, "streetname": "R de Montreuil", "note": null }, "geometry": { "type": "MultiLineString", "coordinates": [ [ [ 654625.324348037480377, 6861313.973443076945841 ], [ 654765.007183303358033, 6861325.278708518482745 ] ] ] } },
{ "type": "Feature", "properties": { "gid": 1399, "streetname": "R de Montreuil", "note": null }, "geometry": { "type": "MultiLineString", "coordinates": [ [ [ 654765.007183303358033, 6861325.278708518482745 ], [ 654796.159470305079594, 6861326.283621002919972 ] ] ] } },
{ "type": "Feature", "properties": { "gid": 1400, "streetname": "R de Montreuil", "note": null }, "geometry": { "type": "MultiLineString", "coordinates": [ [ [ 654796.159470305079594, 6861326.283621002919972 ], [ 654897.655631181667559, 6861330.303270938806236 ], [ 654945.891430410207249, 6861331.30818342231214 ], [ 654985.083017283352092, 6861327.288533486425877 ] ] ] } },
{ "type": "Feature", "properties": { "gid": 1401, "streetname": "R de Montreuil", "note": null }, "geometry": { "type": "MultiLineString", "coordinates": [ [ [ 654985.083017283352092, 6861327.288533486425877 ], [ 655046.382678802940063, 6861325.278708518482745 ], [ 655174.006564261741005, 6861320.254146099090576 ], [ 655279.522375074098818, 6861320.254146099090576 ] ] ] } },
{ "type": "Feature", "properties": { "gid": 1404, "streetname": null, "note": null }, "geometry": { "type": "MultiLineString", "coordinates": [ [ [ 654794.400873459177092, 6861302.919405767694116 ], [ 654796.159470305079594, 6861326.283621002919972 ] ] ] } },
{ "type": "Feature", "properties": { "gid": 1405, "streetname": null, "note": null }, "geometry": { "type": "MultiLineString", "coordinates": [ [ [ 654988.055364274536259, 6861253.744718674570322 ], [ 654989.039860188844614, 6861271.013434385880828 ], [ 654988.537403946858831, 6861294.628877758048475 ], [ 654987.53249146300368, 6861315.732039920985699 ], [ 654985.083017283352092, 6861327.288533486425877 ] ] ] } },
{ "type": "Feature", "properties": { "gid": 1407, "streetname": "R du faubourg Saint-Antoine", "note": null }, "geometry": { "type": "MultiLineString", "coordinates": [ [ [ 654988.055364274536259, 6861253.744718674570322 ], [ 655169.460701924166642, 6861209.126915073022246 ], [ 655389.560292064212263, 6861135.099020938389003 ] ] ] } },
{ "type": "Feature", "properties": { "gid": 1408, "streetname": "R du faubourg Saint-Antoine", "note": null }, "geometry": { "type": "MultiLineString", "coordinates": [ [ [ 654820.277369920397177, 6861293.121509050019085 ], [ 654988.055364274536259, 6861253.744718674570322 ] ] ] } },
{ "type": "Feature", "properties": { "gid": 1409, "streetname": "R du faubourg Saint-Antoine", "note": null }, "geometry": { "type": "MultiLineString", "coordinates": [ [ [ 654794.400873459177092, 6861302.919405767694116 ], [ 654820.277369920397177, 6861293.121509050019085 ] ] ] } },
{ "type": "Feature", "properties": { "gid": 1410, "streetname": "R du faubourg Saint-Antoine", "note": null }, "geometry": { "type": "MultiLineString", "coordinates": [ [ [ 653781.449089660542086, 6861634.038069220259786 ], [ 653802.301023700973019, 6861626.501225576736033 ], [ 653835.463135670521297, 6861604.393150930292904 ], [ 653880.684197447262704, 6861574.245776412077248 ], [ 653959.067371193668805, 6861531.034539603628218 ], [ 654044.484932327410206, 6861491.84295273013413 ], [ 654056.543882134603336, 6861488.828215278685093 ] ] ] } },
{ "type": "Feature", "properties": { "gid": 1411, "streetname": "R du faubourg Saint-Antoine", "note": null }, "geometry": { "type": "MultiLineString", "coordinates": [ [ [ 654228.13268876587972, 6861420.494166380725801 ], [ 654294.70814082538709, 6861392.356616822071373 ], [ 654360.027452280628495, 6861372.258367142640054 ], [ 654400.223951637744904, 6861359.194504852406681 ] ] ] } },
{ "type": "Feature", "properties": { "gid": 1412, "streetname": "R du faubourg Saint-Antoine", "note": null }, "geometry": { "type": "MultiLineString", "coordinates": [ [ [ 654122.616877953521907, 6861457.173472044058144 ], [ 654186.177592561230995, 6861434.562941147014499 ], [ 654228.13268876587972, 6861420.494166380725801 ] ] ] } },
{ "type": "Feature", "properties": { "gid": 1413, "streetname": "R du faubourg Saint-Antoine", "note": null }, "geometry": { "type": "MultiLineString", "coordinates": [ [ [ 654765.086492324597202, 6861303.270763160660863 ], [ 654794.400873459177092, 6861302.919405767694116 ] ] ] } },
{ "type": "Feature", "properties": { "gid": 1414, "streetname": "R du faubourg Saint-Antoine", "note": null }, "geometry": { "type": "MultiLineString", "coordinates": [ [ [ 654625.324348037480377, 6861313.973443076945841 ], [ 654765.086492324597202, 6861303.270763160660863 ] ] ] } },
{ "type": "Feature", "properties": { "gid": 1415, "streetname": "R du faubourg Saint-Antoine", "note": null }, "geometry": { "type": "MultiLineString", "coordinates": [ [ [ 654056.543882134603336, 6861488.828215278685093 ], [ 654122.616877953521907, 6861457.173472044058144 ] ] ] } },
{ "type": "Feature", "properties": { "gid": 1416, "streetname": "R du faubourg Saint-Antoine", "note": null }, "geometry": { "type": "MultiLineString", "coordinates": [ [ [ 654400.223951637744904, 6861359.194504852406681 ], [ 654507.749587417929433, 6861320.002917978912592 ], [ 654625.324348037480377, 6861313.973443076945841 ] ] ] } },
{ "type": "Feature", "properties": { "gid": 1417, "streetname": "R Moreau des Filles Angloises", "note": null }, "geometry": { "type": "MultiLineString", "coordinates": [ [ [ 653871.137528850347735, 6861073.799359422177076 ], [ 653883.698934899526648, 6861080.833746809512377 ], [ 653892.743147254805081, 6861093.897609100677073 ], [ 653893.245603496790864, 6861114.498315021395683 ], [ 653900.279990884242579, 6861137.611302151344717 ], [ 653924.900346740498208, 6861185.344645137898624 ], [ 653943.491227693157271, 6861229.058338188566267 ], [ 653963.589477371657267, 6861265.235187609679997 ], [ 653981.175445840344764, 6861306.436599451117218 ], [ 653994.741764373378828, 6861335.076605242677033 ], [ 654002.529836124740541, 6861339.598711429163814 ] ] ] } },
{ "type": "Feature", "properties": { "gid": 1418, "streetname": "R Moreau des Filles Angloises", "note": null }, "geometry": { "type": "MultiLineString", "coordinates": [ [ [ 653571.422380519798025, 6860803.980357498861849 ], [ 653592.023086439585313, 6860822.571238443255424 ], [ 653621.165548473480158, 6860848.698963025584817 ], [ 653651.312922991230153, 6860876.836512574926019 ], [ 653673.420997637673281, 6860893.920024801976979 ], [ 653703.568372155539691, 6860916.028099448420107 ], [ 653719.646971898735501, 6860936.126349131576717 ] ] ] } },
{ "type": "Feature", "properties": { "gid": 1419, "streetname": "R Moreau des Filles Angloises", "note": null }, "geometry": { "type": "MultiLineString", "coordinates": [ [ [ 653719.646971898735501, 6860936.126349131576717 ], [ 653760.597155618364923, 6860972.805654787458479 ], [ 653802.803479943308048, 6861009.484960450790823 ], [ 653846.517172994208522, 6861050.686372292228043 ], [ 653871.137528850347735, 6861073.799359422177076 ] ] ] } },
{ "type": "Feature", "properties": { "gid": 1445, "streetname": "R de Charone", "note": null }, "geometry": { "type": "MultiLineString", "coordinates": [ [ [ 654056.543882134603336, 6861488.828215278685093 ], [ 654084.618624653900042, 6861565.201564053073525 ], [ 654106.726699300226755, 6861609.417713345959783 ] ] ] } },
{ "type": "Feature", "properties": { "gid": 1449, "streetname": "R de Charone", "note": null }, "geometry": { "type": "MultiLineString", "coordinates": [ [ [ 654106.726699300226755, 6861609.417713345959783 ], [ 654137.878986301948316, 6861644.589650283567607 ], [ 654204.203210241161287, 6861667.702637413516641 ], [ 654250.429184501874261, 6861666.697724930010736 ], [ 654351.925345378578641, 6861650.619125187397003 ], [ 654368.003945121308789, 6861647.604387735016644 ] ] ] } },
{ "type": "Feature", "properties": { "gid": 1450, "streetname": "R de Charone", "note": null }, "geometry": { "type": "MultiLineString", "coordinates": [ [ [ 654368.003945121308789, 6861647.604387735016644 ], [ 654414.229919382021762, 6861646.599475251510739 ], [ 654475.529580901609734, 6861659.663337542675436 ] ] ] } },
{ "type": "Feature", "properties": { "gid": 1451, "streetname": "R de Charone", "note": null }, "geometry": { "type": "MultiLineString", "coordinates": [ [ [ 654550.898017196101137, 6861680.766499704681337 ], [ 654639.330315781757236, 6861711.918786706402898 ], [ 654733.792089270893484, 6861741.061248740181327 ], [ 654750.875601497828029, 6861746.085811159573495 ], [ 654797.101575758541003, 6861757.13984848279506 ], [ 654826.244037792435847, 6861763.169323386624455 ], [ 654912.666511410148814, 6861788.292135484516621 ], [ 654986.025122736813501, 6861809.395297647453845 ] ] ] } },
{ "type": "Feature", "properties": { "gid": 1452, "streetname": "R de Charone", "note": null }, "geometry": { "type": "MultiLineString", "coordinates": [ [ [ 654475.529580901609734, 6861659.663337542675436 ], [ 654550.898017196101137, 6861680.766499704681337 ] ] ] } },
{ "type": "Feature", "properties": { "gid": 1473, "streetname": "R de Funcis ?", "note": "dechiffrage difficile" }, "geometry": { "type": "MultiLineString", "coordinates": [ [ [ 653599.308701947913505, 6861247.146762897260487 ], [ 653620.851513321395032, 6861222.526407028548419 ], [ 653679.638893631054088, 6861176.802889009937644 ], [ 653717.323111778357998, 6861144.143233282491565 ], [ 653750.48522374802269, 6861116.00568373221904 ], [ 653749.982767506036907, 6861107.966383861377835 ], [ 653741.943467634613626, 6861097.917259021662176 ], [ 653732.39679903734941, 6861087.868134182877839 ], [ 653723.352586681954563, 6861073.296903165988624 ], [ 653699.7371433096705, 6861050.183916035108268 ] ] ] } },
{ "type": "Feature", "properties": { "gid": 1474, "streetname": null, "note": null }, "geometry": { "type": "MultiLineString", "coordinates": [ [ [ 653781.449089660542086, 6861634.038069220259786 ], [ 653780.130142023670487, 6861665.190356200560927 ] ] ] } },
{ "type": "Feature", "properties": { "gid": 1475, "streetname": null, "note": null }, "geometry": { "type": "MultiLineString", "coordinates": [ [ [ 653780.130142023670487, 6861665.190356200560927 ], [ 653755.509786167531274, 6861680.766499701887369 ], [ 653715.313286810414866, 6861693.830361993052065 ], [ 653675.61924369528424, 6861702.372118106111884 ] ] ] } },
{ "type": "Feature", "properties": { "gid": 1476, "streetname": null, "note": null }, "geometry": { "type": "MultiLineString", "coordinates": [ [ [ 653675.61924369528424, 6861702.372118106111884 ], [ 653663.56029388809111, 6861706.894224284216762 ] ] ] } },
{ "type": "Feature", "properties": { "gid": 1477, "streetname": null, "note": null }, "geometry": { "type": "MultiLineString", "coordinates": [ [ [ 653663.56029388809111, 6861706.894224284216762 ], [ 653631.905550644383766, 6861714.431067913770676 ], [ 653583.669751415960491, 6861715.938436639495194 ], [ 653569.017595057724975, 6861716.643847434781492 ] ] ] } },
{ "type": "Feature", "properties": { "gid": 1478, "streetname": null, "note": null }, "geometry": { "type": "MultiLineString", "coordinates": [ [ [ 653780.130142023670487, 6861665.190356200560927 ], [ 653793.194004314835183, 6861667.70263740979135 ], [ 653807.765235331724398, 6861678.254218490794301 ], [ 653835.902784881764092, 6861722.972824025899172 ], [ 653856.001034560264088, 6861755.130023511126637 ], [ 653864.04033443168737, 6861768.696342044509947 ] ] ] } },
{ "type": "Feature", "properties": { "gid": 1479, "streetname": "R de Lappe", "note": null }, "geometry": { "type": "MultiLineString", "coordinates": [ [ [ 654106.726699300226755, 6861609.417713345959783 ], [ 654074.067043572547846, 6861623.486488116905093 ], [ 654038.895106635056436, 6861651.121581424959004 ], [ 653981.11263880925253, 6861690.313168298453093 ], [ 653936.896489516482688, 6861720.460542815737426 ], [ 653881.123846658505499, 6861756.134935995563865 ], [ 653864.04033443168737, 6861768.696342044509947 ] ] ] } },
{ "type": "Feature", "properties": { "gid": 1480, "streetname": "R de la Roquette", "note": null }, "geometry": { "type": "MultiLineString", "coordinates": [ [ [ 653864.04033443168737, 6861768.696342044509947 ], [ 653913.281046143965796, 6861801.85845401417464 ], [ 653952.472633017110638, 6861838.03530343528837 ], [ 654011.762469568755478, 6861877.729346550069749 ], [ 654056.983531345496885, 6861910.891458519734442 ], [ 654120.795474074897356, 6861942.043745521456003 ], [ 654202.193385272985324, 6861978.723051184788346 ], [ 654264.497959276544861, 6862001.836038315668702 ] ] ] } },
{ "type": "Feature", "properties": { "gid": 1482, "streetname": "R de la Roquette", "note": null }, "geometry": { "type": "MultiLineString", "coordinates": [ [ [ 654357.95482028182596, 6862036.0030627688393 ], [ 654479.549230837030336, 6862077.20447461027652 ], [ 654563.961879487033002, 6862107.351849128492177 ], [ 654655.408915524370968, 6862131.972204985097051 ] ] ] } },
{ "type": "Feature", "properties": { "gid": 1483, "streetname": "C Mortagne", "note": null }, "geometry": { "type": "MultiLineString", "coordinates": [ [ [ 654368.003945121308789, 6861647.604387735016644 ], [ 654364.989207669277675, 6861659.663337538950145 ], [ 654354.940082830027677, 6861680.264043459668756 ], [ 654343.383589264936745, 6861705.386855557560921 ] ] ] } },
{ "type": "Feature", "properties": { "gid": 1484, "streetname": "C de la Roquette", "note": null }, "geometry": { "type": "MultiLineString", "coordinates": [ [ [ 654264.497959276544861, 6862001.836038315668702 ], [ 654282.586383987218142, 6861969.678838831372559 ], [ 654299.167439972050488, 6861936.014270619489253 ], [ 654321.275514618493617, 6861900.339877440594137 ], [ 654363.984295185306109, 6861825.47389738727361 ] ] ] } },
{ "type": "Feature", "properties": { "gid": 1485, "streetname": "R de Basfroi", "note": null }, "geometry": { "type": "MultiLineString", "coordinates": [ [ [ 654357.95482028182596, 6862036.0030627688393 ], [ 654387.762074865284376, 6861986.634447459131479 ], [ 654453.407954984228127, 6861865.186925893649459 ], [ 654508.781185706728138, 6861760.113678098656237 ], [ 654550.898017196101137, 6861680.766499704681337 ] ] ] } },
{ "type": "Feature", "properties": { "gid": 1486, "streetname": "R Stes Marguerite", "note": null }, "geometry": { "type": "MultiLineString", "coordinates": [ [ [ 654400.223951637744904, 6861359.194504852406681 ], [ 654417.418809407507069, 6861407.682226195931435 ], [ 654441.536709021776915, 6861504.153824652545154 ], [ 654458.620221248478629, 6861578.517348463647068 ], [ 654470.679171055671759, 6861628.762972659431398 ], [ 654475.529580901609734, 6861659.663337542675436 ] ] ] } },
{ "type": "Feature", "properties": { "gid": 1487, "streetname": "R S Bernard", "note": null }, "geometry": { "type": "MultiLineString", "coordinates": [ [ [ 654625.324348037480377, 6861313.973443076945841 ], [ 654633.474993451847695, 6861371.505376773886383 ], [ 654633.474993451847695, 6861408.687138678506017 ] ] ] } },
{ "type": "Feature", "properties": { "gid": 1488, "streetname": "R S Bernard", "note": null }, "geometry": { "type": "MultiLineString", "coordinates": [ [ [ 654633.474993451847695, 6861408.687138678506017 ], [ 654637.494643387617543, 6861481.040837521664798 ], [ 654640.509380839415826, 6861549.374886428937316 ] ] ] } },
{ "type": "Feature", "properties": { "gid": 1489, "streetname": "C du petit jardinier", "note": null }, "geometry": { "type": "MultiLineString", "coordinates": [ [ [ 654633.474993451847695, 6861408.687138678506017 ], [ 654694.774654971435666, 6861412.706788614392281 ], [ 654757.079228974878788, 6861412.706788614392281 ], [ 654845.511527560534887, 6861416.726438550278544 ], [ 654886.712939401506446, 6861418.736263518221676 ] ] ] } },
{ "type": "Feature", "properties": { "gid": 1490, "streetname": null, "note": null }, "geometry": { "type": "MultiLineString", "coordinates": [ [ [ 654550.898017196101137, 6861680.766499704681337 ], [ 654569.160594480461441, 6861641.826834949664772 ], [ 654570.165506964433007, 6861588.566473301500082 ], [ 654578.204806835856289, 6861565.453486171551049 ], [ 654606.342356385779567, 6861556.409273816272616 ], [ 654640.509380839415826, 6861549.374886428937316 ] ] ] } },
{ "type": "Feature", "properties": { "gid": 1588, "streetname": null, "note": null }, "geometry": { "type": "MultiLineString", "coordinates": [ [ [ 653864.04033443168737, 6861768.696342044509947 ], [ 653840.40198401233647, 6861793.047950578853488 ] ] ] } },
{ "type": "Feature", "properties": { "gid": 1589, "streetname": null, "note": null }, "geometry": { "type": "MultiLineString", "coordinates": [ [ [ 653840.40198401233647, 6861793.047950578853488 ], [ 653825.619901890167966, 6861763.483786335214972 ], [ 653789.270519622601569, 6861706.536420783028007 ] ] ] } },
{ "type": "Feature", "properties": { "gid": 1590, "streetname": null, "note": null }, "geometry": { "type": "MultiLineString", "coordinates": [ [ [ 653840.40198401233647, 6861793.047950578853488 ], [ 653860.999967297189869, 6861823.581431683152914 ], [ 653874.570403343765065, 6861854.11491278745234 ], [ 653876.266707849688828, 6861873.016591567546129 ] ] ] } },
{ "type": "Feature", "properties": { "gid": 2052, "streetname": "R des Tournelles", "note": null }, "geometry": { "type": "MultiLineString", "coordinates": [ [ [ 653569.017595057724975, 6861716.643847434781492 ], [ 653572.325289791915566, 6861729.315367009490728 ], [ 653567.478705489658751, 6861778.750526892021298 ], [ 653569.417339210631326, 6861838.848172240890563 ], [ 653576.202557233744301, 6861954.196878635324538 ] ] ] } },
{ "type": "Feature", "properties": { "gid": 2053, "streetname": "R des Tournelles", "note": null }, "geometry": { "type": "MultiLineString", "coordinates": [ [ [ 653576.202557233744301, 6861954.196878635324538 ], [ 653579.575941170216538, 6862069.977920525707304 ] ] ] } },
{ "type": "Feature", "properties": { "gid": 2058, "streetname": "R du Pas de la mule", "note": null }, "geometry": { "type": "MultiLineString", "coordinates": [ [ [ 653576.202557233744301, 6861954.196878635324538 ], [ 653605.612301419489086, 6861944.332747656852007 ], [ 653636.60529212327674, 6861935.727252702228725 ], [ 653659.276093773776665, 6861934.562652143649757 ] ] ] } },
{ "type": "Feature", "properties": { "gid": 2059, "streetname": null, "note": null }, "geometry": { "type": "MultiLineString", "coordinates": [ [ [ 653576.202557233744301, 6861954.196878635324538 ], [ 653528.871711737592705, 6861966.087015786208212 ] ] ] } },
{ "type": "Feature", "properties": { "gid": 2063, "streetname": "R du Parc roial", "note": null }, "geometry": { "type": "MultiLineString", "coordinates": [ [ [ 653467.900114692281932, 6861986.732340161688626 ], [ 653472.536568464827724, 6862011.521238196641207 ], [ 653486.195086194900796, 6862054.672692119143903 ] ] ] } },
{ "type": "Feature", "properties": { "gid": 2071, "streetname": "R de Charenton", "note": null }, "geometry": { "type": "MultiLineString", "coordinates": [ [ [ 654763.248586457921192, 6860695.449809236451983 ], [ 654700.944012454012409, 6860697.45963419880718 ], [ 654657.732775645097718, 6860707.508759037591517 ], [ 654581.359426866634749, 6860754.739645781926811 ], [ 654514.030290443566628, 6860802.975445010699332 ] ] ] } },
{ "type": "Feature", "properties": { "gid": 2072, "streetname": "R de Charenton", "note": null }, "geometry": { "type": "MultiLineString", "coordinates": [ [ [ 654481.873090957873501, 6860826.088432143442333 ], [ 654446.701154020382091, 6860864.275106530636549 ], [ 654386.406404984765686, 6860927.584593017585576 ], [ 654350.229555563535541, 6860966.776179894804955 ] ] ] } },
{ "type": "Feature", "properties": { "gid": 2073, "streetname": "R de Charenton", "note": null }, "geometry": { "type": "MultiLineString", "coordinates": [ [ [ 654350.229555563535541, 6860966.776179894804955 ], [ 654289.91153728379868, 6861028.140638389624655 ], [ 654240.694094815291464, 6861077.316553123295307 ], [ 654215.571282717050053, 6861102.439365221187472 ] ] ] } },
{ "type": "Feature", "properties": { "gid": 2074, "streetname": "R de Charenton", "note": null }, "geometry": { "type": "MultiLineString", "coordinates": [ [ [ 653818.630851565860212, 6861568.216301523149014 ], [ 653798.532601887360215, 6861596.856307314708829 ], [ 653781.449089660542086, 6861634.038069220259786 ] ] ] } },
{ "type": "Feature", "properties": { "gid": 2075, "streetname": "R de Charenton", "note": null }, "geometry": { "type": "MultiLineString", "coordinates": [ [ [ 654046.745985417510383, 6861286.338349780999124 ], [ 654002.529836124740541, 6861339.598711429163814 ] ] ] } },
{ "type": "Feature", "properties": { "gid": 2076, "streetname": "R de Charenton", "note": null }, "geometry": { "type": "MultiLineString", "coordinates": [ [ [ 654002.529836124740541, 6861339.598711429163814 ], [ 653979.919305236311629, 6861368.238717220723629 ], [ 653962.835793009609915, 6861389.844335625879467 ], [ 653931.683506007771939, 6861426.52364128921181 ], [ 653887.467356715002097, 6861480.28645917866379 ], [ 653844.256119906087406, 6861532.541908343322575 ], [ 653818.630851565860212, 6861568.216301523149014 ] ] ] } },
{ "type": "Feature", "properties": { "gid": 2077, "streetname": "R de Charenton", "note": null }, "geometry": { "type": "MultiLineString", "coordinates": [ [ [ 654122.11442171188537, 6861192.881488774903119 ], [ 654046.745985417510383, 6861286.338349780999124 ] ] ] } },
{ "type": "Feature", "properties": { "gid": 2078, "streetname": "R de Charenton", "note": null }, "geometry": { "type": "MultiLineString", "coordinates": [ [ [ 654215.571282717050053, 6861102.439365221187472 ], [ 654152.261796229635365, 6861161.729201773181558 ] ] ] } },
{ "type": "Feature", "properties": { "gid": 2079, "streetname": "R de Charenton", "note": null }, "geometry": { "type": "MultiLineString", "coordinates": [ [ [ 654152.261796229635365, 6861161.729201773181558 ], [ 654122.11442171188537, 6861192.881488774903119 ] ] ] } },
{ "type": "Feature", "properties": { "gid": 2080, "streetname": "R de Charenton", "note": null }, "geometry": { "type": "MultiLineString", "coordinates": [ [ [ 654514.030290443566628, 6860802.975445010699332 ], [ 654481.873090957873501, 6860826.088432143442333 ] ] ] } },
{ "type": "Feature", "properties": { "gid": 2602, "streetname": null, "note": null }, "geometry": { "type": "MultiLineString", "coordinates": [ [ [ 653659.276093773776665, 6861934.562652143649757 ], [ 653678.462561043095775, 6861824.297985576093197 ], [ 653676.87847953569144, 6861806.87308899499476 ], [ 653663.56029388809111, 6861706.894224284216762 ] ] ] } },
{ "type": "Feature", "properties": { "gid": 2603, "streetname": null, "note": null }, "geometry": { "type": "MultiLineString", "coordinates": [ [ [ 653628.931841840036213, 6862147.423669801093638 ], [ 653659.276093773776665, 6861934.562652143649757 ] ] ] } },
{ "type": "Feature", "properties": { "gid": 2631, "streetname": "quai Beaufils", "note": null }, "geometry": { "type": "MultiLineString", "coordinates": [ [ [ 652971.665193445398472, 6861626.980832809582353 ], [ 653058.839178901282139, 6861556.687215917743742 ] ] ] } },
{ "type": "Feature", "properties": { "gid": 2633, "streetname": "rue des Barres", "note": null }, "geometry": { "type": "MultiLineString", "coordinates": [ [ [ 653047.552598160807975, 6861622.228588288649917 ], [ 653076.858106048312038, 6861590.744968325830996 ], [ 653083.986472831806168, 6861583.220581167377532 ] ] ] } },
{ "type": "Feature", "properties": { "gid": 2639, "streetname": "rue des Prètres", "note": null }, "geometry": { "type": "MultiLineString", "coordinates": [ [ [ 653122.301444292883389, 6861733.114293810911477 ], [ 653133.241507203551009, 6861728.956079854629934 ], [ 653152.844515857985243, 6861723.807814952917397 ], [ 653159.972882641479373, 6861722.619753822684288 ], [ 653170.467422628309578, 6861722.223733447492123 ], [ 653190.862472036504187, 6861721.431692692451179 ] ] ] } },
{ "type": "Feature", "properties": { "gid": 2669, "streetname": "rue Neuve Saint Paul", "note": null }, "geometry": { "type": "MultiLineString", "coordinates": [ [ [ 653190.862472036504187, 6861721.431692692451179 ], [ 653193.535609580343589, 6861728.560059477575123 ], [ 653212.940608046483248, 6861766.97403603233397 ], [ 653235.117749150493182, 6861806.576073718257248 ] ] ] } },
{ "type": "Feature", "properties": { "gid": 2670, "streetname": "rue Neuve Saint Paul", "note": null }, "geometry": { "type": "MultiLineString", "coordinates": [ [ [ 653058.839178901282139, 6861556.687215917743742 ], [ 653068.949402512866072, 6861567.354689911939204 ] ] ] } },
{ "type": "Feature", "properties": { "gid": 2671, "streetname": "rue Neuve Saint Paul", "note": null }, "geometry": { "type": "MultiLineString", "coordinates": [ [ [ 653083.986472831806168, 6861583.220581167377532 ], [ 653102.054902526084334, 6861606.585783403366804 ], [ 653115.519595339312218, 6861624.802720740437508 ] ] ] } },
{ "type": "Feature", "properties": { "gid": 2672, "streetname": "rue Neuve Saint Paul", "note": null }, "geometry": { "type": "MultiLineString", "coordinates": [ [ [ 653159.477857170510106, 6861675.889349356293678 ], [ 653190.862472036504187, 6861721.431692692451179 ] ] ] } },
{ "type": "Feature", "properties": { "gid": 2673, "streetname": "rue Neuve Saint Paul", "note": null }, "geometry": { "type": "MultiLineString", "coordinates": [ [ [ 653115.519595339312218, 6861624.802720740437508 ], [ 653131.756430790410377, 6861645.395780336111784 ], [ 653159.477857170510106, 6861675.889349356293678 ] ] ] } },
{ "type": "Feature", "properties": { "gid": 2674, "streetname": "rue Neuve Saint Paul", "note": null }, "geometry": { "type": "MultiLineString", "coordinates": [ [ [ 653068.949402512866072, 6861567.354689911939204 ], [ 653083.986472831806168, 6861583.220581167377532 ] ] ] } },
{ "type": "Feature", "properties": { "gid": 3000, "streetname": "rue neuve Sainte Catherine", "note": null }, "geometry": { "type": "MultiLineString", "coordinates": [ [ [ 653251.515009122085758, 6862060.46032097376883 ], [ 653352.948669173871167, 6862014.687011720612645 ] ] ] } },
{ "type": "Feature", "properties": { "gid": 3037, "streetname": "rue Saint Paul", "note": null }, "geometry": { "type": "MultiLineString", "coordinates": [ [ [ 653159.477857170510106, 6861675.889349356293678 ], [ 653281.029640909284353, 6861585.882622216828167 ] ] ] } },
{ "type": "Feature", "properties": { "gid": 3038, "streetname": "rue des Trois Pistolets", "note": null }, "geometry": { "type": "MultiLineString", "coordinates": [ [ [ 653281.029640909284353, 6861585.882622216828167 ], [ 653315.304697149549611, 6861560.688991131260991 ] ] ] } },
{ "type": "Feature", "properties": { "gid": 3039, "streetname": "rue Gerard Boquet", "note": null }, "geometry": { "type": "MultiLineString", "coordinates": [ [ [ 653239.430854703299701, 6861530.515223670750856 ], [ 653281.029640909284353, 6861585.882622216828167 ] ] ] } },
{ "type": "Feature", "properties": { "gid": 3040, "streetname": "rue beautreillis", "note": null }, "geometry": { "type": "MultiLineString", "coordinates": [ [ [ 653281.029640909284353, 6861585.882622216828167 ], [ 653315.890595546923578, 6861634.512189189903438 ], [ 653316.76944314269349, 6861637.441681175492704 ], [ 653344.599617013009265, 6861673.474432609044015 ], [ 653385.032612556475215, 6861732.338594924658537 ] ] ] } },
{ "type": "Feature", "properties": { "gid": 3041, "streetname": "rue des Lions", "note": null }, "geometry": { "type": "MultiLineString", "coordinates": [ [ [ 653239.430854703299701, 6861530.515223670750856 ], [ 653267.553977772127837, 6861505.614541787654161 ] ] ] } },
{ "type": "Feature", "properties": { "gid": 3042, "streetname": "rue des Lions", "note": null }, "geometry": { "type": "MultiLineString", "coordinates": [ [ [ 653115.519595339312218, 6861624.802720740437508 ], [ 653142.171720756683499, 6861606.68201531842351 ], [ 653172.931386613287032, 6861583.24607942905277 ], [ 653201.347458880860358, 6861562.153737125918269 ], [ 653239.430854703299701, 6861530.515223670750856 ] ] ] } },
{ "type": "Feature", "properties": { "gid": 3043, "streetname": "quai des Celestins", "note": null }, "geometry": { "type": "MultiLineString", "coordinates": [ [ [ 653068.949402512866072, 6861567.354689911939204 ], [ 653103.502426536870189, 6861534.836224352009594 ], [ 653143.929415948339738, 6861498.510523720644414 ], [ 653207.49939205206465, 6861437.577090402133763 ] ] ] } },
{ "type": "Feature", "properties": { "gid": 3044, "streetname": "quai des Celestins", "note": null }, "geometry": { "type": "MultiLineString", "coordinates": [ [ [ 653207.49939205206465, 6861437.577090402133763 ], [ 653211.893630031612702, 6861431.132208033464849 ] ] ] } },
{ "type": "Feature", "properties": { "gid": 3045, "streetname": "port Saint Paul", "note": null }, "geometry": { "type": "MultiLineString", "coordinates": [ [ [ 653058.839178901282139, 6861556.687215917743742 ], [ 653063.07543712540064, 6861544.796497107483447 ], [ 653185.821151353185996, 6861418.242443294264376 ] ] ] } },
{ "type": "Feature", "properties": { "gid": 3046, "streetname": "rue du Petit Musc", "note": null }, "geometry": { "type": "MultiLineString", "coordinates": [ [ [ 653315.304697149549611, 6861560.688991131260991 ], [ 653339.326531437574886, 6861582.58694373164326 ] ] ] } },
{ "type": "Feature", "properties": { "gid": 3047, "streetname": "rue du Petit Musc", "note": null }, "geometry": { "type": "MultiLineString", "coordinates": [ [ [ 653207.49939205206465, 6861437.577090402133763 ], [ 653267.553977772127837, 6861505.614541787654161 ] ] ] } },
{ "type": "Feature", "properties": { "gid": 3048, "streetname": "rue du Petit Musc", "note": null }, "geometry": { "type": "MultiLineString", "coordinates": [ [ [ 653267.553977772127837, 6861505.614541787654161 ], [ 653315.304697149549611, 6861560.688991131260991 ] ] ] } },
{ "type": "Feature", "properties": { "gid": 3049, "streetname": "rue du Petit Musc", "note": null }, "geometry": { "type": "MultiLineString", "coordinates": [ [ [ 653339.326531437574886, 6861582.58694373164326 ], [ 653422.890290347975679, 6861664.393007448874414 ], [ 653442.517886656452902, 6861690.465486129745841 ], [ 653452.478159410064109, 6861704.819996861740947 ] ] ] } },
{ "type": "Feature", "properties": { "gid": 3050, "streetname": "rue de la Cerisaie", "note": null }, "geometry": { "type": "MultiLineString", "coordinates": [ [ [ 653339.326531437574886, 6861582.58694373164326 ], [ 653400.040252854581922, 6861545.455632802098989 ], [ 653503.451319972518831, 6861486.865793075412512 ], [ 653519.856475095963106, 6861481.006809101440012 ] ] ] } },
{ "type": "Feature", "properties": { "gid": 3051, "streetname": "pont de Gramont", "note": null }, "geometry": { "type": "MultiLineString", "coordinates": [ [ [ 653157.185367186670192, 6861366.170723234303296 ], [ 653182.378998269326985, 6861395.465643097646534 ], [ 653211.893630031612702, 6861431.132208033464849 ] ] ] } },
{ "type": "Feature", "properties": { "gid": 3067, "streetname": "rue de l'Egout Sainte Catherine", "note": null }, "geometry": { "type": "MultiLineString", "coordinates": [ [ [ 653246.429873603046872, 6861800.411168936640024 ], [ 653254.44450113363564, 6861819.070184330455959 ], [ 653308.640102881006896, 6861927.461387827061117 ], [ 653352.948669173871167, 6862014.687011720612645 ] ] ] } },
{ "type": "Feature", "properties": { "gid": 3068, "streetname": "rue Saint Antoine", "note": null }, "geometry": { "type": "MultiLineString", "coordinates": [ [ [ 653452.478159410064109, 6861704.819996861740947 ], [ 653505.797155811218545, 6861688.923607715405524 ], [ 653528.149045955389738, 6861679.538382723927498 ] ] ] } },
{ "type": "Feature", "properties": { "gid": 3069, "streetname": "rue Saint Antoine", "note": null }, "geometry": { "type": "MultiLineString", "coordinates": [ [ [ 653385.032612556475215, 6861732.338594924658537 ], [ 653452.478159410064109, 6861704.819996861740947 ] ] ] } },
{ "type": "Feature", "properties": { "gid": 3070, "streetname": "rue Saint Antoine", "note": null }, "geometry": { "type": "MultiLineString", "coordinates": [ [ [ 653246.429873603046872, 6861800.411168936640024 ], [ 653385.032612556475215, 6861732.338594924658537 ] ] ] } },
{ "type": "Feature", "properties": { "gid": 3073, "streetname": "rue Saint Antoine", "note": null }, "geometry": { "type": "MultiLineString", "coordinates": [ [ [ 653235.117749150493182, 6861806.576073718257248 ], [ 653246.429873603046872, 6861800.411168936640024 ] ] ] } },
{ "type": "Feature", "properties": { "gid": 3074, "streetname": "rue Saint Antoine", "note": null }, "geometry": { "type": "MultiLineString", "coordinates": [ [ [ 653152.981082634301856, 6861842.94006556365639 ], [ 653167.785017927875742, 6861835.235921394079924 ], [ 653235.117749150493182, 6861806.576073718257248 ] ] ] } },
{ "type": "Feature", "properties": { "gid": 3083, "streetname": "rue de l'Echarpe", "note": null }, "geometry": { "type": "MultiLineString", "coordinates": [ [ [ 653352.948669173871167, 6862014.687011720612645 ], [ 653365.655593243660405, 6862011.144645718857646 ] ] ] } },
{ "type": "Feature", "properties": { "gid": 3084, "streetname": "rue de l'Echarpe", "note": null }, "geometry": { "type": "MultiLineString", "coordinates": [ [ [ 653365.655593243660405, 6862011.144645718857646 ], [ 653401.947467150865123, 6862001.02741832844913 ] ] ] } },
{ "type": "Feature", "properties": { "gid": 3087, "streetname": "rue Saint Louis", "note": null }, "geometry": { "type": "MultiLineString", "coordinates": [ [ [ 653365.655593243660405, 6862011.144645718857646 ], [ 653369.280586998327635, 6862037.317337316460907 ], [ 653370.580416692653671, 6862085.589705925434828 ] ] ] } },
{ "type": "Feature", "properties": { "gid": 3103, "streetname": null, "note": null }, "geometry": { "type": "MultiLineString", "coordinates": [ [ [ 654514.030290443566628, 6860802.975445010699332 ], [ 654521.833531906479038, 6860811.025046961382031 ], [ 654650.233466086094268, 6860896.512371559627354 ] ] ] } },
{ "type": "Feature", "properties": { "gid": 3104, "streetname": "Place Roiale", "note": null }, "geometry": { "type": "MultiLineString", "coordinates": [ [ [ 653517.358879751292989, 6861970.489501147530973 ], [ 653487.394108662498184, 6861845.996800356544554 ], [ 653427.928880963823758, 6861859.725733991712332 ], [ 653365.426017279271036, 6861873.993790047243237 ], [ 653387.219117329688743, 6861947.560540959239006 ], [ 653401.947467150865123, 6862001.02741832844913 ] ] ] } },
{ "type": "Feature", "properties": { "gid": 3105, "streetname": "Place Roiale", "note": null }, "geometry": { "type": "MultiLineString", "coordinates": [ [ [ 653467.900114692281932, 6861986.732340161688626 ], [ 653517.358879751292989, 6861970.489501147530973 ] ] ] } },
{ "type": "Feature", "properties": { "gid": 3106, "streetname": "Place Roiale", "note": null }, "geometry": { "type": "MultiLineString", "coordinates": [ [ [ 653401.947467150865123, 6862001.02741832844913 ], [ 653467.900114692281932, 6861986.732340161688626 ] ] ] } }
]
}
